{"type":"FeatureCollection","features":[{"type":"Feature","geometry":{"type":"Polygon","coordinates":[[[-73.7223842805395,-44.247953636110516],[-73.71924073157405,-44.24824183616071],[-73.71902615485286,-44.24698143085823],[-73.72213751731013,-44.24673165221081],[-73.7223842805395,-44.247953636110516]]]},"id":"1_0","properties":{"object_type":"polygon","radius_m":0,"validation_id":"polygon_001"}},{"type":"Feature","geometry":{"type":"Polygon","coordinates":[[[-73.843665114265,-44.27338361779464],[-73.84227036557725,-44.273306797443524],[-73.84293555341294,-44.27107896357949],[-73.8441157253795,-44.27117115148332],[-73.843665114265,-44.27338361779464]]]},"id":"1_1","properties":{"object_type":"polygon","radius_m":0,"validation_id":"polygon_002"}},{"type":"Feature","geometry":{"type":"Polygon","coordinates":[[[-73.81250677882419,-44.25593564839703],[-73.80859075366244,-44.25561290647014],[-73.80867658435092,-44.25439108170084],[-73.8125818806766,-44.25472151480322],[-73.81250677882419,-44.25593564839703]]]},"id":"1_2","properties":{"object_type":"polygon","radius_m":0,"validation_id":"polygon_003"}},{"type":"Feature","geometry":{"type":"Polygon","coordinates":[[[-73.88174935840654,-44.25126462486323],[-73.87766167186784,-44.251203145464075],[-73.87769385837602,-44.25039622239297],[-73.88174935840654,-44.250473072686255],[-73.88174935840654,-44.25126462486323]]]},"id":"1_3","properties":{"object_type":"polygon","radius_m":0,"validation_id":"polygon_004"}},{"type":"Feature","geometry":{"type":"Polygon","coordinates":[[[-73.80570972929405,-44.1626216053941],[-73.80415404806541,-44.16512291303475],[-73.80286658773827,-44.1648766351434],[-73.80454028616357,-44.162205993234465],[-73.80570972929405,-44.1626216053941]]]},"id":"1_4","properties":{"object_type":"polygon","radius_m":0,"validation_id":"polygon_005"}},{"type":"Feature","geometry":{"type":"Polygon","coordinates":[[[-73.85201798473032,-44.150770451021216],[-73.85147081409129,-44.15167111486283],[-73.84848819766673,-44.15066267835876],[-73.84922848735484,-44.14976199912788],[-73.85201798473032,-44.150770451021216]]]},"id":"1_5","properties":{"object_type":"polygon","radius_m":0,"validation_id":"polygon_006"}},{"type":"Feature","geometry":{"type":"Polygon","coordinates":[[[-73.76096441026534,-44.103648965946014],[-73.75933362718429,-44.10626062656252],[-73.75784231897201,-44.10571365114786],[-73.7592263388237,-44.103225234318515],[-73.76096441026534,-44.103648965946014]]]},"id":"1_6","properties":{"object_type":"polygon","radius_m":0,"validation_id":"polygon_007"}},{"type":"Feature","geometry":{"type":"Polygon","coordinates":[[[-73.73563078138692,-44.12054829126545],[-73.73397316296723,-44.12071003296919],[-73.73351718322839,-44.117983451975114],[-73.7351426180923,-44.11782170203635],[-73.73563078138692,-44.12054829126545]]]},"id":"1_7","properties":{"object_type":"polygon","radius_m":0,"validation_id":"polygon_008"}},{"type":"Feature","geometry":{"type":"Polygon","coordinates":[[[-73.62690880855315,-44.180771442681745],[-73.6238725479483,-44.18074066616904],[-73.62390473445647,-44.17953267535499],[-73.6268980797171,-44.17957884106389],[-73.62690880855315,-44.180771442681745]]]},"id":"1_8","properties":{"object_type":"polygon","radius_m":0,"validation_id":"polygon_009"}},{"type":"Feature","geometry":{"type":"Polygon","coordinates":[[[-73.66237119435641,-44.15207137539723],[-73.66064385175082,-44.152048281780885],[-73.660676038259,-44.14947713598741],[-73.66243556737277,-44.1495002306098],[-73.66237119435641,-44.15207137539723]]]},"id":"1_9","properties":{"object_type":"polygon","radius_m":0,"validation_id":"polygon_010"}},{"type":"Feature","geometry":{"type":"Polygon","coordinates":[[[-73.66087160807166,-44.11986153283052],[-73.65958414774451,-44.120677946679564],[-73.6564835141233,-44.11768950898279],[-73.65799628000771,-44.11683454152631],[-73.66087160807166,-44.11986153283052]]]},"id":"1_10","properties":{"object_type":"polygon","radius_m":0,"validation_id":"polygon_011"}},{"type":"Feature","geometry":{"type":"Polygon","coordinates":[[[-73.57505973017743,-44.09892872701493],[-73.57332165873578,-44.09976854413258],[-73.57130463755658,-44.097326107121404],[-73.57320364153912,-44.09650166554462],[-73.57505973017743,-44.09892872701493]]]},"id":"1_11","properties":{"object_type":"polygon","radius_m":0,"validation_id":"polygon_012"}},{"type":"Feature","geometry":{"type":"Polygon","coordinates":[[[-73.54372514686786,-44.1523324519816],[-73.54272736511432,-44.15324078970458],[-73.53866113624774,-44.15102380525878],[-73.53959454498492,-44.15025399951401],[-73.54372514686786,-44.1523324519816]]]},"id":"1_12","properties":{"object_type":"polygon","radius_m":0,"validation_id":"polygon_013"}},{"type":"Feature","geometry":{"type":"Polygon","coordinates":[[[-73.73763352942915,-44.2473034780176],[-73.7373223964053,-44.247904859708555],[-73.73676449370832,-44.248175768813674],[-73.73460799766035,-44.247349590630215],[-73.73463750757904,-44.24651763928139],[-73.73591155124159,-44.24652724361251],[-73.73763352942915,-44.2473034780176]]]},"id":"1_13","properties":{"object_type":"polygon","radius_m":0,"validation_id":"polygon_014"}},{"type":"Feature","geometry":{"type":"Polygon","coordinates":[[[-73.85167424051431,-44.23051887457346],[-73.85184963248939,-44.230536782182526],[-73.85201106356254,-44.23058907959523],[-73.85214568402624,-44.23067160402137],[-73.85224277813985,-44.23077778662693],[-73.85229461708742,-44.230899175378916],[-73.85229707423044,-44.23102610779515],[-73.8522499536687,-44.2311484800584],[-73.85215700593136,-44.23125655127924],[-73.85202562951815,-44.23134171888875],[-73.85186628202267,-44.231397203434085],[-73.85169164769819,-44.23141858825763],[-73.85151562773095,-44.231404171090354],[-73.85135223361401,-44.23135509956397],[-73.85121447173763,-44.23127527985159],[-73.8511133080124,-44.23117106571154],[-73.85105679496243,-44.231050752694074],[-73.8510494307782,-44.23092391778288],[-73.85109180133816,-44.23080065704618],[-73.85118053366968,-44.23069078198675],[-73.85130856452386,-44.23060303856249],[-73.85146570265857,-44.23054441103842],[-73.85163944005703,-44.23051956607397],[-73.85167424051431,-44.23051887457346]]]},"id":"2_0","properties":{"object_type":"radial","radius_m":50,"validation_id":"radial_015"}}]}