{"type":"FeatureCollection","features":[{"type":"Feature","geometry":{"type":"Polygon","coordinates":[[[147.44721674208049,-43.18456838467839],[147.44704438426044,-43.18458629229229],[147.44688574583927,-43.184638589717935],[147.4467534542403,-43.18472111416109],[147.44665803982906,-43.18482729678247],[147.44660709771063,-43.18494868554411],[147.44660468312233,-43.18507561796081],[147.4466509885606,-43.18519799021522],[147.44674232836616,-43.18530606142066],[147.44687143202316,-43.185391229013014],[147.44702802285107,-43.1854467135448],[147.44719963603757,-43.18546809836261],[147.44737261089432,-43.18545368119923],[147.4475331783351,-43.18540460968512],[147.44766855698452,-43.185324789989615],[147.4477679706403,-43.18522057586573],[147.4478235060782,-43.18510026285869],[147.44783074291257,-43.18497342794893],[147.44778910538568,-43.18485016720422],[147.4477019081062,-43.18474029212984],[147.44757609212476,-43.18465254868836],[147.44742167238036,-43.18459392115017],[147.44725094051523,-43.1845690761791],[147.44721674208049,-43.18456838467839]]]},"id":"0_0","properties":{"aef_utm_zone":"55S","centroid_lat":-43.18501832797598,"centroid_lon":147.44721674208049,"class":"target","nominal_sampled_area_m2":7900,"pixel_count":79,"poly_id":"Tasmania_target_0","rad":50,"region":"Tasmania","sampling_crs":"EPSG:32755","sampling_radius_m":50,"sampling_scale_m":10,"site_id":"Tasmania_target_0","source_geom_type":"Point","source_id":"0","year":2024}},{"type":"Feature","geometry":{"type":"Polygon","coordinates":[[[147.43651272937984,-43.166574980879226],[147.43634042233847,-43.16659288849319],[147.4361818306543,-43.16664518591906],[147.43604957803046,-43.166727710362515],[147.43595419173022,-43.16683389298416],[147.43590326462083,-43.166955281745956],[147.4359008507447,-43.16708221416267],[147.43594714254132,-43.16720458641692],[147.436038455437,-43.16731265762211],[147.43616752105788,-43.167397825214174],[147.4363240657511,-43.16745330974572],[147.43649562837672,-43.167474694563445],[147.43666855227147,-43.167460277400124],[147.43682907240589,-43.16741120588624],[147.43696441117038,-43.16733138619101],[147.43706379553754,-43.1672271720674],[147.43711931461442,-43.167106859060524],[147.4371265493175,-43.16698002415079],[147.43708492405838,-43.16685676340595],[147.4369977524691,-43.16674688833132],[147.43687197355507,-43.16665914488955],[147.43671759930479,-43.166600517351114],[147.43654691773935,-43.166575672379935],[147.43651272937984,-43.166574980879226]]]},"id":"0_1","properties":{"aef_utm_zone":"55S","centroid_lat":-43.16702492417681,"centroid_lon":147.43651272937984,"class":"target","nominal_sampled_area_m2":7600,"pixel_count":76,"poly_id":"Tasmania_target_1","rad":50,"region":"Tasmania","sampling_crs":"EPSG:32755","sampling_radius_m":50,"sampling_scale_m":10,"site_id":"Tasmania_target_1","source_geom_type":"Point","source_id":"1","year":2024}},{"type":"Feature","geometry":{"type":"Polygon","coordinates":[[[146.99007049588562,-43.19169744918728],[146.98989811793385,-43.19171535680113],[146.98973946098337,-43.19176765422669],[146.9896071539323,-43.191850178669746],[146.9895117283762,-43.19195636129101],[146.98946078030724,-43.19207775005258],[146.9894583654366,-43.192204682469296],[146.98950467628327,-43.19232705472376],[146.98959602675748,-43.19243512592931],[146.98972514549433,-43.19252029352177],[146.9898817546128,-43.19257577805364],[146.99005338784463,-43.1925971628715],[146.99022638290577,-43.19258274570809],[146.99038696910165,-43.1925336741939],[146.99052236356385,-43.19245385449828],[146.99062178883142,-43.19234964037428],[146.99067733075577,-43.192229327367166],[146.9906845684351,-43.1921024924574],[146.99064292604453,-43.19197923171275],[146.99055571857997,-43.19186935663848],[146.99042988790276,-43.19178161319711],[146.99027545012171,-43.191722985659],[146.9901046983148,-43.191698140687976],[146.99007049588562,-43.19169744918728]]]},"id":"0_2","properties":{"aef_utm_zone":"55S","centroid_lat":-43.19214739248486,"centroid_lon":146.99007049588562,"class":"target","nominal_sampled_area_m2":7800,"pixel_count":78,"poly_id":"Tasmania_target_2","rad":50,"region":"Tasmania","sampling_crs":"EPSG:32755","sampling_radius_m":50,"sampling_scale_m":10,"site_id":"Tasmania_target_2","source_geom_type":"Point","source_id":"2","year":2024}},{"type":"Feature","geometry":{"type":"Polygon","coordinates":[[[147.4318225638957,-43.12053760939393],[147.43165038656173,-43.1205555170081],[147.43149191426093,-43.12060781443453],[147.43135976119402,-43.12069033887872],[147.4312644466995,-43.120796521501035],[147.43121355792871,-43.12091791026326],[147.43121114587174,-43.12104484267999],[147.43125740282255,-43.12116721493388],[147.4313486469806,-43.12127528613839],[147.4314776154432,-43.12136045372971],[147.43163404229136,-43.12141593826067],[147.43180547576608,-43.12143732307815],[147.4319782694851,-43.12142290591499],[147.43213866878168,-43.12137383440164],[147.43227390566537,-43.121294014707146],[147.43237321521863,-43.121189800584226],[147.43242869250346,-43.121069487577806],[147.4324359217624,-43.120942652668134],[147.4323943278398,-43.12081939192294],[147.4323072218726,-43.12070951684767],[147.43218153764238,-43.120621773405155],[147.43202727960085,-43.120563145866114],[147.43185672651927,-43.12053830089464],[147.4318225638957,-43.12053760939393]]]},"id":"0_3","properties":{"aef_utm_zone":"55S","centroid_lat":-43.12098755269151,"centroid_lon":147.4318225638957,"class":"target","nominal_sampled_area_m2":7900,"pixel_count":79,"poly_id":"Tasmania_target_3","rad":50,"region":"Tasmania","sampling_crs":"EPSG:32755","sampling_radius_m":50,"sampling_scale_m":10,"site_id":"Tasmania_target_3","source_geom_type":"Point","source_id":"3","year":2024}},{"type":"Feature","geometry":{"type":"Polygon","coordinates":[[[147.42555692363692,-43.11100517335216],[147.42538477312172,-43.11102308096638],[147.42522632550504,-43.111075378392925],[147.4250941930228,-43.11115790283726],[147.42499889337512,-43.11126408545973],[147.42494801253136,-43.111385474222025],[147.42494560085055,-43.11151240663878],[147.42499185059654,-43.11163477889257],[147.42508308054215,-43.11174285009695],[147.42521202891595,-43.11182801768811],[147.42536843139803,-43.11188350221896],[147.42553983816907,-43.11190488703638],[147.42571260497252,-43.11189046987326],[147.4258729792842,-43.11184139836002],[147.4260081951027,-43.111761578665664],[147.42610748918716,-43.1116573645429],[147.4261629578309,-43.111537051536565],[147.42617018596422,-43.111410216626915],[147.42612859852088,-43.11128695588165],[147.4260415061219,-43.11117708080625],[147.42591584146885,-43.11108933736357],[147.42576160745503,-43.111030709824405],[147.42559108093923,-43.11100586485288],[147.42555692363692,-43.11100517335216]]]},"id":"0_4","properties":{"aef_utm_zone":"55S","centroid_lat":-43.11145511664975,"centroid_lon":147.42555692363692,"class":"target","nominal_sampled_area_m2":7900,"pixel_count":79,"poly_id":"Tasmania_target_4","rad":50,"region":"Tasmania","sampling_crs":"EPSG:32755","sampling_radius_m":50,"sampling_scale_m":10,"site_id":"Tasmania_target_4","source_geom_type":"Point","source_id":"4","year":2024}},{"type":"Feature","geometry":{"type":"Polygon","coordinates":[[[147.00556753074977,-43.212326458551566],[147.00539509450232,-43.212344366165325],[147.00523638389623,-43.21239666359063],[147.00510403210038,-43.21247918803336],[147.0050085742719,-43.212585370654324],[147.00495760897206,-43.2127067594157],[147.0049551932838,-43.21283369183241],[147.00500151979156,-43.212956064087045],[147.0050929011592,-43.213064135292875],[147.0052220635628,-43.21314930288568],[147.00537872564556,-43.21320478741781],[147.00555041692292,-43.21322617223578],[147.0057234704902,-43.213211755072294],[147.0058841109954,-43.21316268355787],[147.00601955124688,-43.21308286386193],[147.00611901013878,-43.21297864973763],[147.00617457084616,-43.2128583367303],[147.0061818109723,-43.2127315018205],[147.00614015449784,-43.212608241076005],[147.0060529175401,-43.212498366002016],[147.00592704430824,-43.21241062256099],[147.00577255429837,-43.21235199502317],[147.00560174474572,-43.21232715005226],[147.00556753074977,-43.212326458551566]]]},"id":"0_5","properties":{"aef_utm_zone":"55S","centroid_lat":-43.212776401849155,"centroid_lon":147.00556753074977,"class":"target","nominal_sampled_area_m2":7800,"pixel_count":78,"poly_id":"Tasmania_target_5","rad":50,"region":"Tasmania","sampling_crs":"EPSG:32755","sampling_radius_m":50,"sampling_scale_m":10,"site_id":"Tasmania_target_5","source_geom_type":"Point","source_id":"5","year":2024}},{"type":"Feature","geometry":{"type":"Polygon","coordinates":[[[147.72345772894585,-43.09773754475491],[147.72328561573627,-43.09775545236918],[147.72312720245583,-43.09780774979589],[147.72299509860753,-43.09789027424044],[147.72289981961214,-43.0979964568631],[147.7228489497951,-43.09811784562552],[147.72284653863744,-43.098244778042265],[147.72289277836134,-43.098367150295964],[147.72298398853707,-43.09847522150015],[147.72311290896684,-43.0985603890911],[147.72326927755515,-43.098615873621775],[147.72344064718064,-43.09863725843913],[147.72361337654377,-43.098622841276054],[147.72377371610088,-43.09857376976296],[147.72390890261704,-43.09849395006882],[147.72400817518405,-43.098389735946256],[147.72406363180787,-43.09826942294006],[147.72407085837537,-43.09814258803042],[147.7240292799448,-43.09801932728506],[147.72394220641965,-43.09790945220946],[147.72381656899893,-43.09782170876658],[147.7236623684083,-43.097763081227235],[147.7234918788462,-43.097738236255616],[147.72345772894585,-43.09773754475491]]]},"id":"0_6","properties":{"aef_utm_zone":"55S","centroid_lat":-43.098187488052496,"centroid_lon":147.72345772894585,"class":"target","nominal_sampled_area_m2":7800,"pixel_count":78,"poly_id":"Tasmania_target_6","rad":50,"region":"Tasmania","sampling_crs":"EPSG:32755","sampling_radius_m":50,"sampling_scale_m":10,"site_id":"Tasmania_target_6","source_geom_type":"Point","source_id":"6","year":2024}},{"type":"Feature","geometry":{"type":"Polygon","coordinates":[[[147.68430855438075,-43.10943749315212],[147.6841364082748,-43.109455400766336],[147.6839779647165,-43.1095076981929],[147.68384583561863,-43.10959022263727],[147.68375053841189,-43.10969640525976],[147.6836996588714,-43.10981779402207],[147.68369724725244,-43.10994472643882],[147.68374349581387,-43.1100670986926],[147.6838347234228,-43.11017516989696],[147.68396366849382,-43.11026033748811],[147.68412006696985,-43.11031582201892],[147.6842914693505,-43.110337206836334],[147.68446423172878,-43.110322789673226],[147.68462460193268,-43.11027371816],[147.6847598142878,-43.110193898465674],[147.68485910582905,-43.110089684342924],[147.6849145730521,-43.10996937133661],[147.68492180100037,-43.10984253642697],[147.68488021462227,-43.109719275681684],[147.68479312445405,-43.10960940060625],[147.68466746301968,-43.10952165716356],[147.6845132329563,-43.10946302962437],[147.68434271080818,-43.10943818465283],[147.68430855438075,-43.10943749315212]]]},"id":"0_7","properties":{"aef_utm_zone":"55S","centroid_lat":-43.109887436449704,"centroid_lon":147.68430855438075,"class":"target","nominal_sampled_area_m2":7600,"pixel_count":76,"poly_id":"Tasmania_target_7","rad":50,"region":"Tasmania","sampling_crs":"EPSG:32755","sampling_radius_m":50,"sampling_scale_m":10,"site_id":"Tasmania_target_7","source_geom_type":"Point","source_id":"7","year":2024}},{"type":"Feature","geometry":{"type":"Polygon","coordinates":[[[147.3030040959248,-43.13453672701245],[147.3028318791816,-43.13455463462657],[147.30267337060837,-43.13460693205282],[147.3025411872929,-43.13468945649679],[147.30244585098154,-43.134795639118906],[147.30239495056227,-43.134917027880995],[147.30239253795258,-43.13504396029773],[147.30243880549068,-43.13516633255171],[147.30253007053338,-43.13527440375644],[147.30265906851574,-43.13535957134798],[147.30281553116896,-43.135415055879115],[147.3029870038838,-43.13543644069667],[147.3031598371543,-43.135422023533465],[147.3033202731652,-43.13537295201995],[147.30345554100353,-43.13529313232523],[147.3035548732876,-43.13518891820211],[147.30361036327017,-43.135068605195556],[147.30361759418324,-43.134941770285856],[147.3035759907396,-43.13481850954078],[147.30348886483435,-43.13470863446569],[147.3033631518362,-43.1346208910234],[147.30320885848676,-43.134562263484554],[147.30303826636774,-43.13453741851316],[147.3030040959248,-43.13453672701245]]]},"id":"0_8","properties":{"aef_utm_zone":"55S","centroid_lat":-43.134986670310035,"centroid_lon":147.3030040959248,"class":"target","nominal_sampled_area_m2":7800,"pixel_count":78,"poly_id":"Tasmania_target_8","rad":50,"region":"Tasmania","sampling_crs":"EPSG:32755","sampling_radius_m":50,"sampling_scale_m":10,"site_id":"Tasmania_target_8","source_geom_type":"Point","source_id":"8","year":2024}},{"type":"Feature","geometry":{"type":"Polygon","coordinates":[[[147.28463581464447,-43.17933506482936],[147.2844634715981,-43.17935297244326],[147.28430484677466,-43.17940526986898],[147.28417256651522,-43.17948779431224],[147.2840771602826,-43.17959397693369],[147.28402622253094,-43.17971536569537],[147.28402380814984,-43.179842298112085],[147.2840701096192,-43.17996467036644],[147.28416144159553,-43.18007274157181],[147.28429053418625,-43.18015790916408],[147.28444711159167,-43.18021339369579],[147.28461871006786,-43.18023477851358],[147.28479167009763,-43.180220361350216],[147.284952223775,-43.180171289836174],[147.28508759082024,-43.180091470140745],[147.28518699595475,-43.17998725601695],[147.28524252663254,-43.17986694300995],[147.2852497628468,-43.17974010810019],[147.28520812888914,-43.179616847355454],[147.285120939084,-43.179506972281],[147.28499513388704,-43.179419228839436],[147.28484072737876,-43.17936060130117],[147.28467001014792,-43.17933575633006],[147.28463581464447,-43.17933506482936]]]},"id":"0_9","properties":{"aef_utm_zone":"55S","centroid_lat":-43.17978500812694,"centroid_lon":147.28463581464447,"class":"target","nominal_sampled_area_m2":7800,"pixel_count":78,"poly_id":"Tasmania_target_9","rad":50,"region":"Tasmania","sampling_crs":"EPSG:32755","sampling_radius_m":50,"sampling_scale_m":10,"site_id":"Tasmania_target_9","source_geom_type":"Point","source_id":"9","year":2024}},{"type":"Feature","geometry":{"type":"Polygon","coordinates":[[[147.30336981313417,-43.088635394883966],[147.30319772550305,-43.08865330249827],[147.30303933576525,-43.088705599925085],[147.30290725154973,-43.088788124369785],[147.30281198671454,-43.08889430699259],[147.30276112445793,-43.08901569575509],[147.30275871365905,-43.08914262817184],[147.30280494651126,-43.08926500042545],[147.30289614313182,-43.08937307162951],[147.30302504440183,-43.08945823922032],[147.30318138975088,-43.08951372375087],[147.3033527339076,-43.08953510856818],[147.30352543759986,-43.08952069140514],[147.30368575332756,-43.08947161989215],[147.30382091975267,-43.089391800198165],[147.30392017756625,-43.089287586075734],[147.30397562594857,-43.08916727306962],[147.3039828514425,-43.08904043815999],[147.30394127919158,-43.088917177414565],[147.30385421860714,-43.08880730233884],[147.30372859985826,-43.088719558895804],[147.3035744221842,-43.08866093135635],[147.30340395795932,-43.088636086384675],[147.30336981313417,-43.088635394883966]]]},"id":"0_10","properties":{"aef_utm_zone":"55S","centroid_lat":-43.08908533818154,"centroid_lon":147.30336981313417,"class":"target","nominal_sampled_area_m2":7900,"pixel_count":79,"poly_id":"Tasmania_target_10","rad":50,"region":"Tasmania","sampling_crs":"EPSG:32755","sampling_radius_m":50,"sampling_scale_m":10,"site_id":"Tasmania_target_10","source_geom_type":"Point","source_id":"10","year":2024}},{"type":"Feature","geometry":{"type":"Polygon","coordinates":[[[147.28960228660466,-43.10827941006016],[147.28943014375577,-43.10829731767439],[147.2892717031952,-43.10834961510096],[147.28913957659728,-43.10843213954535],[147.2890442811936,-43.10853832216786],[147.28899340261583,-43.108659710930176],[147.28899099104254,-43.108786643346924],[147.28903723872898,-43.1089090156007],[147.28912846461188,-43.10901708680504],[147.28925740724318,-43.10910225439616],[147.28941380276012,-43.109157738926974],[147.2895852018977,-43.109179123744376],[147.28975796100718,-43.10916470658127],[147.28991832817678,-43.10911563506805],[147.2900535379736,-43.10903581537376],[147.29015282763623,-43.10893160125103],[147.2902082938099,-43.10881128824472],[147.29021552162146,-43.10868445333507],[147.29017393603021,-43.10856119258979],[147.29008684750983,-43.10845131751434],[147.28996118845302,-43.108363574071625],[147.28980696130768,-43.10830494653242],[147.28963644238587,-43.10828010156087],[147.28960228660466,-43.10827941006016]]]},"id":"0_11","properties":{"aef_utm_zone":"55S","centroid_lat":-43.108729353357745,"centroid_lon":147.28960228660466,"class":"target","nominal_sampled_area_m2":7800,"pixel_count":78,"poly_id":"Tasmania_target_11","rad":50,"region":"Tasmania","sampling_crs":"EPSG:32755","sampling_radius_m":50,"sampling_scale_m":10,"site_id":"Tasmania_target_11","source_geom_type":"Point","source_id":"11","year":2024}},{"type":"Feature","geometry":{"type":"Polygon","coordinates":[[[147.6922145353411,-43.107239795921416],[147.69204239541588,-43.10725770353565],[147.69188395754625,-43.10731000096223],[147.69175183319237,-43.10739252540664],[147.69165653940726,-43.10749870802916],[147.69160566169367,-43.10762009679149],[147.69160325016136,-43.107747029208234],[147.69164949706237,-43.107869401462004],[147.6917407213959,-43.10797747266633],[147.69186966183722,-43.10806264025744],[147.69202605469783,-43.10811812478823],[147.6921974509243,-43.10813950960563],[147.69237020709954,-43.10812509244252],[147.69253057154543,-43.108076020929325],[147.6926657790458,-43.10799620123503],[147.69276506702212,-43.107891987112325],[147.69282053225373,-43.107771674106026],[147.69282775994256,-43.10764483919638],[147.69278617505768,-43.10752157845109],[147.69269908801644,-43.10741170337563],[147.69257343109385,-43.1073239599329],[147.6924192065679,-43.10726533239368],[147.6922486905422,-43.107240487422125],[147.6922145353411,-43.107239795921416]]]},"id":"0_12","properties":{"aef_utm_zone":"55S","centroid_lat":-43.10768973921899,"centroid_lon":147.6922145353411,"class":"target","nominal_sampled_area_m2":7800,"pixel_count":78,"poly_id":"Tasmania_target_12","rad":50,"region":"Tasmania","sampling_crs":"EPSG:32755","sampling_radius_m":50,"sampling_scale_m":10,"site_id":"Tasmania_target_12","source_geom_type":"Point","source_id":"12","year":2024}},{"type":"Feature","geometry":{"type":"Polygon","coordinates":[[[147.69888787137015,-43.10347993289084],[147.69871574201736,-43.10349784050509],[147.69855731387867,-43.10355013793173],[147.69842519763964,-43.103632662376185],[147.69832990970738,-43.10373884499877],[147.6982790351188,-43.10386023376113],[147.69827662373476,-43.10398716617788],[147.6983228677955,-43.104109538431615],[147.6984140865262,-43.10421760963588],[147.69854301904817,-43.104302777226934],[147.69869940230328,-43.104358261757675],[147.6988707880027,-43.10437964657507],[147.6990435335673,-43.10436522941197],[147.69920388816374,-43.10431615789881],[147.69933908735982,-43.104236338204586],[147.69943836923804,-43.10413212408193],[147.69949383106322,-43.10401181107568],[147.6995010583083,-43.10388497616602],[147.69945947597765,-43.10376171542071],[147.69937239428526,-43.10365184034519],[147.69924674508036,-43.103564096902396],[147.69909253002655,-43.103505469363135],[147.69892202447352,-43.103480624391565],[147.69888787137015,-43.10347993289084]]]},"id":"0_13","properties":{"aef_utm_zone":"55S","centroid_lat":-43.103929876188424,"centroid_lon":147.69888787137015,"class":"target","nominal_sampled_area_m2":7900,"pixel_count":79,"poly_id":"Tasmania_target_13","rad":50,"region":"Tasmania","sampling_crs":"EPSG:32755","sampling_radius_m":50,"sampling_scale_m":10,"site_id":"Tasmania_target_13","source_geom_type":"Point","source_id":"13","year":2024}},{"type":"Feature","geometry":{"type":"Polygon","coordinates":[[[147.44057040187377,-43.17298292838385],[147.4403980767541,-43.17300083599778],[147.44023946843055,-43.17305313342358],[147.44010720193072,-43.17313565786693],[147.44001180562233,-43.17324184048848],[147.43996087316938,-43.173363229250214],[147.4399584590397,-43.173490161666926],[147.44000475569308,-43.17361253392124],[147.44009607816923,-43.17372060512651],[147.44022515733184,-43.17380577271868],[147.44038171845,-43.17386125725031],[147.44055329907638,-43.17388264206808],[147.4407262411147,-43.17386822490472],[147.4408867780912,-43.17381915339076],[147.44102213105558,-43.17373933369544],[147.44112152585015,-43.17363511957173],[147.4411770507519,-43.17351480656479],[147.44118428621374,-43.17338797165505],[147.44114265658706,-43.17326471091026],[147.4410554758515,-43.17315483583572],[147.44092968374068,-43.17306709239405],[147.44077529329348,-43.1730084648557],[147.44060459382027,-43.172983619884555],[147.44057040187377,-43.17298292838385]]]},"id":"0_14","properties":{"aef_utm_zone":"55S","centroid_lat":-43.173432871681435,"centroid_lon":147.44057040187377,"class":"target","nominal_sampled_area_m2":7800,"pixel_count":78,"poly_id":"Tasmania_target_14","rad":50,"region":"Tasmania","sampling_crs":"EPSG:32755","sampling_radius_m":50,"sampling_scale_m":10,"site_id":"Tasmania_target_14","source_geom_type":"Point","source_id":"14","year":2024}},{"type":"Feature","geometry":{"type":"Polygon","coordinates":[[[147.4482055315955,-43.1861364174663],[147.44803316934812,-43.18615432508017],[147.44787452685205,-43.18620662250581],[147.4477422318549,-43.186289146948944],[147.4476468149927,-43.186395329570296],[147.44759587156562,-43.18651671833192],[147.44759345691523,-43.18664365074863],[147.44763976354292,-43.186766023003045],[147.4477311056947,-43.18687409420851],[147.44786021266805,-43.186959261800894],[147.4480168075184,-43.18701474633269],[147.4481884251132,-43.18703613115051],[147.44836140441325,-43.18702171398712],[147.4485219759786,-43.186972642473],[147.44865735810558,-43.18689282277747],[147.44875677431497,-43.186788608653565],[147.44881231117935,-43.1866682956465],[147.44881954819954,-43.18654146073674],[147.44877790960305,-43.18641819999205],[147.4486907100837,-43.18630832491768],[147.4485648908704,-43.186220581476235],[147.4484104671594,-43.18616195393807],[147.4482397309087,-43.186137108967],[147.4482055315955,-43.1861364174663]]]},"id":"0_15","properties":{"aef_utm_zone":"55S","centroid_lat":-43.186586360763876,"centroid_lon":147.4482055315955,"class":"target","nominal_sampled_area_m2":7800,"pixel_count":78,"poly_id":"Tasmania_target_15","rad":50,"region":"Tasmania","sampling_crs":"EPSG:32755","sampling_radius_m":50,"sampling_scale_m":10,"site_id":"Tasmania_target_15","source_geom_type":"Point","source_id":"15","year":2024}},{"type":"Feature","geometry":{"type":"Polygon","coordinates":[[[147.29423049432074,-43.136851249008195],[147.29405827105919,-43.136869156622296],[147.29389975648638,-43.136921454048526],[147.29376756816774,-43.13700397849246],[147.2936722282478,-43.13711016111454],[147.29362132590185,-43.13723154987661],[147.29361891320073,-43.13735848229333],[147.29366518248997,-43.13748085454735],[147.29375645098708,-43.1375889257521],[147.29388545385208,-43.13767409334368],[147.29404192242754,-43.13772957787486],[147.2942134016328,-43.13775096269242],[147.29438624144527,-43.1377365455292],[147.2945466835288,-43.137687474015664],[147.29468195648707,-43.13760765432091],[147.2947812925309,-43.13750344019774],[147.29483678461372,-43.137383127191164],[147.29484401580035,-43.13725629228147],[147.29480241078195,-43.1371330315364],[147.29471528157885,-43.137023156461346],[147.29458956382243,-43.1369354130191],[147.29443526463297,-43.136876785480275],[147.29426466605705,-43.136851940508905],[147.29423049432074,-43.136851249008195]]]},"id":"0_16","properties":{"aef_utm_zone":"55S","centroid_lat":-43.13730119230578,"centroid_lon":147.29423049432074,"class":"target","nominal_sampled_area_m2":7900,"pixel_count":79,"poly_id":"Tasmania_target_16","rad":50,"region":"Tasmania","sampling_crs":"EPSG:32755","sampling_radius_m":50,"sampling_scale_m":10,"site_id":"Tasmania_target_16","source_geom_type":"Point","source_id":"16","year":2024}},{"type":"Feature","geometry":{"type":"Polygon","coordinates":[[[147.29763153535163,-43.136412822474036],[147.29745931332488,-43.136430730088136],[147.29730079988857,-43.13648302751437],[147.2971686125177,-43.1365655519583],[147.29707327328134,-43.136671734580396],[147.2970223713004,-43.13679312334247],[147.2970199586166,-43.1369200557592],[147.2970662275741,-43.13704242801321],[147.29715749541683,-43.13715049921795],[147.29728649735688,-43.137235666809524],[147.29744296481047,-43.13729115134068],[147.29761444278626,-43.13731253615826],[147.29778728135943,-43.13729811899504],[147.2979477222926,-43.137249047481504],[147.29808299428097,-43.13716922778676],[147.2981823296126,-43.1370650136636],[147.29823782129756,-43.13694470065702],[147.29824505243238,-43.13681786574733],[147.29820344771227,-43.13669460500226],[147.2981163191339,-43.13658472992721],[147.29799060227884,-43.13649698648495],[147.2978363041957,-43.136438358946116],[147.2976657068429,-43.136413513974745],[147.29763153535163,-43.136412822474036]]]},"id":"0_17","properties":{"aef_utm_zone":"55S","centroid_lat":-43.13686276577162,"centroid_lon":147.29763153535163,"class":"target","nominal_sampled_area_m2":7600,"pixel_count":76,"poly_id":"Tasmania_target_17","rad":50,"region":"Tasmania","sampling_crs":"EPSG:32755","sampling_radius_m":50,"sampling_scale_m":10,"site_id":"Tasmania_target_17","source_geom_type":"Point","source_id":"17","year":2024}},{"type":"Feature","geometry":{"type":"Polygon","coordinates":[[[147.28292835488102,-43.17897890054636],[147.28275601283994,-43.17899680816027],[147.2825973889418,-43.17904910558599],[147.28246510945397,-43.17913163002925],[147.28236970377793,-43.179237812650705],[147.28231876632336,-43.179359201412396],[147.28231635195638,-43.1794861338291],[147.28236265315567,-43.17960850608346],[147.28245398459924,-43.17971657728882],[147.28258307643694,-43.17980174488108],[147.28273965292897,-43.1798572294128],[147.28291125040417,-43.17987861423058],[147.283084209425,-43.17986419706721],[147.28324476216585,-43.17981512555319],[147.2833801284214,-43.17973530585776],[147.28347953297606,-43.17963109173396],[147.28353506332994,-43.17951077872698],[147.28354229950202,-43.17938394381722],[147.28350066578724,-43.17926068307247],[147.28341347649075,-43.17915080799801],[147.2832876720276,-43.179063064556445],[147.28313326642,-43.17900443701818],[147.282962550185,-43.17897959204707],[147.28292835488102,-43.17897890054636]]]},"id":"0_18","properties":{"aef_utm_zone":"55S","centroid_lat":-43.17942884384395,"centroid_lon":147.28292835488102,"class":"target","nominal_sampled_area_m2":7900,"pixel_count":79,"poly_id":"Tasmania_target_18","rad":50,"region":"Tasmania","sampling_crs":"EPSG:32755","sampling_radius_m":50,"sampling_scale_m":10,"site_id":"Tasmania_target_18","source_geom_type":"Point","source_id":"18","year":2024}},{"type":"Feature","geometry":{"type":"Polygon","coordinates":[[[147.44617224512163,-43.19137321345707],[147.44599986808564,-43.191391121070914],[147.44584121197803,-43.19144341849648],[147.44570890562986,-43.19152594293955],[147.4456134805807,-43.191632125560815],[147.44556253278245,-43.19175351432239],[147.44556011792463,-43.1918804467391],[147.44560642852528,-43.19200281899357],[147.44569777851422,-43.1921108901991],[147.44582689656505,-43.19219605779157],[147.44598350485154,-43.19225154232343],[147.44615513717153,-43.19227292714128],[147.4463281313136,-43.19225850997787],[147.44648871665632,-43.1922094384637],[147.44662411039923,-43.19212961876808],[147.44672353513857,-43.192025404644085],[147.4467790767679,-43.191905091636976],[147.4467863144088,-43.19177825672721],[147.44674467223945,-43.19165499598255],[147.4466574652382,-43.191545120908266],[147.4465316352295,-43.191457377466904],[147.4463771982689,-43.191398749928794],[147.44620644736912,-43.191373904957764],[147.44617224512163,-43.19137321345707]]]},"id":"0_19","properties":{"aef_utm_zone":"55S","centroid_lat":-43.19182315675465,"centroid_lon":147.44617224512163,"class":"target","nominal_sampled_area_m2":7700,"pixel_count":77,"poly_id":"Tasmania_target_19","rad":50,"region":"Tasmania","sampling_crs":"EPSG:32755","sampling_radius_m":50,"sampling_scale_m":10,"site_id":"Tasmania_target_19","source_geom_type":"Point","source_id":"19","year":2024}},{"type":"Feature","geometry":{"type":"Polygon","coordinates":[[[147.31225671348366,-43.20516504913646],[147.3120842974807,-43.20518295675025],[147.31192560550775,-43.20523525417564],[147.3117932692505,-43.20531777861848],[147.31169782262933,-43.20542396123955],[147.31164686331329,-43.205545350000996],[147.31164444790898,-43.205672282417694],[147.31169076897805,-43.205794654672275],[147.3117821396173,-43.20590272587802],[147.31191128685663,-43.2059878934707],[147.31206793054633,-43.20604337800274],[147.31223960166605,-43.206064762820674],[147.3124126349158,-43.206050345657204],[147.31257325656085,-43.20600127414288],[147.312708680911,-43.20592145444704],[147.31280812812608,-43.205817240322844],[147.31286368231065,-43.20569692731559],[147.3128709215871,-43.20557009240581],[147.31282927000356,-43.20544683166125],[147.31274204328795,-43.20533695658717],[147.31261618483418,-43.20524921314602],[147.31246171296195,-43.205190585608094],[147.3122909234628,-43.20516574063715],[147.31225671348366,-43.20516504913646]]]},"id":"1_0","properties":{"aef_utm_zone":"55S","centroid_lat":-43.205614992434036,"centroid_lon":147.31225671348366,"class":"ocean","nominal_sampled_area_m2":7600,"pixel_count":76,"poly_id":"Tasmania_ocean_0","rad":50,"region":"Tasmania","sampling_crs":"EPSG:32755","sampling_radius_m":50,"sampling_scale_m":10,"site_id":"Tasmania_ocean_0","source_geom_type":"Point","source_id":"0","year":2024}},{"type":"Feature","geometry":{"type":"Polygon","coordinates":[[[147.56075475852532,-43.01650175918446],[147.5605828731796,-43.0165196667991],[147.56042466962631,-43.016571964226785],[147.56029274067487,-43.016654488672636],[147.56019758782443,-43.0167606712965],[147.5601467853589,-43.01688206005966],[147.5601443773971,-43.01700899247644],[147.56019055590548,-43.01713136472945],[147.5602816453261,-43.017239435932474],[147.5604103950728,-43.01732460352212],[147.56056655663645,-43.017380088051766],[147.56073769937564,-43.01740147286868],[147.56091020005218,-43.01738705570591],[147.561070327327,-43.017337984193745],[147.56120533486376,-43.01725816450089],[147.5613044760012,-43.01715395037955],[147.56135985920668,-43.01703363737415],[147.56136707621022,-43.01690680246461],[147.5613255528301,-43.016783541718645],[147.56123859458677,-43.01667366664191],[147.56111312350217,-43.016585923197724],[147.5609591270616,-43.0165272956573],[147.56078886321396,-43.01650245068519],[147.56075475852532,-43.01650175918446]]]},"id":"1_1","properties":{"aef_utm_zone":"55S","centroid_lat":-43.01695170248204,"centroid_lon":147.56075475852532,"class":"ocean","nominal_sampled_area_m2":7800,"pixel_count":78,"poly_id":"Tasmania_ocean_1","rad":50,"region":"Tasmania","sampling_crs":"EPSG:32755","sampling_radius_m":50,"sampling_scale_m":10,"site_id":"Tasmania_ocean_1","source_geom_type":"Point","source_id":"1","year":2024}},{"type":"Feature","geometry":{"type":"Polygon","coordinates":[[[147.26136362461304,-43.15859910344925],[147.26119134006515,-43.15861701106324],[147.26103276908412,-43.15866930848921],[147.26090053372516,-43.15875183293279],[147.26080515987726,-43.15885801555456],[147.26075423941643,-43.15897940431642],[147.2607518258558,-43.15910633673315],[147.26079811160955,-43.159228708987335],[147.26088941258496,-43.15933678019241],[147.2610184613569,-43.159421947784345],[147.2611749856138,-43.15947743231578],[147.2613465258424,-43.15949881713346],[147.26151942716245,-43.159484399970175],[147.26167992634151,-43.15943532845637],[147.2618152474381,-43.15935550876127],[147.26191461883124,-43.159251294637784],[147.26197013066067,-43.159130981630994],[147.2619773644196,-43.15900414672127],[147.26193574459484,-43.158880885976366],[147.26184858438552,-43.158771010901624],[147.2617228218913,-43.15868326745972],[147.2615684677936,-43.15862463992118],[147.26139780850949,-43.15859979494995],[147.26136362461304,-43.15859910344925]]]},"id":"1_2","properties":{"aef_utm_zone":"55S","centroid_lat":-43.15904904674683,"centroid_lon":147.26136362461304,"class":"ocean","nominal_sampled_area_m2":7800,"pixel_count":78,"poly_id":"Tasmania_ocean_2","rad":50,"region":"Tasmania","sampling_crs":"EPSG:32755","sampling_radius_m":50,"sampling_scale_m":10,"site_id":"Tasmania_ocean_2","source_geom_type":"Point","source_id":"2","year":2024}},{"type":"Feature","geometry":{"type":"Polygon","coordinates":[[[147.27475321201538,-43.18564057513894],[147.27458085116803,-43.185658482752814],[147.2744222099606,-43.18571078017845],[147.27428991603801,-43.1857933046216],[147.27419449995088,-43.185899487242956],[147.27414355693764,-43.186020876004584],[147.2741411423069,-43.186147808421296],[147.27418744855845,-43.186270180675706],[147.2742787899683,-43.18637825188116],[147.2744078958929,-43.18646341947353],[147.27456448947126,-43.186518904005325],[147.274736105672,-43.18654028882315],[147.27490908356697,-43.18652587165976],[147.275069653828,-43.186476800145655],[147.27520503485528,-43.18639698045012],[147.27530445025715,-43.186292766326225],[147.27535998667045,-43.18617245331916],[147.27536722363186,-43.18604561840941],[147.27532558537362,-43.18592235766471],[147.2752383865626,-43.18581248259034],[147.2751125683713,-43.18572473914888],[147.2749581459146,-43.1856661116107],[147.2747874110508,-43.185641266639635],[147.27475321201538,-43.18564057513894]]]},"id":"1_3","properties":{"aef_utm_zone":"55S","centroid_lat":-43.18609051843652,"centroid_lon":147.27475321201538,"class":"ocean","nominal_sampled_area_m2":7700,"pixel_count":77,"poly_id":"Tasmania_ocean_3","rad":50,"region":"Tasmania","sampling_crs":"EPSG:32755","sampling_radius_m":50,"sampling_scale_m":10,"site_id":"Tasmania_ocean_3","source_geom_type":"Point","source_id":"3","year":2024}},{"type":"Feature","geometry":{"type":"Polygon","coordinates":[[[147.2757831802771,-43.13129510796789],[147.275610972662,-43.131313015582016],[147.2754524724903,-43.13136531300831],[147.2753202961811,-43.13144783745233],[147.27522496492298,-43.13155402007449],[147.27517406720176,-43.131675408836614],[147.2751716547201,-43.13180234125335],[147.27521791980595,-43.13192471350731],[147.2753091800113,-43.13203278471198],[147.2754381711562,-43.13211795230348],[147.27559462551616,-43.13217343683458],[147.27576608914208,-43.132194821652114],[147.2759389132516,-43.13218040448891],[147.2760993407586,-43.13213133297543],[147.27623460142712,-43.13205151328077],[147.27633392844623,-43.131947299157694],[147.2763894154877,-43.13182698615117],[147.27639664601764,-43.131700151241475],[147.27635504477934,-43.13157689049637],[147.27626792349213,-43.13146701542124],[147.27614221715731,-43.13137927197891],[147.27598793198598,-43.13132064444],[147.2758173489089,-43.131295799468596],[147.2757831802771,-43.13129510796789]]]},"id":"1_4","properties":{"aef_utm_zone":"55S","centroid_lat":-43.13174505126547,"centroid_lon":147.2757831802771,"class":"ocean","nominal_sampled_area_m2":7900,"pixel_count":79,"poly_id":"Tasmania_ocean_4","rad":50,"region":"Tasmania","sampling_crs":"EPSG:32755","sampling_radius_m":50,"sampling_scale_m":10,"site_id":"Tasmania_ocean_4","source_geom_type":"Point","source_id":"4","year":2024}},{"type":"Feature","geometry":{"type":"Polygon","coordinates":[[[147.45602762607788,-43.206164066093905],[147.45585520725126,-43.206181973707686],[147.45569651267937,-43.20623427113307],[147.45556417425487,-43.206316795575894],[147.4554687260705,-43.20642297819695],[147.45541776591986,-43.20654436695838],[147.45541535047596,-43.20667129937509],[147.4554616723036,-43.206793671629676],[147.4555530444392,-43.20690174283543],[147.45568219379362,-43.20698691042813],[147.45583884004878,-43.20704239496018],[147.45601051398006,-43.20706377977811],[147.45618355006363,-43.207049362614654],[147.45634417433928,-43.20700029110031],[147.4564796009073,-43.20692047140445],[147.45657904975104,-43.206816257280245],[147.4566346048454,-43.20669594427298],[147.45664184424035,-43.2065691093632],[147.45660019197464,-43.20644584861864],[147.4565129638305,-43.20633597354457],[147.45638710331548,-43.20624823010344],[147.45623262891345,-43.20618960256554],[147.4560618366173,-43.20616475759459],[147.45602762607788,-43.206164066093905]]]},"id":"1_5","properties":{"aef_utm_zone":"55S","centroid_lat":-43.20661400939148,"centroid_lon":147.45602762607788,"class":"ocean","nominal_sampled_area_m2":7800,"pixel_count":78,"poly_id":"Tasmania_ocean_5","rad":50,"region":"Tasmania","sampling_crs":"EPSG:32755","sampling_radius_m":50,"sampling_scale_m":10,"site_id":"Tasmania_ocean_5","source_geom_type":"Point","source_id":"5","year":2024}},{"type":"Feature","geometry":{"type":"Polygon","coordinates":[[[147.31869852451538,-43.073139581391466],[147.31852648040257,-43.07315748900585],[147.31836813071922,-43.073209786432855],[147.31823607990611,-43.0732923108778],[147.31814083916257,-43.07339849350082],[147.318089989769,-43.07351988226347],[147.31808757958046,-43.07364681468023],[147.31813380074152,-43.07376918693371],[147.31822497429985,-43.07387725813754],[147.31835384297216,-43.0739624257281],[147.31851014878288,-43.074017910258455],[147.31868144960802,-43.07403929507569],[147.3188541096249,-43.0740248779127],[147.31901438481015,-43.07397580639989],[147.3191495170531,-43.07389598670614],[147.3192487497658,-43.07379177258395],[147.31930418412642,-43.07367145957799],[147.3193114077938,-43.07354462466837],[147.31926984605659,-43.07342136392284],[147.3191828074891,-43.07331148884689],[147.31905722050772,-43.07322374540361],[147.31890308182295,-43.073165117863944],[147.31873266070585,-43.073140272892175],[147.31869852451538,-43.073139581391466]]]},"id":"1_6","properties":{"aef_utm_zone":"55S","centroid_lat":-43.07358952468905,"centroid_lon":147.31869852451538,"class":"ocean","nominal_sampled_area_m2":7400,"pixel_count":74,"poly_id":"Tasmania_ocean_6","rad":50,"region":"Tasmania","sampling_crs":"EPSG:32755","sampling_radius_m":50,"sampling_scale_m":10,"site_id":"Tasmania_ocean_6","source_geom_type":"Point","source_id":"6","year":2024}},{"type":"Feature","geometry":{"type":"Polygon","coordinates":[[[147.01659340618812,-43.21346338115703],[147.01642096672603,-43.21348128877077],[147.0162622531612,-43.21353358619607],[147.0161298988979,-43.213616110638775],[147.01603443928983,-43.21372229325972],[147.01598347303982,-43.21384368202109],[147.01598105730648,-43.213970614437784],[147.01602738467784,-43.21409298669243],[147.01611876774908,-43.21420105789829],[147.01624793256062,-43.214286225491115],[147.01640459756402,-43.21434171002326],[147.01657629204217,-43.21436309484124],[147.01674934883573,-43.21434867767775],[147.01690999233574,-43.21429960616331],[147.0170454351122,-43.21421978646734],[147.01714489585828,-43.214115572343026],[147.01720045760143,-43.21399525933569],[147.0172076978625,-43.21386842442589],[147.0171660406114,-43.2137451636814],[147.01707880202727,-43.21363528860743],[147.01695292644882,-43.21354754516642],[147.01679843355888,-43.21348891762861],[147.01662762082188,-43.213464072657715],[147.01659340618812,-43.21346338115703]]]},"id":"1_7","properties":{"aef_utm_zone":"55S","centroid_lat":-43.2139133244546,"centroid_lon":147.01659340618812,"class":"ocean","nominal_sampled_area_m2":8000,"pixel_count":80,"poly_id":"Tasmania_ocean_7","rad":50,"region":"Tasmania","sampling_crs":"EPSG:32755","sampling_radius_m":50,"sampling_scale_m":10,"site_id":"Tasmania_ocean_7","source_geom_type":"Point","source_id":"7","year":2024}},{"type":"Feature","geometry":{"type":"Polygon","coordinates":[[[147.70837564149906,-43.112904999993745],[147.7082034856399,-43.11292290760796],[147.70804503310458,-43.11297520503447],[147.7079128965206,-43.11305772947879],[147.7078175939145,-43.11316391210123],[147.70776671149122,-43.1132853008635],[147.70776429973543,-43.11341223328025],[147.70781055091706,-43.11353460553406],[147.70790178369467,-43.11364267673847],[147.70803073607144,-43.11372784432967],[147.70818714340876,-43.11378332886053],[147.70835855550084,-43.11380471367797],[147.70853132766752,-43.113790296514836],[147.70869170695778,-43.11374122500157],[147.70882692697376,-43.11366140530719],[147.70892622414055,-43.113557191184405],[147.70898169450615,-43.11343687817805],[147.70898892286377,-43.11331004326839],[147.70894733412936,-43.113186782523144],[147.7088602390267,-43.11307690744776],[147.70873457047273,-43.11298916400513],[147.70858033167107,-43.11293053646598],[147.7084097998617,-43.11290569149446],[147.70837564149906,-43.112904999993745]]]},"id":"1_8","properties":{"aef_utm_zone":"55S","centroid_lat":-43.113354943291334,"centroid_lon":147.70837564149906,"class":"ocean","nominal_sampled_area_m2":7800,"pixel_count":78,"poly_id":"Tasmania_ocean_8","rad":50,"region":"Tasmania","sampling_crs":"EPSG:32755","sampling_radius_m":50,"sampling_scale_m":10,"site_id":"Tasmania_ocean_8","source_geom_type":"Point","source_id":"8","year":2024}},{"type":"Feature","geometry":{"type":"Polygon","coordinates":[[[147.35121699678513,-43.20207498375315],[147.3510445895151,-43.20209289136695],[147.35088590558001,-43.20214518879238],[147.35075357602574,-43.202227713235274],[147.3506581342391,-43.202333895856384],[147.35060717750437,-43.20245528461786],[147.3506047622225,-43.20258221703457],[147.3506510809455,-43.20270458928912],[147.35074244695673,-43.20281266049481],[147.3508715876546,-43.20289782808744],[147.35102822341003,-43.20295331261944],[147.35119988583426,-43.202974697437355],[147.3513729103195,-43.20296028027391],[147.35153352382878,-43.20291120875961],[147.35166894131947,-43.202831389063824],[147.35176838349747,-43.202727174939675],[147.35182393486826,-43.20260686193245],[147.35183117377815,-43.20248002702267],[147.35178952430448,-43.20235676627809],[147.3517023020071,-43.20224689120396],[147.3515764499282,-43.202159147762764],[147.35142198588008,-43.2021005202248],[147.35125120503147,-43.20207567525384],[147.35121699678513,-43.20207498375315]]]},"id":"1_9","properties":{"aef_utm_zone":"55S","centroid_lat":-43.20252492705073,"centroid_lon":147.35121699678513,"class":"ocean","nominal_sampled_area_m2":7600,"pixel_count":76,"poly_id":"Tasmania_ocean_9","rad":50,"region":"Tasmania","sampling_crs":"EPSG:32755","sampling_radius_m":50,"sampling_scale_m":10,"site_id":"Tasmania_ocean_9","source_geom_type":"Point","source_id":"9","year":2024}},{"type":"Feature","geometry":{"type":"Polygon","coordinates":[[[147.33332938520968,-43.507597103212206],[147.33315610774272,-43.507615010824615],[147.33299662287382,-43.50766730824632],[147.3328636254002,-43.50774983268429],[147.3327677018743,-43.50785601530084],[147.33271648792865,-43.507977404059524],[147.33271406044216,-43.508104336476094],[147.33276061294296,-43.5082267087332],[147.33285244010972,-43.50833477994333],[147.33298223263495,-43.50841994754092],[147.3331396590037,-43.508475432076835],[147.3333121878915,-43.508496816896404],[147.33348608571558,-43.50848239973183],[147.33364750991666,-43.508433328213975],[147.3337836109178,-43.50835350851332],[147.33388355501646,-43.508249294384505],[147.33393938676684,-43.508128981374284],[147.3339466622008,-43.50800214646409],[147.33390480249298,-43.50787888572182],[147.3338171399421,-43.507769010652],[147.3336906526368,-43.50768126721578],[147.3335354089532,-43.50762263968189],[147.33336376611638,-43.507597794712844],[147.33332938520968,-43.507597103212206]]]},"id":"1_10","properties":{"aef_utm_zone":"55S","centroid_lat":-43.50804704650978,"centroid_lon":147.33332938520968,"class":"ocean","nominal_sampled_area_m2":7800,"pixel_count":78,"poly_id":"Tasmania_ocean_10","rad":50,"region":"Tasmania","sampling_crs":"EPSG:32755","sampling_radius_m":50,"sampling_scale_m":10,"site_id":"Tasmania_ocean_10","source_geom_type":"Point","source_id":"10","year":2024}},{"type":"Feature","geometry":{"type":"Polygon","coordinates":[[[147.42333293837376,-43.13330572366326],[147.42316072509715,-43.13332363127738],[147.42300221971456,-43.13337592870366],[147.42287003905986,-43.13345845314764],[147.42277470466755,-43.13356463576977],[147.42272380527294,-43.13368602453187],[147.42272139271188,-43.1338129569486],[147.42276765931868,-43.13393532920258],[147.4228589225243,-43.134043400407286],[147.42298791790998,-43.134128567998815],[147.42314437741368,-43.13418405252993],[147.42331584667684,-43.13420543734748],[147.42348867646828,-43.13419102018428],[147.42364910924968,-43.134141948670774],[147.42378437436508,-43.134062128976076],[147.42388370464974,-43.13395791485297],[147.42393919351537,-43.13383760184642],[147.42394642428292,-43.13371076693673],[147.42390482167679,-43.133587506191645],[147.42381769752532,-43.13347763111655],[147.4236919870577,-43.133389887674234],[147.42353769681407,-43.133331260135364],[147.4233671081289,-43.133306415163965],[147.42333293837376,-43.13330572366326]]]},"id":"1_11","properties":{"aef_utm_zone":"55S","centroid_lat":-43.133755666960845,"centroid_lon":147.42333293837376,"class":"ocean","nominal_sampled_area_m2":7800,"pixel_count":78,"poly_id":"Tasmania_ocean_11","rad":50,"region":"Tasmania","sampling_crs":"EPSG:32755","sampling_radius_m":50,"sampling_scale_m":10,"site_id":"Tasmania_ocean_11","source_geom_type":"Point","source_id":"11","year":2024}},{"type":"Feature","geometry":{"type":"Polygon","coordinates":[[[147.3836321388825,-43.28236193076407],[147.38345950425972,-43.282379838377516],[147.38330061106794,-43.28243213580197],[147.38316810700914,-43.28251466024357],[147.3830725393605,-43.28262084286349],[147.38302151542533,-43.28274223162424],[147.38301909695485,-43.282869164040896],[147.383065476756,-43.28299153629612],[147.38315696325142,-43.28309960750298],[147.3832862742495,-43.28318477509692],[147.38344311656525,-43.28324025962994],[147.3836150053668,-43.28326164444829],[147.38378825802567,-43.28324722728454],[147.38394908334104,-43.28319815576931],[147.38408467940968,-43.283118336072256],[147.3841842527224,-43.283014121946884],[147.38423987734683,-43.282893808938866],[147.3842471257992,-43.28276697402898],[147.38420542139852,-43.28264371328501],[147.38411808407793,-43.282533838212004],[147.38399206603606,-43.28244609477211],[147.3838373982958,-43.282387467235225],[147.38366639223912,-43.282362622264756],[147.3836321388825,-43.28236193076407]]]},"id":"1_12","properties":{"aef_utm_zone":"55S","centroid_lat":-43.28281187406166,"centroid_lon":147.3836321388825,"class":"ocean","nominal_sampled_area_m2":7700,"pixel_count":77,"poly_id":"Tasmania_ocean_12","rad":50,"region":"Tasmania","sampling_crs":"EPSG:32755","sampling_radius_m":50,"sampling_scale_m":10,"site_id":"Tasmania_ocean_12","source_geom_type":"Point","source_id":"12","year":2024}},{"type":"Feature","geometry":{"type":"Polygon","coordinates":[[[147.4392504250153,-42.99325736077913],[147.43907860469494,-42.99327526839388],[147.4389204609913,-42.99332756582185],[147.43878858195004,-42.99341009026807],[147.43869346509754,-42.993516272892286],[147.43864268185203,-42.99363766165564],[147.43864027480222,-42.99376459407243],[147.43868643584156,-42.99388696632525],[147.43877749080244,-42.993995037527945],[147.4389061918414,-42.99408020511722],[147.43906229432656,-42.99413568964657],[147.4392333723194,-42.99415707446337],[147.43940580773585,-42.99414265730067],[147.43956587443185,-42.994093585788775],[147.43970083089337,-42.99401376609628],[147.43979993452487,-42.9939095519753],[147.43985529677903,-42.993789238970116],[147.43986251105332,-42.99366240406062],[147.43982100338295,-42.99353914331447],[147.43973407803745,-42.99342926823741],[147.43960865442006,-42.993341524792854],[147.43945471623766,-42.99328289725212],[147.43928451680196,-42.99325805227987],[147.4392504250153,-42.99325736077913]]]},"id":"1_13","properties":{"aef_utm_zone":"55S","centroid_lat":-42.99370730407672,"centroid_lon":147.4392504250153,"class":"ocean","nominal_sampled_area_m2":7900,"pixel_count":79,"poly_id":"Tasmania_ocean_13","rad":50,"region":"Tasmania","sampling_crs":"EPSG:32755","sampling_radius_m":50,"sampling_scale_m":10,"site_id":"Tasmania_ocean_13","source_geom_type":"Point","source_id":"13","year":2024}},{"type":"Feature","geometry":{"type":"Polygon","coordinates":[[[146.94555230489811,-43.53775344508763],[146.9453789407946,-43.537771352699906],[146.94521937618495,-43.53782365012123],[146.9450863122135,-43.53790617455872],[146.94499034072575,-43.53801235717482],[146.94493910117225,-43.53813374593323],[146.94493667247067,-43.53826067834978],[146.94498324824633,-43.538383050607145],[146.9450751213256,-43.53849112181773],[146.94520497874657,-43.53857628941579],[146.94536248382857,-43.5386317739521],[146.9455350989812,-43.53865315877184],[146.94570908375468,-43.538638741607144],[146.94587058866801,-43.538589670088946],[146.94600675771923,-43.53850985038781],[146.94610675178896,-43.53840563625853],[146.94616261145387,-43.538285323248004],[146.94616989052412,-43.53815848833777],[146.94612800988548,-43.53803522759573],[146.94604030350308,-43.537925352526344],[146.94591375295482,-43.537837609090616],[146.94575843165094,-43.53777898155713],[146.9455867029948,-43.537754136588276],[146.94555230489811,-43.53775344508763]]]},"id":"1_14","properties":{"aef_utm_zone":"55S","centroid_lat":-43.53820338838521,"centroid_lon":146.94555230489811,"class":"ocean","nominal_sampled_area_m2":7700,"pixel_count":77,"poly_id":"Tasmania_ocean_14","rad":50,"region":"Tasmania","sampling_crs":"EPSG:32755","sampling_radius_m":50,"sampling_scale_m":10,"site_id":"Tasmania_ocean_14","source_geom_type":"Point","source_id":"14","year":2024}},{"type":"Feature","geometry":{"type":"Polygon","coordinates":[[[146.9242662941559,-43.566119077642014],[146.92409284843743,-43.56613698525416],[146.92393320870895,-43.56618928267514],[146.92380008209392,-43.56627180711216],[146.9237040654243,-43.56637798972784],[146.9236528017472,-43.566499378485986],[146.92365037190098,-43.56662631090253],[146.92369696960242,-43.56674868316013],[146.92378888593305,-43.56685675437112],[146.92391880448835,-43.566941921969665],[146.92407638372126,-43.566997406506324],[146.9242490801387,-43.56701879132622],[146.92442314682185,-43.56700437416142],[146.92458472776923,-43.566955302642896],[146.9247209609263,-43.5668754829413],[146.9248210020707,-43.566771268811586],[146.92487688803214,-43.566650955800775],[146.92488417052795,-43.5665241208905],[146.92484227017164,-43.56640086014869],[146.92475452249826,-43.566290985079696],[146.9246279123727,-43.56620324164444],[146.92447251794752,-43.56614461411132],[146.92430070844628,-43.56611976914265],[146.9242662941559,-43.566119077642014]]]},"id":"1_15","properties":{"aef_utm_zone":"55S","centroid_lat":-43.566569020939596,"centroid_lon":146.92426629415593,"class":"ocean","nominal_sampled_area_m2":7800,"pixel_count":78,"poly_id":"Tasmania_ocean_15","rad":50,"region":"Tasmania","sampling_crs":"EPSG:32755","sampling_radius_m":50,"sampling_scale_m":10,"site_id":"Tasmania_ocean_15","source_geom_type":"Point","source_id":"15","year":2024}},{"type":"Feature","geometry":{"type":"Polygon","coordinates":[[[147.36028619161686,-43.42266130886387],[147.360113157441,-43.422679216476666],[147.35995389649847,-43.422731513899414],[147.35982108576283,-43.42281403833875],[147.3597252969224,-43.42292022095658],[147.35967415488818,-43.42304160971604],[147.35967173081391,-43.42316854213265],[147.3597182179547,-43.42329091438904],[147.35980991619087,-43.42339898559795],[147.35993952647715,-43.423484153194146],[147.36009673180493,-43.42353963772897],[147.3602690184454,-43.42356102254808],[147.3604426721,-43.42354660538381],[147.36060386964652,-43.42349753386696],[147.3607397795507,-43.423417714167655],[147.36083958332156,-43.423313500040145],[147.36089533668297,-43.423193187030755],[147.36090260190548,-43.42306635212067],[147.36086080097525,-43.42294309137777],[147.36077326151118,-43.42283321630675],[147.3606469518035,-43.42274547286913],[147.36049192609167,-43.42268684533411],[147.3603205242509,-43.42266200036453],[147.36028619161686,-43.42266130886387]]]},"id":"1_16","properties":{"aef_utm_zone":"55S","centroid_lat":-43.42311125216145,"centroid_lon":147.36028619161686,"class":"ocean","nominal_sampled_area_m2":7400,"pixel_count":74,"poly_id":"Tasmania_ocean_16","rad":50,"region":"Tasmania","sampling_crs":"EPSG:32755","sampling_radius_m":50,"sampling_scale_m":10,"site_id":"Tasmania_ocean_16","source_geom_type":"Point","source_id":"16","year":2024}},{"type":"Feature","geometry":{"type":"Polygon","coordinates":[[[147.42208428732,-43.17529718198241],[147.4219119556698,-43.175315089596324],[147.42175334133552,-43.17536738702209],[147.42162106982323,-43.1754499114654],[147.42152566989955,-43.175556094086915],[147.42147473551634,-43.175677482848634],[147.42147232129508,-43.175804415265354],[147.42151861970285,-43.175926787519685],[147.42160994563983,-43.17603485872498],[147.42173902969415,-43.17612002631719],[147.42189559674557,-43.17617551084886],[147.42206718387442,-43.17619689566662],[147.42224013246687,-43.176182478503264],[147.4224006755273,-43.17613340698927],[147.4225360336212,-43.176053587293914],[147.4226354321825,-43.17594937317017],[147.42269095918837,-43.17582906016322],[147.42269819492432,-43.17570222525347],[147.4226565637199,-43.17557896450869],[147.42256937968043,-43.17546908943418],[147.42244358280246,-43.17538134599256],[147.42228918650437,-43.17532271845424],[147.42211848056223,-43.17529787348311],[147.42208428732,-43.17529718198241]]]},"id":"1_17","properties":{"aef_utm_zone":"55S","centroid_lat":-43.17574712528,"centroid_lon":147.42208428732,"class":"ocean","nominal_sampled_area_m2":7700,"pixel_count":77,"poly_id":"Tasmania_ocean_17","rad":50,"region":"Tasmania","sampling_crs":"EPSG:32755","sampling_radius_m":50,"sampling_scale_m":10,"site_id":"Tasmania_ocean_17","source_geom_type":"Point","source_id":"17","year":2024}},{"type":"Feature","geometry":{"type":"Polygon","coordinates":[[[146.8892473732575,-43.62579255717688],[146.8890737554534,-43.625810464788756],[146.88891395733643,-43.625862762209],[146.88878069863716,-43.625945286645056],[146.8886845867013,-43.62605146925983],[146.8886332721595,-43.626172858017426],[146.88863083989975,-43.62629979043394],[146.88867748383183,-43.62642216269204],[146.88876949135818,-43.626530233903914],[146.88889953881545,-43.626615401503436],[146.88905727439595,-43.62667088604087],[146.88923014216076,-43.626692270861085],[146.88940438155083,-43.626677853696066],[146.8895661228164,-43.626628782176844],[146.88970249114092,-43.62654896247428],[146.88980263154255,-43.62644474834365],[146.88985857295037,-43.62632443533225],[146.889865862669,-43.62619760042189],[146.88982392073788,-43.62607433968053],[146.88973608600224,-43.625964464612395],[146.88960935025762,-43.62587672117811],[146.8894538016558,-43.62581809364581],[146.8892818216923,-43.6257932486775],[146.8892473732575,-43.62579255717688]]]},"id":"1_18","properties":{"aef_utm_zone":"55S","centroid_lat":-43.62624250047447,"centroid_lon":146.8892473732575,"class":"ocean","nominal_sampled_area_m2":7600,"pixel_count":76,"poly_id":"Tasmania_ocean_18","rad":50,"region":"Tasmania","sampling_crs":"EPSG:32755","sampling_radius_m":50,"sampling_scale_m":10,"site_id":"Tasmania_ocean_18","source_geom_type":"Point","source_id":"18","year":2024}},{"type":"Feature","geometry":{"type":"Polygon","coordinates":[[[147.00803704610905,-43.53974445136583],[147.00786367628083,-43.539762358978095],[147.00770410640212,-43.5398146563994],[147.00757103803662,-43.53989718083685],[147.00747506337967,-43.54000336345292],[147.0074238221341,-43.54012475221132],[147.00742139335222,-43.54025168462787],[147.0074679706658,-43.54037405688524],[147.00755984677886,-43.54048212809585],[147.00768970848802,-43.54056729569397],[147.00784721877116,-43.540622780230294],[147.00801983962396,-43.54064416505003],[147.00819383014283,-43.54062974788533],[147.00835534038941,-43.540580676367114],[147.00849151393723,-43.54050085666595],[147.00859151130894,-43.54039664253664],[147.00864737281833,-43.54027632952609],[147.0086546521289,-43.54014949461585],[147.0086127701072,-43.54002623387383],[147.0085250608285,-43.53991635880447],[147.00839850610132,-43.539828615368776],[147.00824317966848,-43.539769987835314],[147.0080714453416,-43.53974514286647],[147.00803704610905,-43.53974445136583]]]},"id":"1_19","properties":{"aef_utm_zone":"55S","centroid_lat":-43.540194394663416,"centroid_lon":147.00803704610905,"class":"ocean","nominal_sampled_area_m2":7700,"pixel_count":77,"poly_id":"Tasmania_ocean_19","rad":50,"region":"Tasmania","sampling_crs":"EPSG:32755","sampling_radius_m":50,"sampling_scale_m":10,"site_id":"Tasmania_ocean_19","source_geom_type":"Point","source_id":"19","year":2024}},{"type":"Feature","geometry":{"type":"Polygon","coordinates":[[[147.08585984309522,-43.17493138351563],[147.0856875124773,-43.17494929112955],[147.0855288990932,-43.17500158855532],[147.08539662837322,-43.17508411299864],[147.085301229021,-43.17519029562016],[147.0852502949429,-43.17531168438188],[147.08524788073612,-43.175438616798594],[147.08529417886658,-43.175560989052926],[147.08538550425652,-43.17566906025823],[147.08551458753757,-43.17575422785042],[147.0856711536511,-43.175809712382076],[147.08584273975214,-43.17583109719984],[147.08601568730853,-43.17581668003649],[147.08617622940727,-43.17576760852251],[147.08631158669036,-43.17568778882715],[147.08641098465623,-43.17558357470342],[147.08646651132952,-43.17546326169646],[147.08647374702213,-43.175336426786714],[147.08643211606713,-43.175213166041935],[147.08634493254985,-43.175103290967414],[147.08621913642543,-43.17501554752578],[147.08606474105224,-43.17495691998745],[147.08589403613266,-43.17493207501632],[147.08585984309522,-43.17493138351563]]]},"id":"2_0","properties":{"aef_utm_zone":"55S","centroid_lat":-43.17538132681321,"centroid_lon":147.08585984309522,"class":"confounding_marine","nominal_sampled_area_m2":7700,"pixel_count":77,"poly_id":"Tasmania_confounding_marine_0","rad":50,"region":"Tasmania","sampling_crs":"EPSG:32755","sampling_radius_m":50,"sampling_scale_m":10,"site_id":"Tasmania_confounding_marine_0","source_geom_type":"Point","source_id":"0","year":2024}},{"type":"Feature","geometry":{"type":"Polygon","coordinates":[[[147.03164362518547,-43.22012412483196],[147.03147116688646,-43.22014203244568],[147.03131243598398,-43.22019432987089],[147.03118006726245,-43.2202768543135],[147.03108459722625,-43.220383036934344],[147.03103362540847,-43.22050442569565],[147.03103120941094,-43.220631358112335],[147.03107754184282,-43.22075373036705],[147.03116893489658,-43.22086180157301],[147.03129811381805,-43.22094696916594],[147.03145479593567,-43.221002453698155],[147.03162650917,-43.221023838516174],[147.03179958486845,-43.221009421352655],[147.0319602459173,-43.220960349838144],[147.03209570348957,-43.220880530142075],[147.03219517510058,-43.22077631601765],[147.03225074291305,-43.22065600301025],[147.0322579839647,-43.220529168100455],[147.03221632216275,-43.220405907356],[147.03212907404858,-43.22029603228213],[147.03200318471954,-43.22020828884123],[147.031848674953,-43.22014966130351],[147.0316778435568,-43.22012481633265],[147.03164362518547,-43.22012412483196]]]},"id":"2_1","properties":{"aef_utm_zone":"55S","centroid_lat":-43.22057406812954,"centroid_lon":147.03164362518547,"class":"confounding_marine","nominal_sampled_area_m2":7900,"pixel_count":79,"poly_id":"Tasmania_confounding_marine_1","rad":50,"region":"Tasmania","sampling_crs":"EPSG:32755","sampling_radius_m":50,"sampling_scale_m":10,"site_id":"Tasmania_confounding_marine_1","source_geom_type":"Point","source_id":"1","year":2024}},{"type":"Feature","geometry":{"type":"Polygon","coordinates":[[[147.10665964691398,-43.2109916115258],[147.1064872144406,-43.21100951913955],[147.10632850730812,-43.2110618165649],[147.10619615840898,-43.21114434100763],[147.1061007026698,-43.21125052362862],[147.10604973848547,-43.21137191239001],[147.10604732285015,-43.211498844806705],[147.10609364834403,-43.21162121706133],[147.10618502771166,-43.21172928826716],[147.1063141872883,-43.21181445585994],[147.1064708459422,-43.21186994039205],[147.1066425334617,-43.21189132521001],[147.10681558324134,-43.21187690804653],[147.10697622023056,-43.21182783653213],[147.10711165751772,-43.2117480168362],[147.1072111142328,-43.21164380271192],[147.10726667372415,-43.2115234897046],[147.1072739136919,-43.21139665479481],[147.10723225812924,-43.2112733940503],[147.10714502308085,-43.21116351897629],[147.10701915260395,-43.21107577553524],[147.10686466597537,-43.21101714799741],[147.1066938601611,-43.21099230302649],[147.10665964691398,-43.2109916115258]]]},"id":"2_2","properties":{"aef_utm_zone":"55S","centroid_lat":-43.211441554823374,"centroid_lon":147.10665964691398,"class":"confounding_marine","nominal_sampled_area_m2":7800,"pixel_count":78,"poly_id":"Tasmania_confounding_marine_2","rad":50,"region":"Tasmania","sampling_crs":"EPSG:32755","sampling_radius_m":50,"sampling_scale_m":10,"site_id":"Tasmania_confounding_marine_2","source_geom_type":"Point","source_id":"2","year":2024}},{"type":"Feature","geometry":{"type":"Polygon","coordinates":[[[146.9722366348591,-43.17608578720555],[146.9720643009834,-43.17610369481947],[146.97190568460076,-43.17615599224523],[146.97177341138024,-43.17623851668853],[146.97167801022457,-43.17634469931002],[146.9716270751835,-43.176466088071734],[146.97162466093104,-43.176593020488454],[146.9716709599367,-43.17671539274279],[146.97176228705308,-43.17682346394811],[146.97189137277442,-43.17690863154032],[146.97204794184782,-43.17696411607199],[146.97221953119265,-43.176985500889764],[146.97239248201862,-43.17697108372641],[146.9725530271524,-43.17692201221241],[146.97268838699435,-43.17684219251704],[146.9727877868393,-43.176737978393284],[146.97284331456225,-43.17661766538631],[146.97285055039163,-43.176490830476574],[146.97280891864952,-43.1763675697318],[146.9727217334841,-43.1762576946573],[146.97259593498154,-43.176169951215684],[146.97244153668956,-43.17611132367738],[146.97227082854292,-43.17608647870625],[146.9722366348591,-43.17608578720555]]]},"id":"2_3","properties":{"aef_utm_zone":"55S","centroid_lat":-43.17653573050313,"centroid_lon":146.9722366348591,"class":"confounding_marine","nominal_sampled_area_m2":7900,"pixel_count":79,"poly_id":"Tasmania_confounding_marine_3","rad":50,"region":"Tasmania","sampling_crs":"EPSG:32755","sampling_radius_m":50,"sampling_scale_m":10,"site_id":"Tasmania_confounding_marine_3","source_geom_type":"Point","source_id":"3","year":2024}},{"type":"Feature","geometry":{"type":"Polygon","coordinates":[[[147.28791349891756,-43.2207664237534],[147.28774103880176,-43.22078433136712],[147.28758230622708,-43.22083662879233],[147.28744993611105,-43.22091915323492],[147.28735446506906,-43.22102533585576],[147.28730349271427,-43.221146724617064],[147.28730107669128,-43.221273657033755],[147.28734740961127,-43.22139602928846],[147.2874388036278,-43.22150410049443],[147.28756798391018,-43.221589268087364],[147.28772466767842,-43.2216447526196],[147.28789638272175,-43.221666137437616],[147.28806946024358,-43.221651720274096],[147.288230122985,-43.221602648759585],[147.28836558198427,-43.2215228290635],[147.2884650546432,-43.22141861493907],[147.28852062304105,-43.22129830193167],[147.28852786416897,-43.221171467021854],[147.2884862019281,-43.221048206277416],[147.28839895289477,-43.220938331203556],[147.28827306223945,-43.220850587762655],[147.2881185508452,-43.22079196022495],[147.28794771764933,-43.2207671152541],[147.28791349891756,-43.2207664237534]]]},"id":"2_4","properties":{"aef_utm_zone":"55S","centroid_lat":-43.221216367050985,"centroid_lon":147.28791349891756,"class":"confounding_marine","nominal_sampled_area_m2":7800,"pixel_count":78,"poly_id":"Tasmania_confounding_marine_4","rad":50,"region":"Tasmania","sampling_crs":"EPSG:32755","sampling_radius_m":50,"sampling_scale_m":10,"site_id":"Tasmania_confounding_marine_4","source_geom_type":"Point","source_id":"4","year":2024}},{"type":"Feature","geometry":{"type":"Polygon","coordinates":[[[147.3819019797379,-42.99361398529113],[147.3817301584205,-42.99363189290587],[147.38157201379917,-42.99368419033383],[147.3814401339926,-42.99376671478005],[147.38134501658814,-42.99387289740425],[147.38129423304792,-42.99399428616761],[147.3812918259841,-42.994121218584404],[147.38133798729135,-42.994243590837236],[147.38142904278058,-42.99435166203992],[147.38155774456638,-42.9944368296292],[147.38171384795743,-42.994492314158556],[147.38188492694306,-42.99451369897535],[147.38205736336016,-42.99449928181266],[147.38221743098504,-42.99445021030077],[147.38235238822972,-42.99437039060827],[147.3824514924363,-42.99426617648727],[147.3825068550117,-42.994145863482096],[147.38251406932787,-42.99401902857259],[147.3824725614166,-42.99389576782645],[147.38238563556666,-42.9937858927494],[147.38226021122142,-42.993698149304834],[147.38210627214576,-42.993639521764116],[147.38193607172238,-42.99361467679186],[147.3819019797379,-42.99361398529113]]]},"id":"2_5","properties":{"aef_utm_zone":"55S","centroid_lat":-42.994063928588716,"centroid_lon":147.3819019797379,"class":"confounding_marine","nominal_sampled_area_m2":7900,"pixel_count":79,"poly_id":"Tasmania_confounding_marine_5","rad":50,"region":"Tasmania","sampling_crs":"EPSG:32755","sampling_radius_m":50,"sampling_scale_m":10,"site_id":"Tasmania_confounding_marine_5","source_geom_type":"Point","source_id":"5","year":2024}},{"type":"Feature","geometry":{"type":"Polygon","coordinates":[[[147.35437178640905,-42.8892187367344],[147.35420025618546,-42.88923664434961],[147.35404237948842,-42.88928894177884],[147.3539107231108,-42.889371466226706],[147.3538157668553,-42.88947764885245],[147.3537650693559,-42.88959903761674],[147.35376266637468,-42.88972597003359],[147.35380874947973,-42.88984834228555],[147.35389965070564,-42.88995641348674],[147.35402813444549,-42.89004158107436],[147.35418397336463,-42.8900970656024],[147.35435476250535,-42.890118450418626],[147.35452690677764,-42.890104033256314],[147.3546867032141,-42.89005496174561],[147.35482143181437,-42.88997514205476],[147.35492036812104,-42.88987092793534],[147.3549756369053,-42.88975061493117],[147.35498283900355,-42.8896237800218],[147.3549414014187,-42.8895005192749],[147.3548546228401,-42.88939064419638],[147.35472941098755,-42.889302900750145],[147.35457573271154,-42.88924427320805],[147.35440582063606,-42.889219428235144],[147.35437178640905,-42.8892187367344]]]},"id":"2_6","properties":{"aef_utm_zone":"55S","centroid_lat":-42.88966868003198,"centroid_lon":147.35437178640905,"class":"confounding_marine","nominal_sampled_area_m2":7400,"pixel_count":74,"poly_id":"Tasmania_confounding_marine_6","rad":50,"region":"Tasmania","sampling_crs":"EPSG:32755","sampling_radius_m":50,"sampling_scale_m":10,"site_id":"Tasmania_confounding_marine_6","source_geom_type":"Point","source_id":"6","year":2024}},{"type":"Feature","geometry":{"type":"Polygon","coordinates":[[[147.36645245581212,-42.923465933738974],[147.36628083026582,-42.92348384135404],[147.36612286583326,-42.92353613878285],[147.36599113629075,-42.92361866323017],[147.36589612726473,-42.92372484585541],[147.3658454015901,-42.923846234619404],[147.36584299727198,-42.92397316703623],[147.36588910598545,-42.92409553928847],[147.365980057727,-42.92420361049015],[147.36610861286903,-42.924288778078314],[147.36626453839315,-42.92434426260678],[147.3664354224476,-42.92436564742321],[147.36660766238677,-42.92435123026077],[147.36676754762763,-42.924302158749676],[147.3669023511007,-42.92422233905828],[147.3670013423885,-42.92411812493835],[147.36705664188597,-42.923997811933845],[147.36706384798515,-42.92387097702444],[147.36702238737095,-42.923747716277774],[147.3669355605663,-42.92363784119974],[147.36681027913005,-42.92355009775405],[147.3666565154516,-42.92349147021242],[147.36648650895262,-42.92346662523972],[147.36645245581212,-42.923465933738974]]]},"id":"2_7","properties":{"aef_utm_zone":"55S","centroid_lat":-42.923915877036556,"centroid_lon":147.36645245581212,"class":"confounding_marine","nominal_sampled_area_m2":7800,"pixel_count":78,"poly_id":"Tasmania_confounding_marine_7","rad":50,"region":"Tasmania","sampling_crs":"EPSG:32755","sampling_radius_m":50,"sampling_scale_m":10,"site_id":"Tasmania_confounding_marine_7","source_geom_type":"Point","source_id":"7","year":2024}},{"type":"Feature","geometry":{"type":"Polygon","coordinates":[[[147.27901555539714,-43.03149701620203],[147.27884362806162,-43.0315149238166],[147.27868538586068,-43.0315672212441],[147.27855342467996,-43.03164974568972],[147.27845824858406,-43.03175592831336],[147.27840743370726,-43.03187731707638],[147.27840502515653,-43.032004249493156],[147.27845121494545,-43.03212662174629],[147.27854232661838,-43.03223469294953],[147.27867110781781,-43.03231986053942],[147.2788273075311,-43.032375345069255],[147.27899849207995,-43.03239672988625],[147.27917103489793,-43.03238231272342],[147.27933120129126,-43.032333241211084],[147.2794662418096,-43.03225342151799],[147.27956540716633,-43.03214920739643],[147.27962080390103,-43.032028894390876],[147.27962802266697,-43.031902059481325],[147.27958648914242,-43.03177879873547],[147.27949950965538,-43.03166892365895],[147.27937400791907,-43.03158118021499],[147.2792199738586,-43.03152255267477],[147.2790496684172,-43.031497707702755],[147.27901555539714,-43.03149701620203]]]},"id":"2_8","properties":{"aef_utm_zone":"55S","centroid_lat":-43.03194695949961,"centroid_lon":147.27901555539714,"class":"confounding_marine","nominal_sampled_area_m2":7900,"pixel_count":79,"poly_id":"Tasmania_confounding_marine_8","rad":50,"region":"Tasmania","sampling_crs":"EPSG:32755","sampling_radius_m":50,"sampling_scale_m":10,"site_id":"Tasmania_confounding_marine_8","source_geom_type":"Point","source_id":"8","year":2024}},{"type":"Feature","geometry":{"type":"Polygon","coordinates":[[[147.2682246635746,-43.07030379365768],[147.26805262742204,-43.07032170127208],[147.26789428506535,-43.07037399869912],[147.26776224036215,-43.07045652314411],[147.26766700402538,-43.07056270576717],[147.26761615698467,-43.070684094529845],[147.26761374690778,-43.07081102694661],[147.2676599659303,-43.070933399200065],[147.26775113527015,-43.071041470403856],[147.2678799979798,-43.07112663799437],[147.26803629655828,-43.07118212252469],[147.2682075894573,-43.071203507341906],[147.2683802414852,-43.07118909017893],[147.2685405092545,-43.071140018666156],[147.26867563524496,-43.07106019897245],[147.26877486336627,-43.0709559848503],[147.2688302951621,-43.070835671844364],[147.26883751849533,-43.070708836934756],[147.2687959586813,-43.070585576189195],[147.2687089241411,-43.07047570111322],[147.26858334297052,-43.070387957669894],[147.2684292114176,-43.07032933013018],[147.26825879818566,-43.0703044851584],[147.2682246635746,-43.07030379365768]]]},"id":"2_9","properties":{"aef_utm_zone":"55S","centroid_lat":-43.07075373695526,"centroid_lon":147.2682246635746,"class":"confounding_marine","nominal_sampled_area_m2":7700,"pixel_count":77,"poly_id":"Tasmania_confounding_marine_9","rad":50,"region":"Tasmania","sampling_crs":"EPSG:32755","sampling_radius_m":50,"sampling_scale_m":10,"site_id":"Tasmania_confounding_marine_9","source_geom_type":"Point","source_id":"9","year":2024}},{"type":"Feature","geometry":{"type":"Polygon","coordinates":[[[147.2708159115347,-43.110618539383566],[147.27064376210697,-43.11063644699778],[147.27048531549124,-43.11068874442432],[147.27035318384372,-43.110771268868675],[147.27025788479804,-43.110877451491156],[147.27020700427573,-43.11099884025346],[147.27020459261016,-43.1111257726702],[147.27025084206397,-43.11124814492399],[147.2703420714333,-43.111356216128364],[147.2704710189925,-43.11144138371952],[147.2706274204866,-43.11149686825036],[147.27079882617477,-43.111518253067786],[147.27097159188682,-43.11150383590467],[147.2711319651854,-43.111454764391425],[147.27126718014966,-43.11137494469709],[147.27136647360692,-43.111270730574326],[147.2714219419003,-43.111150417568],[147.27142916998793,-43.11102358265834],[147.2713875828073,-43.11090032191308],[147.2713004909585,-43.11079044683766],[147.27117482709934,-43.110702703394985],[147.27102059405982,-43.11064407585581],[147.27085006862126,-43.11061923088428],[147.2708159115347,-43.110618539383566]]]},"id":"2_10","properties":{"aef_utm_zone":"55S","centroid_lat":-43.11106848268115,"centroid_lon":147.2708159115347,"class":"confounding_marine","nominal_sampled_area_m2":7600,"pixel_count":76,"poly_id":"Tasmania_confounding_marine_10","rad":50,"region":"Tasmania","sampling_crs":"EPSG:32755","sampling_radius_m":50,"sampling_scale_m":10,"site_id":"Tasmania_confounding_marine_10","source_geom_type":"Point","source_id":"10","year":2024}},{"type":"Feature","geometry":{"type":"Polygon","coordinates":[[[147.38218065636184,-43.381289893582654],[147.38200774030597,-43.38130780119564],[147.3818485880817,-43.381360098618885],[147.38171586800905,-43.381442623058895],[147.3816201445596,-43.38154880567733],[147.38156903743902,-43.381670194437184],[147.38156661502143,-43.381797126853805],[147.38161307042938,-43.38191949910985],[147.38170470606855,-43.38202757031815],[147.38183422787617,-43.38211273791368],[147.3819913258866,-43.38216822244798],[147.3821634949138,-43.38218960726687],[147.38233703002194,-43.38217519010275],[147.38249811752567,-43.38212611858637],[147.38263393465056,-43.38204629888773],[147.382733670291,-43.38194208476086],[147.38278938559384,-43.38182177175188],[147.38279664585858,-43.38169493684186],[147.38275487346544,-43.38157167609863],[147.3826673937611,-43.381461801027015],[147.38254117027867,-43.38137405758874],[147.3823862503941,-43.381315430053164],[147.3822149655591,-43.38129058508332],[147.38218065636184,-43.381289893582654]]]},"id":"2_11","properties":{"aef_utm_zone":"55S","centroid_lat":-43.381739836880236,"centroid_lon":147.38218065636184,"class":"confounding_marine","nominal_sampled_area_m2":7800,"pixel_count":78,"poly_id":"Tasmania_confounding_marine_11","rad":50,"region":"Tasmania","sampling_crs":"EPSG:32755","sampling_radius_m":50,"sampling_scale_m":10,"site_id":"Tasmania_confounding_marine_11","source_geom_type":"Point","source_id":"11","year":2024}},{"type":"Feature","geometry":{"type":"Polygon","coordinates":[[[147.99824447693018,-43.15000925273893],[147.99807221659702,-43.15002716035298],[147.99791366790333,-43.15007945777904],[147.9977814511304,-43.15016198222277],[147.9976860906877,-43.150268164844654],[147.9976351773842,-43.1503895536066],[147.99763276416317,-43.150516486023335],[147.9976790434117,-43.150638858277446],[147.99777033155462,-43.150746929482395],[147.99789936218838,-43.150832097074186],[147.99805586444506,-43.15088758160552],[147.99822738056287,-43.15090896642316],[147.99840025758078,-43.150894549259895],[147.99856073420094,-43.1508454777462],[147.9986960362777,-43.15076565805123],[147.99879539370406,-43.15066144392787],[147.99885089773142,-43.15054113092116],[147.99885813047402,-43.150414296011455],[147.99881651649937,-43.150291035266484],[147.99872936854084,-43.150181160191615],[147.99860362372291,-43.15009341674958],[147.99844929131987,-43.150034789210935],[147.99827865602205,-43.15000994423964],[147.99824447693018,-43.15000925273893]]]},"id":"2_12","properties":{"aef_utm_zone":"55S","centroid_lat":-43.15045919603652,"centroid_lon":147.99824447693018,"class":"confounding_marine","nominal_sampled_area_m2":7800,"pixel_count":78,"poly_id":"Tasmania_confounding_marine_12","rad":50,"region":"Tasmania","sampling_crs":"EPSG:32755","sampling_radius_m":50,"sampling_scale_m":10,"site_id":"Tasmania_confounding_marine_12","source_geom_type":"Point","source_id":"12","year":2024}},{"type":"Feature","geometry":{"type":"Polygon","coordinates":[[[146.90081154293694,-43.61955660415287],[146.9006379431408,-43.61957451176476],[146.90047816159841,-43.619626809185085],[146.90034491672117,-43.61970933362123],[146.90024881475443,-43.619815516236116],[146.9001975055354,-43.61993690499377],[146.9001950735282,-43.620063837410285],[146.9002417126225,-43.62018620966833],[146.90033371060562,-43.62029428088011],[146.9004637445739,-43.620379448479525],[146.90062146379339,-43.62043493301689],[146.90079431362747,-43.62045631783707],[146.90096853494458,-43.62044190067208],[146.90113025943361,-43.62039282915292],[146.9012666136135,-43.62031300945046],[146.90136674362833,-43.620208795319925],[146.90142267923395,-43.62008848230859],[146.90142996819674,-43.619961647398235],[146.90138803061623,-43.61983838665684],[146.90130020499126,-43.619728511588605],[146.90117348239207,-43.61964076815422],[146.9010179499241,-43.619582140621844],[146.90084598779865,-43.619557295653486],[146.90081154293694,-43.61955660415287]]]},"id":"2_13","properties":{"aef_utm_zone":"55S","centroid_lat":-43.62000654745045,"centroid_lon":146.90081154293694,"class":"confounding_marine","nominal_sampled_area_m2":7700,"pixel_count":77,"poly_id":"Tasmania_confounding_marine_13","rad":50,"region":"Tasmania","sampling_crs":"EPSG:32755","sampling_radius_m":50,"sampling_scale_m":10,"site_id":"Tasmania_confounding_marine_13","source_geom_type":"Point","source_id":"13","year":2024}},{"type":"Feature","geometry":{"type":"Polygon","coordinates":[[[147.3451038274409,-43.43710918074877],[147.34493075195545,-43.4371270883615],[147.34477145299138,-43.43717938578408],[147.3446386105486,-43.43726191022318],[147.34454279883926,-43.437368092840785],[147.34449164459485,-43.43748948160012],[147.34448921994118,-43.437616414016716],[147.34453571817977,-43.43773878627323],[147.34462743830767,-43.43784685748235],[147.3447570795372,-43.43793202507877],[147.34491432239662,-43.43798750961379],[147.34508665016946,-43.43800889443298],[147.34526034528278,-43.43799447726865],[147.3454215813141,-43.437945405751634],[147.34555752366558,-43.4378655860521],[147.34565735126336,-43.437761371924374],[147.3457131179348,-43.43764105891484],[147.34572038489117,-43.437514224004744],[147.34567857398085,-43.43739096326194],[147.34559101361725,-43.43728108819112],[147.34546467375438,-43.437193344753744],[147.34530961103206,-43.437134717218925],[147.3451381682714,-43.43710987224942],[147.3451038274409,-43.43710918074877]]]},"id":"2_14","properties":{"aef_utm_zone":"55S","centroid_lat":-43.437559124046345,"centroid_lon":147.3451038274409,"class":"confounding_marine","nominal_sampled_area_m2":7600,"pixel_count":76,"poly_id":"Tasmania_confounding_marine_14","rad":50,"region":"Tasmania","sampling_crs":"EPSG:32755","sampling_radius_m":50,"sampling_scale_m":10,"site_id":"Tasmania_confounding_marine_14","source_geom_type":"Point","source_id":"14","year":2024}},{"type":"Feature","geometry":{"type":"Polygon","coordinates":[[[146.92559267795457,-43.54443586680878],[146.9254192946348,-43.54445377442103],[146.92525971233843,-43.54450607184228],[146.92512663361754,-43.544588596279645],[146.92503065149174,-43.544694778895646],[146.92497940625833,-43.544816167654],[146.92497697728726,-43.54494310007054],[146.92502355822532,-43.54506547232796],[146.92511544148812,-43.54517354353864],[146.92524531330318,-43.545258711136825],[146.925402835844,-43.545314195673214],[146.92557547013047,-43.54533558049298],[146.92574947418953,-43.545321163328275],[146.9259109970051,-43.54527209181],[146.92604718115004,-43.54519227210875],[146.9261471863035,-43.54508805797937],[146.92620305215993,-43.54496774496878],[146.92621033203673,-43.54484091005853],[146.92616844675555,-43.54471764931655],[146.9260807306512,-43.54460777424725],[146.92595416607546,-43.544520030811626],[146.92579882755518,-43.544461403278234],[146.92562707986406,-43.54443655830942],[146.92559267795457,-43.54443586680878]]]},"id":"2_15","properties":{"aef_utm_zone":"55S","centroid_lat":-43.544885810106365,"centroid_lon":146.92559267795457,"class":"confounding_marine","nominal_sampled_area_m2":7900,"pixel_count":79,"poly_id":"Tasmania_confounding_marine_15","rad":50,"region":"Tasmania","sampling_crs":"EPSG:32755","sampling_radius_m":50,"sampling_scale_m":10,"site_id":"Tasmania_confounding_marine_15","source_geom_type":"Point","source_id":"15","year":2024}},{"type":"Feature","geometry":{"type":"Polygon","coordinates":[[[147.37604777646317,-43.39106713391228],[147.37587483251488,-43.39108504152523],[147.3757156546183,-43.39113733894836],[147.3755829131368,-43.39121986338821],[147.37548717424616,-43.391326046006505],[147.37543605888123,-43.39144743476626],[147.37543363607242,-43.39157436718288],[147.37548009897364,-43.391696739439006],[147.37557174939423,-43.39180481064745],[147.37570129209487,-43.39188997824314],[147.37585841544683,-43.39194546277756],[147.3760306122468,-43.3919668475965],[147.37620417534805,-43.39195243043235],[147.37636528883687,-43.39190335891587],[147.3765011278703,-43.391823539217064],[147.37660087959884,-43.39171932509004],[147.37665660388868,-43.39159901208095],[147.37666386532416,-43.39147217717092],[147.37662208619236,-43.39134891642777],[147.37653459237657,-43.39123904135631],[147.37640834853323,-43.391151297918185],[147.37625340365898,-43.39109267038273],[147.3760820911947,-43.391067825412954],[147.37604777646317,-43.39106713391228]]]},"id":"2_16","properties":{"aef_utm_zone":"55S","centroid_lat":-43.39151707720987,"centroid_lon":147.37604777646317,"class":"confounding_marine","nominal_sampled_area_m2":7800,"pixel_count":78,"poly_id":"Tasmania_confounding_marine_16","rad":50,"region":"Tasmania","sampling_crs":"EPSG:32755","sampling_radius_m":50,"sampling_scale_m":10,"site_id":"Tasmania_confounding_marine_16","source_geom_type":"Point","source_id":"16","year":2024}},{"type":"Feature","geometry":{"type":"Polygon","coordinates":[[[147.33145976542968,-43.34339748252828],[147.33128695734047,-43.34341539014144],[147.33112790448928,-43.34346768756515],[147.33099526728637,-43.34355021200577],[147.33089960360704,-43.34365639462479],[147.33084852839903,-43.34377778338497],[147.33084610749566,-43.34390471580161],[147.33089253389846,-43.344027088057345],[147.33098411232135,-43.344135159265086],[147.3311135532558,-43.34422032686001],[147.3312705531736,-43.34427581139381],[147.3314426146974,-43.34429719621249],[147.33161604144902,-43.34428277904851],[147.33177702836898,-43.34423370753258],[147.33191276068968,-43.34415388783455],[147.33201243405608,-43.34404967370825],[147.3320681145718,-43.34392936069964],[147.33207537030498,-43.34380252578967],[147.3320336239959,-43.343679265046156],[147.33194619891447,-43.34356938997401],[147.33182005424553,-43.34348164653512],[147.3316652310915,-43.34342301899903],[147.33149405320466,-43.34339817402895],[147.33145976542968,-43.34339748252828]]]},"id":"2_17","properties":{"aef_utm_zone":"55S","centroid_lat":-43.34384742582586,"centroid_lon":147.33145976542968,"class":"confounding_marine","nominal_sampled_area_m2":7700,"pixel_count":77,"poly_id":"Tasmania_confounding_marine_17","rad":50,"region":"Tasmania","sampling_crs":"EPSG:32755","sampling_radius_m":50,"sampling_scale_m":10,"site_id":"Tasmania_confounding_marine_17","source_geom_type":"Point","source_id":"17","year":2024}},{"type":"Feature","geometry":{"type":"Polygon","coordinates":[[[147.35448631209508,-43.361618660372336],[147.35431345211464,-43.36163656798541],[147.35415435150247,-43.36168886540891],[147.35402167447046,-43.361771389849224],[147.35392598206425,-43.36187757246797],[147.35387489151836,-43.36199896122799],[147.3538724698872,-43.362125893644624],[147.3539189102305,-43.3622482659005],[147.35401051615287,-43.362356337108515],[147.3541399959568,-43.362441504703725],[147.35429704302018,-43.36249698923777],[147.35446915621256,-43.36251837405654],[147.3546426350428,-43.36250395689251],[147.35480367030559,-43.36245488537636],[147.35493944338512,-43.36237506567804],[147.35503914668186,-43.36227085155145],[147.35509484391707,-43.36215053854266],[147.3551021018282,-43.362023703632666],[147.35506034298254,-43.3619004428893],[147.3549728916481,-43.36179056781741],[147.3548467090996,-43.36170282437881],[147.35469183945466,-43.36164419684297],[147.3545206101661,-43.361619351872996],[147.35448631209508,-43.361618660372336]]]},"id":"2_18","properties":{"aef_utm_zone":"55S","centroid_lat":-43.36206860366992,"centroid_lon":147.35448631209508,"class":"confounding_marine","nominal_sampled_area_m2":7700,"pixel_count":77,"poly_id":"Tasmania_confounding_marine_18","rad":50,"region":"Tasmania","sampling_crs":"EPSG:32755","sampling_radius_m":50,"sampling_scale_m":10,"site_id":"Tasmania_confounding_marine_18","source_geom_type":"Point","source_id":"18","year":2024}},{"type":"Feature","geometry":{"type":"Polygon","coordinates":[[[147.62833307911336,-43.07462672081372],[147.6281610308256,-43.074644628428096],[147.62800267729955,-43.07469692585508],[147.62787062328195,-43.07477945029999],[147.62777538022715,-43.07488563292301],[147.62772452959953,-43.075007021685636],[147.62772211935248,-43.07513395410239],[147.62776834163515,-43.07525632635589],[147.62785951740597,-43.075364397559746],[147.62798838920557,-43.07544956515032],[147.6281446988094,-43.07550504968071],[147.6283160037916,-43.07552643449794],[147.62848866799854,-43.07551201733495],[147.62864894707326,-43.075462945822125],[147.6287840825955,-43.07538312612835],[147.6288833177163,-43.075278912006134],[147.6289387534221,-43.07515859900016],[147.6289459772647,-43.07503176409055],[147.62890441451884,-43.074908503345014],[147.62881737383915,-43.07479862826909],[147.62869178381013,-43.07471088482584],[147.62853764138487,-43.07465225728619],[147.62836721613218,-43.074627412314435],[147.62833307911336,-43.07462672081372]]]},"id":"2_19","properties":{"aef_utm_zone":"55S","centroid_lat":-43.0750766641113,"centroid_lon":147.62833307911336,"class":"confounding_marine","nominal_sampled_area_m2":7800,"pixel_count":78,"poly_id":"Tasmania_confounding_marine_19","rad":50,"region":"Tasmania","sampling_crs":"EPSG:32755","sampling_radius_m":50,"sampling_scale_m":10,"site_id":"Tasmania_confounding_marine_19","source_geom_type":"Point","source_id":"19","year":2024}}]}