{"type":"FeatureCollection","features":[{"type":"Feature","geometry":{"type":"Polygon","coordinates":[[[-73.39323567346678,-43.00456702568738],[-73.3934075254158,-43.00458493330207],[-73.39356569823065,-43.004637230729905],[-73.39369760154851,-43.00471975517594],[-73.39379273591061,-43.00482593779998],[-73.39384352850485,-43.00494732656325],[-73.39384593599826,-43.00507425898003],[-73.39379976646187,-43.005196631232955],[-73.39370869473957,-43.00530470243579],[-73.39357997000891,-43.00538987002526],[-73.39342383878765,-43.005445354554745],[-73.39325272930182,-43.00546673937159],[-73.39308026214249,-43.00545232220887],[-73.39292016598061,-43.00540325069685],[-73.39278518467583,-43.00532343100417],[-73.39268606280122,-43.00521921688301],[-73.39263069035623,-43.00509890387773],[-73.3926234747544,-43.00497206896821],[-73.39266499006608,-43.00484880822216],[-73.39275193141327,-43.004738933145255],[-73.392877378119,-43.004651189700866],[-73.39303134463847,-43.00459256216029],[-73.39320157540452,-43.0045677171881],[-73.39323567346678,-43.00456702568738]]]},"id":"0_0","properties":{"aef_utm_zone":"18S","centroid_lat":-43.00501696898496,"centroid_lon":-73.39323567346678,"class":"target","nominal_sampled_area_m2":7200,"pixel_count":72,"poly_id":"Chile_target_0","rad":50,"region":"Chile","sampling_crs":"EPSG:32718","sampling_radius_m":50,"sampling_scale_m":10,"site_id":"Chile_target_0","source_geom_type":"Point","source_id":"0","year":2024}},{"type":"Feature","geometry":{"type":"Polygon","coordinates":[[[-73.43516396478758,-42.9994826505643],[-73.43533580251534,-42.999500558179015],[-73.43549396224086,-42.999552855606915],[-73.4356258546432,-42.999635380053036],[-73.43572098113242,-42.99974156267715],[-73.43577176952317,-42.99986295144045],[-73.43577417681713,-42.99998988385725],[-73.43572801110128,-43.00011225611013],[-73.43563694691545,-43.000220327312896],[-73.43550823283734,-43.00030549490227],[-73.43535211453674,-43.000360979431704],[-73.43518101921117,-43.00038236424853],[-73.43500856632444,-43.00036794708581],[-73.43484848341136,-43.000318875573846],[-73.43471351327689,-43.00023905588126],[-73.43461439960498,-43.00013484176018],[-73.43455903174213,-43.00001452875494],[-73.4345518167372,-42.99988769384542],[-73.43459332861309,-42.99976443309933],[-73.43468026276544,-42.999654558022364],[-73.4348056990899,-42.999566814577896],[-73.43495965286812,-42.99950818703726],[-73.43512986954705,-42.999483342065034],[-73.43516396478758,-42.9994826505643]]]},"id":"0_1","properties":{"aef_utm_zone":"18S","centroid_lat":-42.99993259386188,"centroid_lon":-73.43516396478758,"class":"target","nominal_sampled_area_m2":7700,"pixel_count":77,"poly_id":"Chile_target_1","rad":50,"region":"Chile","sampling_crs":"EPSG:32718","sampling_radius_m":50,"sampling_scale_m":10,"site_id":"Chile_target_1","source_geom_type":"Point","source_id":"1","year":2024}},{"type":"Feature","geometry":{"type":"Polygon","coordinates":[[[-72.99370341546732,-41.71698358713764],[-72.99387178138132,-41.71700149475802],[-72.99402674563166,-41.71705379220109],[-72.99415597324503,-41.71713631666721],[-72.99424917774583,-41.71724249930986],[-72.99429893994635,-41.7173638880845],[-72.99430129854836,-41.71749082050185],[-72.99425606553324,-41.71761319274435],[-72.99416684121371,-41.71772126392905],[-72.99404072772248,-41.71780643149829],[-72.99388776372074,-41.71786191601181],[-72.99372012531235,-41.717883300821924],[-72.99355115677315,-41.717868883663776],[-72.99339430826576,-41.71781981216624],[-72.9932620651235,-41.71773999249343],[-72.99316495395787,-41.71763577839132],[-72.99311070472228,-41.717515465398314],[-72.99310363543768,-41.71738863049048],[-72.993144308546,-41.71726536973499],[-72.99322948622519,-41.71715549464048],[-72.99335238819543,-41.717067751175804],[-72.99350323147209,-41.717009123618595],[-72.99367000908747,-41.7169842786386],[-72.99370341546732,-41.71698358713764]]]},"id":"0_2","properties":{"aef_utm_zone":"18S","centroid_lat":-41.71743353043523,"centroid_lon":-72.99370341546732,"class":"target","nominal_sampled_area_m2":7800,"pixel_count":78,"poly_id":"Chile_target_2","rad":50,"region":"Chile","sampling_crs":"EPSG:32718","sampling_radius_m":50,"sampling_scale_m":10,"site_id":"Chile_target_2","source_geom_type":"Point","source_id":"2","year":2024}},{"type":"Feature","geometry":{"type":"Polygon","coordinates":[[[-73.42002317733726,-42.51694430268244],[-73.42019368208635,-42.51696221029931],[-73.42035061493145,-42.517014507732995],[-73.42048148420659,-42.517097032186726],[-73.42057587276167,-42.51720321481791],[-73.42062626715374,-42.51732460358553],[-73.42062865575265,-42.51745153600254],[-73.42058284814068,-42.51757390825146],[-73.42049249035868,-42.517681979447346],[-73.42036477475783,-42.517767147029055],[-73.42020986752844,-42.51782263155242],[-73.4200400994623,-42.51784401636669],[-73.4198689843667,-42.517829599205704],[-73.41971014328129,-42.517780527699244],[-73.41957622015654,-42.51770070801419],[-73.41947787533297,-42.51759649390034],[-73.4194229369592,-42.51747618089976],[-73.41941577790247,-42.517349345990894],[-73.4194569677393,-42.51722608524122],[-73.41954322750591,-42.51711621015757],[-73.41966769078269,-42.5170284667054],[-73.41982045030551,-42.51696983915844],[-73.41998934657998,-42.51694499418326],[-73.42002317733726,-42.51694430268244]]]},"id":"0_3","properties":{"aef_utm_zone":"18S","centroid_lat":-42.51739424598002,"centroid_lon":-73.42002317733726,"class":"target","nominal_sampled_area_m2":7300,"pixel_count":73,"poly_id":"Chile_target_3","rad":50,"region":"Chile","sampling_crs":"EPSG:32718","sampling_radius_m":50,"sampling_scale_m":10,"site_id":"Chile_target_3","source_geom_type":"Point","source_id":"3","year":2024}},{"type":"Feature","geometry":{"type":"Polygon","coordinates":[[[-73.38874758306117,-42.574712521830406],[-73.38891824566366,-42.574730429447015],[-73.38907532379784,-42.57478272688001],[-73.38920631423329,-42.574865251332845],[-73.38930079017567,-42.574971433963185],[-73.38935123122566,-42.575092822730284],[-73.38935362203846,-42.57521975514727],[-73.38930777201927,-42.57534212739666],[-73.38921733058383,-42.57545019859337],[-73.38908949674176,-42.57553536617599],[-73.38893444609545,-42.57559085070007],[-73.38876452085321,-42.57561223551464],[-73.38859324733433,-42.575597818353465],[-73.38843425918976,-42.57554874684634],[-73.38830021207652,-42.575468927160394],[-73.38820177620472,-42.57536471304569],[-73.3881467869702,-42.575244400044554],[-73.38813962128799,-42.575117565135606],[-73.38818084926118,-42.57499430438636],[-73.38826718888959,-42.574884429303495],[-73.38839176739619,-42.57479668585225],[-73.38854466834455,-42.57473805830604],[-73.38871372098338,-42.57471321333121],[-73.38874758306117,-42.574712521830406]]]},"id":"0_4","properties":{"aef_utm_zone":"18S","centroid_lat":-42.57516246512799,"centroid_lon":-73.38874758306117,"class":"target","nominal_sampled_area_m2":7800,"pixel_count":78,"poly_id":"Chile_target_4","rad":50,"region":"Chile","sampling_crs":"EPSG:32718","sampling_radius_m":50,"sampling_scale_m":10,"site_id":"Chile_target_4","source_geom_type":"Point","source_id":"4","year":2024}},{"type":"Feature","geometry":{"type":"Polygon","coordinates":[[[-73.38531435552213,-42.546453532637955],[-73.3854849408479,-42.5464714402547],[-73.3856419478562,-42.54652373768803],[-73.38577287897796,-42.546606262141296],[-73.38586731214012,-42.54671244477205],[-73.38591773034884,-42.54683383353941],[-73.38592012007784,-42.546960765956406],[-73.38587429081898,-42.547083138205565],[-73.38578389033586,-42.54719120940187],[-73.38565611437848,-42.54727637698404],[-73.38550113394152,-42.54733186150777],[-73.38533128564443,-42.5473532463222],[-73.38516008968124,-42.54733882916112],[-73.38500117352908,-42.547289757654326],[-73.38486718711408,-42.54720993796881],[-73.3847687958147,-42.54710572385452],[-73.3847138314789,-42.546985410853665],[-73.38470666904018,-42.546858575944746],[-73.38474787834382,-42.546735315195285],[-73.38483417887609,-42.546625440112045],[-73.38495870097225,-42.546537696660344],[-73.38511153268612,-42.546479069113765],[-73.3852805087772,-42.54645422413877],[-73.38531435552213,-42.546453532637955]]]},"id":"0_5","properties":{"aef_utm_zone":"18S","centroid_lat":-42.54690347593554,"centroid_lon":-73.38531435552213,"class":"target","nominal_sampled_area_m2":7400,"pixel_count":74,"poly_id":"Chile_target_5","rad":50,"region":"Chile","sampling_crs":"EPSG:32718","sampling_radius_m":50,"sampling_scale_m":10,"site_id":"Chile_target_5","source_geom_type":"Point","source_id":"5","year":2024}},{"type":"Feature","geometry":{"type":"Polygon","coordinates":[[[-73.43337954106899,-42.57692465404496],[-73.43355020972547,-42.57694256166157],[-73.43370729343175,-42.57699485909453],[-73.43383828851393,-42.57707738354733],[-73.43393276780778,-42.577183566177645],[-73.43398321064718,-42.57730495494473],[-73.43398560154489,-42.57743188736171],[-73.43393974989931,-42.57755425961112],[-73.4338493052556,-42.57766233080786],[-73.43372146687875,-42.57774749839051],[-73.43356641073213,-42.577802982914626],[-73.43339647946188,-42.57782436772921],[-73.43322519986717,-42.57780995056802],[-73.43306620608261,-42.57776087906087],[-73.43293215421417,-42.577681059374896],[-73.4328337148505,-42.57757684526015],[-73.43277872366536,-42.57745653225899],[-73.43277155772905,-42.577329697350045],[-73.43281278716483,-42.57720643660082],[-73.43289912985611,-42.57709656151798],[-73.43302371278197,-42.577008818066766],[-73.43317661915431,-42.576950190520584],[-73.43334567778999,-42.576925345545774],[-73.43337954106899,-42.57692465404496]]]},"id":"0_6","properties":{"aef_utm_zone":"18S","centroid_lat":-42.57737459734255,"centroid_lon":-73.43337954106899,"class":"target","nominal_sampled_area_m2":7300,"pixel_count":73,"poly_id":"Chile_target_6","rad":50,"region":"Chile","sampling_crs":"EPSG:32718","sampling_radius_m":50,"sampling_scale_m":10,"site_id":"Chile_target_6","source_geom_type":"Point","source_id":"6","year":2024}},{"type":"Feature","geometry":{"type":"Polygon","coordinates":[[[-73.05627189836612,-42.6244166782362],[-73.05644269715991,-42.6244345858526],[-73.05659990064525,-42.624486883284995],[-73.05673099561427,-42.62456940773704],[-73.05682554695184,-42.624675590366664],[-73.05687602825694,-42.62479697913333],[-73.05687842097983,-42.6249239115503],[-73.05683253437292,-42.62504628380009],[-73.05674202076376,-42.6251543549975],[-73.05661408490661,-42.625239522580905],[-73.05645891052437,-42.62529500710562],[-73.05628884967518,-42.62531639192044],[-73.05611743947333,-42.62530197475908],[-73.05595832445043,-42.6252529032514],[-73.05582417036352,-42.62517308356469],[-73.05572565593798,-42.62506886944924],[-73.05567062282226,-42.62494855644762],[-73.0556634514238,-42.62482172153861],[-73.05570471229991,-42.62469846078972],[-73.05579112083075,-42.62458858570755],[-73.05591579875426,-42.62450084225709],[-73.05606882172049,-42.62444221471153],[-73.0562380092659,-42.624417369737],[-73.05627189836612,-42.6244166782362]]]},"id":"0_7","properties":{"aef_utm_zone":"18S","centroid_lat":-42.62486662153379,"centroid_lon":-73.05627189836612,"class":"target","nominal_sampled_area_m2":7800,"pixel_count":78,"poly_id":"Chile_target_7","rad":50,"region":"Chile","sampling_crs":"EPSG:32718","sampling_radius_m":50,"sampling_scale_m":10,"site_id":"Chile_target_7","source_geom_type":"Point","source_id":"7","year":2024}},{"type":"Feature","geometry":{"type":"Polygon","coordinates":[[[-73.25396069104059,-42.51444036098036],[-73.2541311889581,-42.51445826859723],[-73.2542881155154,-42.51451056603095],[-73.25441897954697,-42.51459309048473],[-73.25451336432008,-42.514699273115944],[-73.25456375669289,-42.51482066188359],[-73.254566145196,-42.514947594300594],[-73.25452033941932,-42.5150699665495],[-73.25442998525767,-42.51517803774534],[-73.25430227477406,-42.51526320532702],[-73.25414737375147,-42.515318689850346],[-73.25397761248757,-42.5153400746646],[-73.25380650424823,-42.51532565750364],[-73.25364766952724,-42.51527658599719],[-73.25351375176847,-42.51519676631219],[-73.25341541088527,-42.51509255219837],[-73.25336047471265,-42.51497223919781],[-73.25335331594266,-42.51484540428894],[-73.25339450412902,-42.51472214353926],[-73.25348076043939,-42.514612268455565],[-73.25360521872925,-42.51452452500336],[-73.25375797213144,-42.51446589745637],[-73.25392686163879,-42.514441052481175],[-73.25396069104059,-42.51444036098036]]]},"id":"0_8","properties":{"aef_utm_zone":"18S","centroid_lat":-42.51489030427794,"centroid_lon":-73.25396069104059,"class":"target","nominal_sampled_area_m2":7700,"pixel_count":77,"poly_id":"Chile_target_8","rad":50,"region":"Chile","sampling_crs":"EPSG:32718","sampling_radius_m":50,"sampling_scale_m":10,"site_id":"Chile_target_8","source_geom_type":"Point","source_id":"8","year":2024}},{"type":"Feature","geometry":{"type":"Polygon","coordinates":[[[-73.27601917797907,-42.50377913928491],[-73.27618964681903,-42.50379704690184],[-73.2763465466132,-42.50384934433567],[-73.27647738832631,-42.503931868789614],[-73.27657175700216,-42.504038051421],[-73.2766221407803,-42.50415944018874],[-73.2766245288756,-42.50428637260574],[-73.27657873091057,-42.50440874485456],[-73.2764883921584,-42.50451681605026],[-73.27636070345555,-42.50460198363176],[-73.2762058288512,-42.50465746815496],[-73.27603609654011,-42.50467885296916],[-73.27586501748327,-42.50466443580822],[-73.27570620985146,-42.50461536430191],[-73.27557231493213,-42.50453554461706],[-73.27547399082056,-42.504431330503415],[-73.27541906401679,-42.50431101750295],[-73.27541190646726,-42.5041841825941],[-73.27545308762866,-42.50406092184432],[-73.27553932922801,-42.5039510467605],[-73.27566376629186,-42.50386330330812],[-73.27581649364261,-42.50380467576098],[-73.27598535434669,-42.50377983078573],[-73.27601917797907,-42.50377913928491]]]},"id":"0_9","properties":{"aef_utm_zone":"18S","centroid_lat":-42.504229082582484,"centroid_lon":-73.27601917797907,"class":"target","nominal_sampled_area_m2":7600,"pixel_count":76,"poly_id":"Chile_target_9","rad":50,"region":"Chile","sampling_crs":"EPSG:32718","sampling_radius_m":50,"sampling_scale_m":10,"site_id":"Chile_target_9","source_geom_type":"Point","source_id":"9","year":2024}},{"type":"Feature","geometry":{"type":"Polygon","coordinates":[[[-73.58093830285361,-42.698579688749746],[-73.58110930550103,-42.69859759636581],[-73.58126669661429,-42.698649893797324],[-73.58139794805106,-42.698732418248206],[-73.58149261224159,-42.69883860087674],[-73.58154315380123,-42.698959989642745],[-73.58154554938316,-42.69908692205967],[-73.5814996080111,-42.69920929431007],[-73.58140898637097,-42.69931736550854],[-73.58128089781582,-42.69940253309313],[-73.58112553822338,-42.69945801761876],[-73.58095527439522,-42.69947940243399],[-73.58078365960375,-42.69946498527236],[-73.58062435466705,-42.699415913763836],[-73.58049004046002,-42.69933609407596],[-73.58039140845382,-42.699231879959406],[-73.58033630965593,-42.69911156695708],[-73.58032912970125,-42.69898473204797],[-73.5803704398271,-42.69886147129963],[-73.58045695149235,-42.69875159621848],[-73.5805817782249,-42.698663852769194],[-73.58073498382969,-42.698605225224604],[-73.58090437330573,-42.69858038025053],[-73.58093830285361,-42.698579688749746]]]},"id":"0_10","properties":{"aef_utm_zone":"18S","centroid_lat":-42.69902963204733,"centroid_lon":-73.58093830285361,"class":"target","nominal_sampled_area_m2":7800,"pixel_count":78,"poly_id":"Chile_target_10","rad":50,"region":"Chile","sampling_crs":"EPSG:32718","sampling_radius_m":50,"sampling_scale_m":10,"site_id":"Chile_target_10","source_geom_type":"Point","source_id":"10","year":2024}},{"type":"Feature","geometry":{"type":"Polygon","coordinates":[[[-73.09372758779273,-41.82413081113735],[-73.0938962351651,-41.82414871875725],[-73.09405145847118,-41.8242010161991],[-73.0941809021178,-41.824283540663565],[-73.09427426243329,-41.824389723304705],[-73.09432410782657,-41.82451111207841],[-73.09432647037598,-41.82463804449572],[-73.0942811617472,-41.824760416739075],[-73.09419178827055,-41.82486848792525],[-73.09406546395091,-41.824953655496145],[-73.09391224423162,-41.82500914001097],[-73.0937443255726,-41.82503052482163],[-73.09357507455894,-41.82501610766311],[-73.09341796383978,-41.82496703616439],[-73.09328549962153,-41.82488721648996],[-73.09318822611361,-41.82478300238629],[-73.09313388619141,-41.824662689392284],[-73.09312680509329,-41.82453585448431],[-73.09316754620009,-41.8244125937296],[-73.09325286627573,-41.82430271863652],[-73.09337597370491,-41.8242149751735],[-73.09352706914852,-41.82415634761764],[-73.09369412556725,-41.82413150263829],[-73.09372758779273,-41.82413081113735]]]},"id":"0_11","properties":{"aef_utm_zone":"18S","centroid_lat":-41.82458075443493,"centroid_lon":-73.09372758779273,"class":"target","nominal_sampled_area_m2":7900,"pixel_count":79,"poly_id":"Chile_target_11","rad":50,"region":"Chile","sampling_crs":"EPSG:32718","sampling_radius_m":50,"sampling_scale_m":10,"site_id":"Chile_target_11","source_geom_type":"Point","source_id":"11","year":2024}},{"type":"Feature","geometry":{"type":"Polygon","coordinates":[[[-73.11211681279883,-41.84195722583675],[-73.11228550714694,-41.841975133456586],[-73.1124407736897,-41.84202743089821],[-73.11257025339248,-41.84210995536241],[-73.11266363971363,-41.8422161380033],[-73.11271349899187,-41.84233752677684],[-73.1127158622001,-41.84246445919414],[-73.11267054095133,-41.84258683143764],[-73.11258114258018,-41.84269490262407],[-73.11245478307306,-41.84278007019524],[-73.11230152067422,-41.84283555471029],[-73.11213355524106,-41.84285693952104],[-73.11196425708211,-41.842842522362446],[-73.11180710259951,-41.84279345086353],[-73.11167460148343,-41.84271363118883],[-73.1115773008804,-41.84260941708491],[-73.1115229458225,-41.842489104090724],[-73.11151586275268,-41.84236226918274],[-73.11155661520851,-41.842239008428145],[-73.11164195905029,-41.84212913333531],[-73.1117651007708,-41.84204138987257],[-73.11191623830136,-41.84198276231694],[-73.11208334125266,-41.84195791733769],[-73.11211681279883,-41.84195722583675]]]},"id":"0_12","properties":{"aef_utm_zone":"18S","centroid_lat":-41.84240716913434,"centroid_lon":-73.11211681279883,"class":"target","nominal_sampled_area_m2":7900,"pixel_count":79,"poly_id":"Chile_target_12","rad":50,"region":"Chile","sampling_crs":"EPSG:32718","sampling_radius_m":50,"sampling_scale_m":10,"site_id":"Chile_target_12","source_geom_type":"Point","source_id":"12","year":2024}},{"type":"Feature","geometry":{"type":"Polygon","coordinates":[[[-73.19905578481021,-42.3309496564976],[-73.1992257844723,-42.33096756411529],[-73.19938225243274,-42.331019861551184],[-73.1995127340286,-42.33110238600782],[-73.19960684296862,-42.3312085686417],[-73.19965708806829,-42.33132995741097],[-73.19965946958341,-42.33145688982806],[-73.19961379766275,-42.33157926207547],[-73.1995237075485,-42.331687333268725],[-73.19939637028666,-42.331772500847514],[-73.19924192195153,-42.33182798536857],[-73.19907265680521,-42.33184937018186],[-73.19890204862006,-42.33183495302155],[-73.198743678083,-42.33178588151717],[-73.19861015168702,-42.33170606183501],[-73.1985120981924,-42.33160184772391],[-73.19845732255894,-42.3314815347251],[-73.19845018470191,-42.33135469981647],[-73.19849125251302,-42.331231439065434],[-73.1985772567441,-42.33112156397923],[-73.19870135131752,-42.33103382052413],[-73.19885365831782,-42.330975192974755],[-73.19902205426988,-42.33095034799845],[-73.19905578481021,-42.3309496564976]]]},"id":"0_13","properties":{"aef_utm_zone":"18S","centroid_lat":-42.33139959979518,"centroid_lon":-73.19905578481021,"class":"target","nominal_sampled_area_m2":7700,"pixel_count":77,"poly_id":"Chile_target_13","rad":50,"region":"Chile","sampling_crs":"EPSG:32718","sampling_radius_m":50,"sampling_scale_m":10,"site_id":"Chile_target_13","source_geom_type":"Point","source_id":"13","year":2024}},{"type":"Feature","geometry":{"type":"Polygon","coordinates":[[[-73.6247149947556,-42.42889718914462],[-73.62488525980675,-42.42891509676187],[-73.62504197203262,-42.428967394196604],[-73.62517265732772,-42.429049918651714],[-73.62526691318655,-42.42915610128418],[-73.62531723672926,-42.42927749005258],[-73.62531962196643,-42.42940442246963],[-73.62527387874917,-42.42952679471783],[-73.62518364799361,-42.42963486591247],[-73.62505611194024,-42.42972003349279],[-73.6249014224872,-42.42977551801506],[-73.62473189309055,-42.42979690282887],[-73.62456101855825,-42.42978248566821],[-73.62440240077987,-42.42973341416273],[-73.62426866592976,-42.42965359447905],[-73.62417045936148,-42.4295493803665],[-73.62411559821899,-42.42942906736676],[-73.62410844922296,-42.42930223245801],[-73.6241495811503,-42.42917897170769],[-73.62423571964803,-42.42906909662283],[-73.62436000795013,-42.42898135316927],[-73.6245125527204,-42.42892272562116],[-73.62468121155804,-42.42889788064546],[-73.6247149947556,-42.42889718914462]]]},"id":"0_14","properties":{"aef_utm_zone":"18S","centroid_lat":-42.429347132442196,"centroid_lon":-73.6247149947556,"class":"target","nominal_sampled_area_m2":8000,"pixel_count":80,"poly_id":"Chile_target_14","rad":50,"region":"Chile","sampling_crs":"EPSG:32718","sampling_radius_m":50,"sampling_scale_m":10,"site_id":"Chile_target_14","source_geom_type":"Point","source_id":"14","year":2024}},{"type":"Feature","geometry":{"type":"Polygon","coordinates":[[[-73.64003577264867,-42.42940400691759],[-73.6402060390765,-42.42942191453485],[-73.64036275256947,-42.42947421196957],[-73.64049343892124,-42.42955673642468],[-73.64058769554218,-42.42966291905714],[-73.64063801949182,-42.42978430782552],[-73.6406404047483,-42.429911240242575],[-73.64059466116117,-42.43003361249078],[-73.64050442967607,-42.430141683685434],[-73.64037689259148,-42.43022685126575],[-73.64022220188768,-42.430282335788036],[-73.64005267112026,-42.43030372060185],[-73.63988179520632,-42.43028930344118],[-73.6397231761454,-42.430240231935706],[-73.63958944021397,-42.43016041225201],[-73.63949123285163,-42.43005619813945],[-73.63943637126557,-42.429935885139706],[-73.63942922221176,-42.42980905023095],[-73.63947035447171,-42.42968578948064],[-73.63955649366592,-42.42957591439579],[-73.63968078297296,-42.42948817094223],[-73.63983332897664,-42.429429543394136],[-73.64000198917796,-42.42940469841842],[-73.64003577264867,-42.42940400691759]]]},"id":"0_15","properties":{"aef_utm_zone":"18S","centroid_lat":-42.429853950215175,"centroid_lon":-73.64003577264867,"class":"target","nominal_sampled_area_m2":7800,"pixel_count":78,"poly_id":"Chile_target_15","rad":50,"region":"Chile","sampling_crs":"EPSG:32718","sampling_radius_m":50,"sampling_scale_m":10,"site_id":"Chile_target_15","source_geom_type":"Point","source_id":"15","year":2024}},{"type":"Feature","geometry":{"type":"Polygon","coordinates":[[[-73.60764743327327,-42.37208495003426],[-73.60781754423016,-42.37210285765177],[-73.60797411462688,-42.37215515508717],[-73.608104681647,-42.37223767954317],[-73.60819885219959,-42.37234386217645],[-73.60824913019549,-42.37246525094535],[-73.60825151327151,-42.37259218336242],[-73.60820581145157,-42.372714555610166],[-73.60811566235733,-42.37282262680401],[-73.60798824172936,-42.37290779438343],[-73.60783369227788,-42.372963278905],[-73.60766431631431,-42.37298466371851],[-73.60749359643258,-42.372970246558054],[-73.60733512221125,-42.372921175053214],[-73.60720150839697,-42.372841355370404],[-73.60710339070867,-42.3727371412587],[-73.60704857921576,-42.37261682825952],[-73.60704143668741,-42.37248999335083],[-73.60708253138661,-42.37236673260009],[-73.60716859192438,-42.37225685751445],[-73.60729276774076,-42.372169114059986],[-73.60744517445337,-42.37211048651116],[-73.60761368065036,-42.372085641535094],[-73.60764743327327,-42.37208495003426]]]},"id":"0_16","properties":{"aef_utm_zone":"18S","centroid_lat":-42.37253489333184,"centroid_lon":-73.60764743327327,"class":"target","nominal_sampled_area_m2":7800,"pixel_count":78,"poly_id":"Chile_target_16","rad":50,"region":"Chile","sampling_crs":"EPSG:32718","sampling_radius_m":50,"sampling_scale_m":10,"site_id":"Chile_target_16","source_geom_type":"Point","source_id":"16","year":2024}},{"type":"Feature","geometry":{"type":"Polygon","coordinates":[[[-73.58759385277436,-43.12188842665209],[-73.58776603390982,-43.12190633426626],[-73.58792450970952,-43.121958631692664],[-73.58805666569428,-43.12204115613683],[-73.5881519822933,-43.12214733875914],[-73.58820287218771,-43.12226872752134],[-73.58820528429798,-43.12239565993807],[-73.58815902632588,-43.12251803219197],[-73.58806778015327,-43.122626103396506],[-73.58793880884313,-43.12271127098785],[-73.58778237854116,-43.122766755518825],[-73.58761094128128,-43.12278814033631],[-73.58743814374705,-43.12277372317315],[-73.58727774090896,-43.12272465165978],[-73.58714250103934,-43.12264483196525],[-73.58704318929341,-43.12254061784233],[-73.58698771078375,-43.122420304835885],[-73.58698048136523,-43.12229346992621],[-73.58702207620624,-43.12217020918104],[-73.58710918409672,-43.122060334105775],[-73.58723487110193,-43.12197259066328],[-73.58738913254933,-43.121913963124264],[-73.58755968939653,-43.1218891181528],[-73.58759385277436,-43.12188842665209]]]},"id":"0_17","properties":{"aef_utm_zone":"18S","centroid_lat":-43.122338369949674,"centroid_lon":-73.58759385277436,"class":"target","nominal_sampled_area_m2":7600,"pixel_count":76,"poly_id":"Chile_target_17","rad":50,"region":"Chile","sampling_crs":"EPSG:32718","sampling_radius_m":50,"sampling_scale_m":10,"site_id":"Chile_target_17","source_geom_type":"Point","source_id":"17","year":2024}},{"type":"Feature","geometry":{"type":"Polygon","coordinates":[[[-73.71981045149978,-42.646710511855275],[-73.71998131149196,-42.646728419471565],[-73.72013857130462,-42.64678071690369],[-73.72026971324644,-42.6468632413554],[-73.72036429846331,-42.64696942398469],[-73.72041479785729,-42.64709081275116],[-73.72041719143847,-42.647217745168106],[-73.72037128839065,-42.64734011741809],[-73.72028074234977,-42.64744818861581],[-73.72015276065154,-42.647533356199574],[-73.71999753066781,-42.64758884072456],[-73.71982740888281,-42.647610225539516],[-73.7196559372616,-42.64759580837807],[-73.71949676522516,-42.64754673687014],[-73.71936256306898,-42.64746691718307],[-73.71926401334485,-42.64736270306728],[-73.71920896051087,-42.64724239006546],[-73.71920178654375,-42.64711555515642],[-73.719243062205,-42.6469922944077],[-73.71932950169756,-42.646882419325834],[-73.71945422429467,-42.646794675875725],[-73.71960730209037,-42.64673604833045],[-73.71977655025687,-42.64671120335606],[-73.71981045149978,-42.646710511855275]]]},"id":"0_18","properties":{"aef_utm_zone":"18S","centroid_lat":-42.64716045515285,"centroid_lon":-73.71981045149978,"class":"target","nominal_sampled_area_m2":8000,"pixel_count":80,"poly_id":"Chile_target_18","rad":50,"region":"Chile","sampling_crs":"EPSG:32718","sampling_radius_m":50,"sampling_scale_m":10,"site_id":"Chile_target_18","source_geom_type":"Point","source_id":"18","year":2024}},{"type":"Feature","geometry":{"type":"Polygon","coordinates":[[[-72.48515482044098,-42.10613451929835],[-72.48532421595021,-42.106152426917035],[-72.48548012784526,-42.106204724355564],[-72.48561014572391,-42.1062872488157],[-72.48570392020626,-42.106393431452815],[-72.48575398673194,-42.10651482022405],[-72.48575635977384,-42.10664175264124],[-72.48571085015851,-42.106764124886844],[-72.48562108021135,-42.10687219607695],[-72.48549419549452,-42.10695736365221],[-72.48534029605936,-42.10701284817049],[-72.48517163247364,-42.10703423298261],[-72.48500163062238,-42.1070198158231],[-72.48484382292523,-42.106970744321245],[-72.48471077107087,-42.10689092464252],[-72.48461306604536,-42.106786710534735],[-72.48455848507152,-42.10666639753807],[-72.48455137257224,-42.106539562629735],[-72.48459229442398,-42.10641630187706],[-72.48467799299978,-42.106306426787796],[-72.48480164655376,-42.10621868332915],[-72.4849534122755,-42.1061600557769],[-72.48512120977377,-42.10613521079924],[-72.48515482044098,-42.10613451929835]]]},"id":"0_19","properties":{"aef_utm_zone":"18S","centroid_lat":-42.10658446259593,"centroid_lon":-72.48515482044098,"class":"target","nominal_sampled_area_m2":7900,"pixel_count":79,"poly_id":"Chile_target_19","rad":50,"region":"Chile","sampling_crs":"EPSG:32718","sampling_radius_m":50,"sampling_scale_m":10,"site_id":"Chile_target_19","source_geom_type":"Point","source_id":"19","year":2024}},{"type":"Feature","geometry":{"type":"Polygon","coordinates":[[[-72.30060265797084,-41.518948673676086],[-72.30077050768546,-41.518966581297306],[-72.30092499682326,-41.519018878742685],[-72.30105382822809,-41.519101403211806],[-72.3011467469621,-41.51920758585727],[-72.30119635658576,-41.51932897463361],[-72.30119870794819,-41.51945590705104],[-72.30115361360977,-41.51957827929198],[-72.30106466284694,-41.519686350473954],[-72.30093893601845,-41.51977151804016],[-72.30078644100695,-41.51982700255129],[-72.30061931658295,-41.51984838736038],[-72.30045086610654,-41.519833970202924],[-72.30029449849988,-41.51978489870756],[-72.30016266081472,-41.51970507903774],[-72.30006584738753,-41.51960086493849],[-72.30001176447276,-41.519480551947325],[-72.30000471685433,-41.51935371703975],[-72.30004526525234,-41.519230456282834],[-72.30013018177405,-41.51912058118568],[-72.30025270692917,-41.51903283771795],[-72.30040308772742,-41.518974210158234],[-72.30056935401281,-41.51894936517708],[-72.30060265797084,-41.518948673676086]]]},"id":"1_0","properties":{"aef_utm_zone":"18S","centroid_lat":-41.519398616973675,"centroid_lon":-72.30060265797084,"class":"ocean","nominal_sampled_area_m2":7800,"pixel_count":78,"poly_id":"Chile_ocean_0","rad":50,"region":"Chile","sampling_crs":"EPSG:32718","sampling_radius_m":50,"sampling_scale_m":10,"site_id":"Chile_ocean_0","source_geom_type":"Point","source_id":"0","year":2024}},{"type":"Feature","geometry":{"type":"Polygon","coordinates":[[[-73.11538641517603,-42.99665203741634],[-73.11555824498804,-42.996669945031066],[-73.11571639742783,-42.996722242459],[-73.11584828375442,-42.99680476690516],[-73.1159434058615,-42.99691094952932],[-73.11599419191252,-42.997032338292655],[-73.11599659909547,-42.997159270709446],[-73.11595043550618,-42.9972816429623],[-73.11585937551526,-42.99738971416503],[-73.1157306673665,-42.997474881754364],[-73.11557455625776,-42.997530366283755],[-73.11540346881398,-42.997551751100566],[-73.11523102387162,-42.997537333937856],[-73.11507094833301,-42.99748826242593],[-73.11493598441612,-42.99740844273339],[-73.11483687530993,-42.99730422861234],[-73.11478150999756,-42.99718391560714],[-73.11477429532488,-42.99705708069763],[-73.11481580528837,-42.996933819951515],[-73.11490273543592,-42.9968239448745],[-73.11502816598204,-42.99673620142999],[-73.11518211266828,-42.99667757388931],[-73.11535232150611,-42.99665272891708],[-73.11538641517603,-42.99665203741634]]]},"id":"1_1","properties":{"aef_utm_zone":"18S","centroid_lat":-42.99710198071393,"centroid_lon":-73.11538641517603,"class":"ocean","nominal_sampled_area_m2":7900,"pixel_count":79,"poly_id":"Chile_ocean_1","rad":50,"region":"Chile","sampling_crs":"EPSG:32718","sampling_radius_m":50,"sampling_scale_m":10,"site_id":"Chile_ocean_1","source_geom_type":"Point","source_id":"1","year":2024}},{"type":"Feature","geometry":{"type":"Polygon","coordinates":[[[-72.86496872580642,-41.587748144921974],[-72.86513675426761,-41.58776605254291],[-72.86529140792467,-41.58781834998748],[-72.86542037652634,-41.587900874455556],[-72.86551339421405,-41.58800705710006],[-72.86556305667115,-41.5881284458758],[-72.86556541054047,-41.588255378293205],[-72.86552026818185,-41.58837775053468],[-72.86543122269336,-41.588485821717605],[-72.86530536197351,-41.58857098928486],[-72.86515270456275,-41.58862647379682],[-72.86498540215918,-41.58864785860627],[-72.86481677229094,-41.58863344144857],[-72.86466023816072,-41.58858436995244],[-72.86452826007618,-41.58850455028159],[-72.86443134354981,-41.588400336181344],[-72.86437720304241,-41.58828002318955],[-72.86437014792155,-41.588153188281886],[-72.86441073950354,-41.58802992752546],[-72.86449574645737,-41.587920052429226],[-72.86461840209388,-41.58783230896256],[-72.86476894303652,-41.58777368140371],[-72.86493538638234,-41.58774883642296],[-72.86496872580642,-41.587748144921974]]]},"id":"1_2","properties":{"aef_utm_zone":"18S","centroid_lat":-41.58819808821956,"centroid_lon":-72.86496872580642,"class":"ocean","nominal_sampled_area_m2":7900,"pixel_count":79,"poly_id":"Chile_ocean_2","rad":50,"region":"Chile","sampling_crs":"EPSG:32718","sampling_radius_m":50,"sampling_scale_m":10,"site_id":"Chile_ocean_2","source_geom_type":"Point","source_id":"2","year":2024}},{"type":"Feature","geometry":{"type":"Polygon","coordinates":[[[-72.80935043967361,-41.74112175239765],[-72.80951886886126,-41.741139660017915],[-72.809673891349,-41.74119195746072],[-72.80980316752802,-41.74127448192646],[-72.80989640705694,-41.74138066456879],[-72.80994618795972,-41.741502053343204],[-72.80994854744914,-41.74162898576054],[-72.80990329743558,-41.74175135800324],[-72.8098140395846,-41.74185942918827],[-72.80968787869777,-41.74194459675789],[-72.80953485720909,-41.742000081271705],[-72.80936715579857,-41.74202146608194],[-72.8091981237573,-41.74200704892371],[-72.80904121630303,-41.741957977425905],[-72.80890892346146,-41.74187815775273],[-72.80881177580024,-41.74177394365027],[-72.80875750617773,-41.74165363065704],[-72.80875043423735,-41.741526795749174],[-72.80879112263219,-41.74140353499385],[-72.80887633232301,-41.74129365989967],[-72.80899928048173,-41.74120591643536],[-72.80915018044713,-41.74114728887845],[-72.8093170207393,-41.741122443898604],[-72.80935043967361,-41.74112175239765]]]},"id":"1_3","properties":{"aef_utm_zone":"18S","centroid_lat":-41.741571695695235,"centroid_lon":-72.80935043967361,"class":"ocean","nominal_sampled_area_m2":7700,"pixel_count":77,"poly_id":"Chile_ocean_3","rad":50,"region":"Chile","sampling_crs":"EPSG:32718","sampling_radius_m":50,"sampling_scale_m":10,"site_id":"Chile_ocean_3","source_geom_type":"Point","source_id":"3","year":2024}},{"type":"Feature","geometry":{"type":"Polygon","coordinates":[[[-73.34763756846706,-41.89282364311333],[-73.34780639709095,-41.892841550732946],[-73.34796178722183,-41.892893848173976],[-73.34809136998793,-41.892976372637385],[-73.34818483064383,-41.89308255527755],[-73.34823472961095,-41.89320394405066],[-73.3482370947024,-41.893330876467935],[-73.3481917373805,-41.893453248711836],[-73.34810226785073,-41.893561319898964],[-73.34797580776339,-41.893646487470924],[-73.34782242336898,-41.893701971986594],[-73.34765432423619,-41.89372335679761],[-73.34748489131674,-41.89370893963884],[-73.34732761174038,-41.893659868139366],[-73.34719500515521,-41.89358004846389],[-73.34709762710331,-41.89347583435922],[-73.3470432287814,-41.89335552136457],[-73.3470361400757,-41.89322868645651],[-73.34707692497166,-41.89310542570229],[-73.34716233674673,-41.89299555061013],[-73.34728557648586,-41.89290780714818],[-73.3474368343181,-41.8928491795932],[-73.34760407027854,-41.892824334614254],[-73.34763756846706,-41.89282364311333]]]},"id":"1_4","properties":{"aef_utm_zone":"18S","centroid_lat":-41.893273586410906,"centroid_lon":-73.34763756846706,"class":"ocean","nominal_sampled_area_m2":7700,"pixel_count":77,"poly_id":"Chile_ocean_4","rad":50,"region":"Chile","sampling_crs":"EPSG:32718","sampling_radius_m":50,"sampling_scale_m":10,"site_id":"Chile_ocean_4","source_geom_type":"Point","source_id":"4","year":2024}},{"type":"Feature","geometry":{"type":"Polygon","coordinates":[[[-73.74657860850614,-41.79614664753917],[-73.74674718222101,-41.79616455515919],[-73.74690233773235,-41.796216852601354],[-73.74703172484318,-41.79629937706625],[-73.74712504438205,-41.79640555970779],[-73.74717486800382,-41.796526948481734],[-73.7471772295202,-41.79665388089905],[-73.74713194067948,-41.796776253142184],[-73.74704260623716,-41.79688432432797],[-73.7469163370912,-41.79696949189844],[-73.74676318429306,-41.79702497641292],[-73.74659533897548,-41.79704636122344],[-73.74642616188524,-41.79703194406502],[-73.74626911978676,-41.7969828725666],[-73.74613671342397,-41.7969030528926],[-73.74603948240095,-41.796798838789336],[-73.74598516621138,-41.796678525795585],[-73.74597808820484,-41.79655169088766],[-73.74601881151648,-41.796428430132735],[-73.74610409432705,-41.796318555039285],[-73.74622714798774,-41.79623081157583],[-73.7463781774394,-41.796172184019625],[-73.74654516089542,-41.796147339040104],[-73.74657860850614,-41.79614664753917]]]},"id":"1_5","properties":{"aef_utm_zone":"18S","centroid_lat":-41.79659659083675,"centroid_lon":-73.74657860850614,"class":"ocean","nominal_sampled_area_m2":7800,"pixel_count":78,"poly_id":"Chile_ocean_5","rad":50,"region":"Chile","sampling_crs":"EPSG:32718","sampling_radius_m":50,"sampling_scale_m":10,"site_id":"Chile_ocean_5","source_geom_type":"Point","source_id":"5","year":2024}},{"type":"Feature","geometry":{"type":"Polygon","coordinates":[[[-72.83181303495563,-42.04910987594962],[-72.83198227831642,-42.049127783568544],[-72.83213805017326,-42.049180081007755],[-72.83226795127042,-42.04926260546877],[-72.83236164152375,-42.04936878810669],[-72.83241166307775,-42.049490176878436],[-72.83241403398581,-42.049617109295646],[-72.83236856524508,-42.04973948154079],[-72.83227887592804,-42.0498475527301],[-72.83215210517909,-42.04993272030448],[-72.83199834397763,-42.049988204822064],[-72.83182983188752,-42.05000958963389],[-72.83165998273398,-42.04999517247457],[-72.83150231678111,-42.04994610097335],[-72.8313693844342,-42.0498662812955],[-72.83127176716636,-42.049762067188546],[-72.83121723521512,-42.04964175419242],[-72.83121012910189,-42.049514919284164],[-72.83125101419556,-42.04939165853107],[-72.83133663579586,-42.04928178344103],[-72.83146017828454,-42.04919403998151],[-72.83161180769193,-42.04913541242853],[-72.83177945447699,-42.04911056745052],[-72.83181303495563,-42.04910987594962]]]},"id":"1_6","properties":{"aef_utm_zone":"18S","centroid_lat":-42.0495598192472,"centroid_lon":-72.83181303495563,"class":"ocean","nominal_sampled_area_m2":7900,"pixel_count":79,"poly_id":"Chile_ocean_6","rad":50,"region":"Chile","sampling_crs":"EPSG:32718","sampling_radius_m":50,"sampling_scale_m":10,"site_id":"Chile_ocean_6","source_geom_type":"Point","source_id":"6","year":2024}},{"type":"Feature","geometry":{"type":"Polygon","coordinates":[[[-73.32963102811968,-42.08886802216554],[-73.32980037751331,-42.0888859297843],[-73.3299562469633,-42.08893822722304],[-73.33008622944593,-42.08902075168344],[-73.33017997839877,-42.0891269343208],[-73.3302300312937,-42.089248323092185],[-73.33023240368884,-42.08937525550938],[-73.33018690646246,-42.08949762775484],[-73.33009716095397,-42.089605698944716],[-73.32997031078037,-42.08969086651971],[-73.32981645324334,-42.089746351037775],[-73.32964783557534,-42.08976773584981],[-73.3294778800062,-42.089753318690356],[-73.32932011527122,-42.089704247188685],[-73.3291870996391,-42.08962442751024],[-73.3290894212126,-42.08952021340269],[-73.32903485509733,-42.08939990040619],[-73.32902774453365,-42.08927306549789],[-73.32906865524413,-42.089149804745084],[-73.32915433048896,-42.089039929655584],[-73.32927795037948,-42.08895218619667],[-73.32942967478485,-42.0888935586442],[-73.3295974266025,-42.088868713666436],[-73.32963102811968,-42.08886802216554]]]},"id":"1_7","properties":{"aef_utm_zone":"18S","centroid_lat":-42.089317965463124,"centroid_lon":-73.32963102811969,"class":"ocean","nominal_sampled_area_m2":7800,"pixel_count":78,"poly_id":"Chile_ocean_7","rad":50,"region":"Chile","sampling_crs":"EPSG:32718","sampling_radius_m":50,"sampling_scale_m":10,"site_id":"Chile_ocean_7","source_geom_type":"Point","source_id":"7","year":2024}},{"type":"Feature","geometry":{"type":"Polygon","coordinates":[[[-73.33269497463544,-42.549698912026884],[-73.33286556883034,-42.549716819643606],[-73.33302258400181,-42.5497691170769],[-73.33315352193104,-42.54985164153012],[-73.3332479600031,-42.549957824160835],[-73.33329838083337,-42.55007921292816],[-73.33330077068675,-42.55020614534515],[-73.3332549390452,-42.55032851759434],[-73.33316453386196,-42.550436588790696],[-73.3330367512611,-42.55052175637291],[-73.33288176276616,-42.55057724089669],[-73.332711905638,-42.550598625711125],[-73.33254070077369,-42.55058420855004],[-73.3323817763589,-42.5505351370432],[-73.33224778297752,-42.550455317357645],[-73.33214938656252,-42.55035110324331],[-73.33209441936908,-42.5502307902424],[-73.33208725655811,-42.5501039553335],[-73.33212846800446,-42.549980694584065],[-73.33221477302384,-42.54987081950085],[-73.33233930159426,-42.54978307604921],[-73.33249214125424,-42.54972444850268],[-73.33266112613076,-42.54969960352769],[-73.33269497463544,-42.549698912026884]]]},"id":"1_8","properties":{"aef_utm_zone":"18S","centroid_lat":-42.55014885532446,"centroid_lon":-73.33269497463544,"class":"ocean","nominal_sampled_area_m2":8000,"pixel_count":80,"poly_id":"Chile_ocean_8","rad":50,"region":"Chile","sampling_crs":"EPSG:32718","sampling_radius_m":50,"sampling_scale_m":10,"site_id":"Chile_ocean_8","source_geom_type":"Point","source_id":"8","year":2024}},{"type":"Feature","geometry":{"type":"Polygon","coordinates":[[[-73.11449771550366,-43.27340688431616],[-73.11467032472144,-43.273424791929635],[-73.11482919453034,-43.2734770893542],[-73.11496167908955,-43.273559613795946],[-73.11505723267405,-43.273665796416],[-73.11510824910009,-43.27378718517683],[-73.11511066721427,-43.2739141175935],[-73.11506429423814,-43.27403648984865],[-73.11497282120592,-43.27414456105538],[-73.1148435292376,-43.27422972864917],[-73.11468671000348,-43.274285213182075],[-73.11451484649788,-43.27430659800037],[-73.11434161933572,-43.27429218083665],[-73.11418081768812,-43.27424310932154],[-73.11404524157425,-43.27416328962462],[-73.11394568291483,-43.27405907549937],[-73.11389006647596,-43.273938762491454],[-73.1138828190899,-43.273811927581576],[-73.11392451735288,-43.27368866683754],[-73.11401184182047,-43.273578791764415],[-73.11413784131723,-43.273491048324374],[-73.1142924862964,-43.273432420787366],[-73.11446346718776,-43.27340757581684],[-73.11449771550366,-43.27340688431616]]]},"id":"1_9","properties":{"aef_utm_zone":"18S","centroid_lat":-43.27385682761374,"centroid_lon":-73.11449771550366,"class":"ocean","nominal_sampled_area_m2":7700,"pixel_count":77,"poly_id":"Chile_ocean_9","rad":50,"region":"Chile","sampling_crs":"EPSG:32718","sampling_radius_m":50,"sampling_scale_m":10,"site_id":"Chile_ocean_9","source_geom_type":"Point","source_id":"9","year":2024}},{"type":"Feature","geometry":{"type":"Polygon","coordinates":[[[-73.66082265152198,-43.166935771458306],[-73.66099495958106,-43.16695367907227],[-73.66115355220197,-43.16700597649813],[-73.66128580560694,-43.16708850094159],[-73.6613811924706,-43.16719468356322],[-73.66143211988081,-43.167316072325015],[-73.66143453377121,-43.167443004741735],[-73.66138824170116,-43.16756537699599],[-73.66129692826614,-43.16767344820118],[-73.66116786188293,-43.16775861579325],[-73.6610113162651,-43.1678141003248],[-73.66083975262612,-43.167835485142525],[-73.66066682770997,-43.1678210679792],[-73.66050630662744,-43.16777199646531],[-73.66037096706357,-43.167692176770075],[-73.66027158210939,-43.167587962646465],[-73.6602160627046,-43.16746764963958],[-73.66020882795883,-43.167340814729855],[-73.66025045346379,-43.167217553985004],[-73.66033762556798,-43.167107678910384],[-73.66046340522492,-43.16701993546862],[-73.66061778038701,-43.166961307930194],[-73.66078846296055,-43.16693646295901],[-73.66082265152198,-43.166935771458306]]]},"id":"1_10","properties":{"aef_utm_zone":"18S","centroid_lat":-43.16738571475589,"centroid_lon":-73.66082265152198,"class":"ocean","nominal_sampled_area_m2":7800,"pixel_count":78,"poly_id":"Chile_ocean_10","rad":50,"region":"Chile","sampling_crs":"EPSG:32718","sampling_radius_m":50,"sampling_scale_m":10,"site_id":"Chile_ocean_10","source_geom_type":"Point","source_id":"10","year":2024}},{"type":"Feature","geometry":{"type":"Polygon","coordinates":[[[-72.37633925998341,-42.04644162996077],[-72.3765084962358,-42.0464595375797],[-72.37666426155003,-42.04651183501894],[-72.37679415719117,-42.04659435947999],[-72.37688784350928,-42.04670054211797],[-72.37693786296221,-42.04682193088973],[-72.37694023377058,-42.04694886330694],[-72.3768947669395,-42.04707123555207],[-72.37680508138952,-42.04717930674134],[-72.37667831596517,-42.04726447431568],[-72.37652456122201,-42.04731995883322],[-72.37635605620979,-42.04734134364503],[-72.3761862141903,-42.04732692648573],[-72.37602855485977,-42.04727785498454],[-72.37589562809625,-42.04719803530673],[-72.37579801492845,-42.04709382119982],[-72.37574348526758,-42.04697350820371],[-72.3757363794527,-42.04684667329546],[-72.37577726282902,-42.04672341254235],[-72.37586288083301,-42.046613537452274],[-72.37598641813271,-42.046525793992714],[-72.37613804117147,-42.04646716643968],[-72.3763056809152,-42.04644232146166],[-72.37633925998341,-42.04644162996077]]]},"id":"1_11","properties":{"aef_utm_zone":"18S","centroid_lat":-42.04689157325835,"centroid_lon":-72.37633925998341,"class":"ocean","nominal_sampled_area_m2":7600,"pixel_count":76,"poly_id":"Chile_ocean_11","rad":50,"region":"Chile","sampling_crs":"EPSG:32718","sampling_radius_m":50,"sampling_scale_m":10,"site_id":"Chile_ocean_11","source_geom_type":"Point","source_id":"11","year":2024}},{"type":"Feature","geometry":{"type":"Polygon","coordinates":[[[-73.27274485233451,-42.72749836941449],[-73.27291593468105,-42.727516277030425],[-73.27307339914981,-42.72756857446159],[-73.2732047117596,-42.72765109891202],[-73.27329942007138,-42.727757281540136],[-73.2733499851883,-42.72787867030588],[-73.27335238188803,-42.72800560272279],[-73.27330641910486,-42.72812797497343],[-73.27321575522865,-42.728236046172306],[-73.2730876069743,-42.72832121375735],[-73.27293217497161,-42.72837669828335],[-73.27276183178628,-42.728398083098725],[-73.27259013700797,-42.728383665936995],[-73.27243075782208,-42.72833459442814],[-73.27229638101407,-42.72825477473981],[-73.27219770303824,-42.72815056062283],[-73.2721425785611,-42.72803024762022],[-73.27213539526127,-42.72790341271107],[-73.27217672464191,-42.72778015196295],[-73.27226327662883,-42.7276702768822],[-73.27238816154015,-42.72758253343338],[-73.27254143854975,-42.727523905889164],[-73.2727109069731,-42.727499060915264],[-73.27274485233451,-42.72749836941449]]]},"id":"1_12","properties":{"aef_utm_zone":"18S","centroid_lat":-42.727948312712066,"centroid_lon":-73.27274485233451,"class":"ocean","nominal_sampled_area_m2":7900,"pixel_count":79,"poly_id":"Chile_ocean_12","rad":50,"region":"Chile","sampling_crs":"EPSG:32718","sampling_radius_m":50,"sampling_scale_m":10,"site_id":"Chile_ocean_12","source_geom_type":"Point","source_id":"12","year":2024}},{"type":"Feature","geometry":{"type":"Polygon","coordinates":[[[-73.10784369089936,-42.44456158580495],[-73.10801399851628,-42.44457949342214],[-73.10817074991994,-42.44463179085668],[-73.10830146788638,-42.44471431531155],[-73.10839574730952,-42.44482049794379],[-73.10844608343373,-42.44494188671204],[-73.10844846926788,-42.445068819129084],[-73.10840271461534,-42.44519119137741],[-73.10831246130232,-42.445299262572284],[-73.10818489336474,-42.44538443015284],[-73.10803016523876,-42.445439914675305],[-73.10786059345897,-42.445461299489196],[-73.10768967620722,-42.44544688232848],[-73.10753101877376,-42.44539781082283],[-73.10739725048967,-42.4453179911389],[-73.10729901936988,-42.44521377702612],[-73.10724414451259,-42.445093464026236],[-73.10723699372997,-42.44496662911746],[-73.10727813594093,-42.44484336836726],[-73.10736429597371,-42.444733493282605],[-73.10748861534796,-42.44464574982929],[-73.1076411982542,-42.4445871222814],[-73.1078098992561,-42.44456227730577],[-73.10784369089936,-42.44456158580495]]]},"id":"1_13","properties":{"aef_utm_zone":"18S","centroid_lat":-42.44501152910253,"centroid_lon":-73.10784369089936,"class":"ocean","nominal_sampled_area_m2":7800,"pixel_count":78,"poly_id":"Chile_ocean_13","rad":50,"region":"Chile","sampling_crs":"EPSG:32718","sampling_radius_m":50,"sampling_scale_m":10,"site_id":"Chile_ocean_13","source_geom_type":"Point","source_id":"13","year":2024}},{"type":"Feature","geometry":{"type":"Polygon","coordinates":[[[-72.93755560496184,-42.286273893978915],[-72.93772548401411,-42.28629180159681],[-72.93788184096465,-42.28634409903322],[-72.93801222998648,-42.286426623490556],[-72.93810627215717,-42.28653280612508],[-72.9381564816073,-42.28665419489474],[-72.93815886143085,-42.28678112731185],[-72.93811322191195,-42.2869034995589],[-72.93802319571415,-42.28701157075153],[-72.93789594879598,-42.287096738329616],[-72.93774161004028,-42.28715222285011],[-72.93757246498629,-42.28717360766317],[-72.93740197784638,-42.28715919050302],[-72.93724371967167,-42.28711011899915],[-72.93711028801063,-42.287030299317664],[-72.93701230408251,-42.28692608520723],[-72.93695756730986,-42.28680577220885],[-72.93695043451511,-42.28667893730028],[-72.93699147318766,-42.286555676548915],[-72.93707741639938,-42.28644580146211],[-72.93720142293004,-42.2863580580063],[-72.93735362187239,-42.28629943045635],[-72.93752189835234,-42.286274585479774],[-72.93755560496184,-42.286273893978915]]]},"id":"1_14","properties":{"aef_utm_zone":"18S","centroid_lat":-42.2867238372765,"centroid_lon":-72.93755560496184,"class":"ocean","nominal_sampled_area_m2":8100,"pixel_count":81,"poly_id":"Chile_ocean_14","rad":50,"region":"Chile","sampling_crs":"EPSG:32718","sampling_radius_m":50,"sampling_scale_m":10,"site_id":"Chile_ocean_14","source_geom_type":"Point","source_id":"14","year":2024}},{"type":"Feature","geometry":{"type":"Polygon","coordinates":[[[-72.6821234760556,-42.156099007990086],[-72.68229300523915,-42.15611691560854],[-72.6824490401687,-42.156169213046496],[-72.682579160649,-42.156251737505855],[-72.68267300913314,-42.156357920142256],[-72.68272311516994,-42.15647930891305],[-72.68272549008661,-42.15660624133022],[-72.68267994455975,-42.15672861357622],[-72.68259010377271,-42.156836684767036],[-72.68246311892618,-42.156921852343075],[-72.68230909804194,-42.15697733686197],[-72.68214030135546,-42.15699872167435],[-72.68197016534732,-42.156984304514665],[-72.68181223311674,-42.156935233012256],[-72.68167907626574,-42.156855413332764],[-72.68158129413828,-42.15675119922424],[-72.68152667009423,-42.1566308862271],[-72.68151955198432,-42.156504051318706],[-72.68156050613086,-42.15638079056639],[-72.68164627233568,-42.156270915477805],[-72.68177002346924,-42.15618317201995],[-72.68192190895377,-42.15612454446833],[-72.68208983886537,-42.156099699490966],[-72.6821234760556,-42.156099007990086]]]},"id":"1_15","properties":{"aef_utm_zone":"18S","centroid_lat":-42.156548951287675,"centroid_lon":-72.6821234760556,"class":"ocean","nominal_sampled_area_m2":7700,"pixel_count":77,"poly_id":"Chile_ocean_15","rad":50,"region":"Chile","sampling_crs":"EPSG:32718","sampling_radius_m":50,"sampling_scale_m":10,"site_id":"Chile_ocean_15","source_geom_type":"Point","source_id":"15","year":2024}},{"type":"Feature","geometry":{"type":"Polygon","coordinates":[[[-72.4788764057431,-42.34314100281728],[-72.47904643836553,-42.34315891043492],[-72.47920293666282,-42.34321120787066],[-72.47933344355737,-42.34329373232712],[-72.47942757074415,-42.34339991496082],[-72.47947782558614,-42.34352130372997],[-72.47948020756353,-42.34364823614706],[-72.4794345267881,-42.34377060839457],[-72.47934441920673,-42.343878679588],[-72.47921705725572,-42.343963847166975],[-72.47906257897463,-42.34401933168818],[-72.47889328100943,-42.34404071650154],[-72.47872263974496,-42.344026299341174],[-72.47856423850145,-42.343977227836675],[-72.47843068621624,-42.343897408154305],[-72.47833261371045,-42.34379319404303],[-72.4782778274571,-42.343672881044114],[-72.47827068821664,-42.34354604613548],[-72.47831176399073,-42.34342278538452],[-72.47839778489725,-42.343312910298486],[-72.47852190353105,-42.343225166843574],[-72.47867424006148,-42.34316653929436],[-72.47884266866294,-42.34314169431813],[-72.4788764057431,-42.34314100281728]]]},"id":"1_16","properties":{"aef_utm_zone":"18S","centroid_lat":-42.343590946114865,"centroid_lon":-72.4788764057431,"class":"ocean","nominal_sampled_area_m2":7700,"pixel_count":77,"poly_id":"Chile_ocean_16","rad":50,"region":"Chile","sampling_crs":"EPSG:32718","sampling_radius_m":50,"sampling_scale_m":10,"site_id":"Chile_ocean_16","source_geom_type":"Point","source_id":"16","year":2024}},{"type":"Feature","geometry":{"type":"Polygon","coordinates":[[[-74.01143479799993,-43.501414579600805],[-74.01160805772165,-43.50143248721325],[-74.01176752625776,-43.50148478463503],[-74.01190051011102,-43.501567309073096],[-74.01199642381319,-43.501673491689736],[-74.01204763251376,-43.501794880448486],[-74.01205005975135,-43.501921812865056],[-74.01200351201781,-43.50204418512211],[-74.01191169425502,-43.50215225633216],[-74.01178191502198,-43.50223742392964],[-74.01162450477557,-43.50229290846548],[-74.01145199355689,-43.50231429328502],[-74.01127811354209,-43.50229987612046],[-74.01111670587281,-43.50225080460269],[-74.01098061880995,-43.50217098490213],[-74.01088068494657,-43.5020667707734],[-74.01082485891374,-43.50194645776324],[-74.01081758422458,-43.50181962285305],[-74.01085943964524,-43.50169636211075],[-74.0109470932184,-43.50158648704084],[-74.01107356757004,-43.50149874360451],[-74.01122879535515,-43.50144011607055],[-74.01140042061415,-43.50141527110145],[-74.01143479799993,-43.501414579600805]]]},"id":"1_17","properties":{"aef_utm_zone":"18S","centroid_lat":-43.501864522898394,"centroid_lon":-74.01143479799993,"class":"ocean","nominal_sampled_area_m2":7800,"pixel_count":78,"poly_id":"Chile_ocean_17","rad":50,"region":"Chile","sampling_crs":"EPSG:32718","sampling_radius_m":50,"sampling_scale_m":10,"site_id":"Chile_ocean_17","source_geom_type":"Point","source_id":"17","year":2024}},{"type":"Feature","geometry":{"type":"Polygon","coordinates":[[[-73.14900804018743,-43.53925524808446],[-73.14918140860901,-43.53927315569672],[-73.149340977193,-43.53932545311803],[-73.14947404447882,-43.5394079775555],[-73.14957001835702,-43.539514160171564],[-73.14962125918686,-43.539635548929965],[-73.14962368794897,-43.53976248134652],[-73.1495771110133,-43.53988485360389],[-73.14948523564571,-43.539992924814484],[-73.14935537499024,-43.54007809241259],[-73.14919786598507,-43.54013357694892],[-73.14902524653289,-43.54015496176866],[-73.14885125742576,-43.540140544603965],[-73.14868974848964,-43.540091473085745],[-73.14855357604671,-43.54001165338458],[-73.14845357948636,-43.53990743925529],[-73.14839771843018,-43.53978712624474],[-73.14839043917866,-43.5396602913345],[-73.14843232086052,-43.539537030592484],[-73.14852002942756,-43.53942715552311],[-73.14864658312793,-43.53933941208741],[-73.14880190830048,-43.539280784553945],[-73.14897364123395,-43.53925593958509],[-73.14900804018743,-43.53925524808446]]]},"id":"1_18","properties":{"aef_utm_zone":"18S","centroid_lat":-43.53970519138203,"centroid_lon":-73.14900804018743,"class":"ocean","nominal_sampled_area_m2":7500,"pixel_count":75,"poly_id":"Chile_ocean_18","rad":50,"region":"Chile","sampling_crs":"EPSG:32718","sampling_radius_m":50,"sampling_scale_m":10,"site_id":"Chile_ocean_18","source_geom_type":"Point","source_id":"18","year":2024}},{"type":"Feature","geometry":{"type":"Polygon","coordinates":[[[-73.62862992739446,-42.72297569453022],[-73.62880099726884,-42.722993602146175],[-73.62895845025817,-42.72304589957739],[-73.62908975329498,-42.72312842402789],[-73.6291844547022,-42.72323460665608],[-73.62923501613264,-42.723355995421855],[-73.62923741265745,-42.72348292783877],[-73.62919145322489,-42.72360530008938],[-73.62910079595822,-42.72371337128819],[-73.62897265704622,-42.723798538873154],[-73.62881723637506,-42.7238540233991],[-73.62864690560836,-42.723875408214454],[-73.62847522334722,-42.723860991052746],[-73.6283158557806,-42.723811919543934],[-73.62818148876906,-42.723732099855674],[-73.62808281798704,-42.72362788573876],[-73.62802769752847,-42.72350757273619],[-73.62802051475211,-42.72338073782706],[-73.62806184111955,-42.7232574770789],[-73.62814838679652,-42.72314760199809],[-73.62827326260343,-42.72305985854919],[-73.62842652843885,-42.72300123100492],[-73.62859598450771,-42.722976386031],[-73.62862992739446,-42.72297569453022]]]},"id":"1_19","properties":{"aef_utm_zone":"18S","centroid_lat":-42.723425637827795,"centroid_lon":-73.62862992739446,"class":"ocean","nominal_sampled_area_m2":7900,"pixel_count":79,"poly_id":"Chile_ocean_19","rad":50,"region":"Chile","sampling_crs":"EPSG:32718","sampling_radius_m":50,"sampling_scale_m":10,"site_id":"Chile_ocean_19","source_geom_type":"Point","source_id":"19","year":2024}},{"type":"Feature","geometry":{"type":"Polygon","coordinates":[[[-72.83505726986046,-41.510875523055795],[-72.83522509864116,-41.51089343067705],[-72.83537956851129,-41.51094572812252],[-72.8355083838483,-41.511028252591764],[-72.83560129099335,-41.51113443523734],[-72.83565089442942,-41.51125582401374],[-72.83565324549825,-41.51138275643119],[-72.83560815678372,-41.51150512867206],[-72.83551921711468,-41.511613199853926],[-72.83539350596689,-41.51169836742001],[-72.83524102997478,-41.511753851931026],[-72.83507392639488,-41.511775236740085],[-72.83490549692793,-41.51176081958266],[-72.8347491488237,-41.51171174808738],[-72.8346173275814,-41.511631928417685],[-72.83452052622867,-41.51152771431855],[-72.83446645005887,-41.51140740132746],[-72.83445940331909,-41.51128056641989],[-72.8344999466596,-41.51115730566293],[-72.83458485259035,-41.51104743056566],[-72.83470736246414,-41.5109596870978],[-72.83485772450707,-41.510901059537986],[-72.83502397005603,-41.51087621455679],[-72.83505726986046,-41.510875523055795]]]},"id":"2_0","properties":{"aef_utm_zone":"18S","centroid_lat":-41.511325466353384,"centroid_lon":-72.83505726986046,"class":"confounding_marine","nominal_sampled_area_m2":7300,"pixel_count":73,"poly_id":"Chile_confounding_marine_0","rad":50,"region":"Chile","sampling_crs":"EPSG:32718","sampling_radius_m":50,"sampling_scale_m":10,"site_id":"Chile_confounding_marine_0","source_geom_type":"Point","source_id":"0","year":2024}},{"type":"Feature","geometry":{"type":"Polygon","coordinates":[[[-73.03148423916599,-41.548187616758284],[-73.03165216476968,-41.54820552437938],[-73.03180672375616,-41.548257821824414],[-73.03193561340959,-41.548340346293095],[-73.03202857415562,-41.54844652893815],[-73.03207820621037,-41.54856791771423],[-73.03208055863712,-41.548694850131646],[-73.03203544391114,-41.54881722237282],[-73.03194645293136,-41.54892529355519],[-73.03182066925764,-41.54901046112185],[-73.03166810529754,-41.54906594563332],[-73.03150090531012,-41.549087330442575],[-73.0313323786707,-41.54907291328501],[-73.03117594036442,-41.54902384178933],[-73.03104404307096,-41.54894402211907],[-73.03094718587175,-41.548839808019395],[-73.0308930785053,-41.54871949502796],[-73.03088602770163,-41.548592660120356],[-73.03092659443392,-41.54846939936365],[-73.03101154934971,-41.54835952426688],[-73.03113412990231,-41.5482717807996],[-73.03128457869184,-41.54821315324025],[-73.03145092015042,-41.54818830825927],[-73.03148423916599,-41.548187616758284]]]},"id":"2_1","properties":{"aef_utm_zone":"18S","centroid_lat":-41.54863756005586,"centroid_lon":-73.03148423916599,"class":"confounding_marine","nominal_sampled_area_m2":7600,"pixel_count":76,"poly_id":"Chile_confounding_marine_1","rad":50,"region":"Chile","sampling_crs":"EPSG:32718","sampling_radius_m":50,"sampling_scale_m":10,"site_id":"Chile_confounding_marine_1","source_geom_type":"Point","source_id":"1","year":2024}},{"type":"Feature","geometry":{"type":"Polygon","coordinates":[[[-72.28082273832244,-43.31839865945268],[-72.28099547529776,-43.31841656706595],[-72.28115446269537,-43.318468864489965],[-72.28128704531483,-43.31855138893099],[-72.28138266962566,-43.318657571550375],[-72.28143372381398,-43.31877896031079],[-72.28143614371996,-43.31890589272744],[-72.28138973642189,-43.31902826498296],[-72.28129819568534,-43.31913633619035],[-72.2811688080193,-43.31922150378486],[-72.28101187271166,-43.31927698831835],[-72.28083988199664,-43.31929837313689],[-72.28066652661566,-43.319283955973006],[-72.28050560594674,-43.319234884457366],[-72.28036992948361,-43.31915506475973],[-72.28027029713496,-43.31905085063381],[-72.28021463953232,-43.31893053762544],[-72.28020738678396,-43.31880370271551],[-72.28024911591238,-43.318680441971814],[-72.28033650501557,-43.31857056689932],[-72.28046259777278,-43.31848282346001],[-72.28061735721376,-43.3184241959236],[-72.2807884646575,-43.31839935095335],[-72.28082273832244,-43.31839865945268]]]},"id":"2_2","properties":{"aef_utm_zone":"18S","centroid_lat":-43.31884860275026,"centroid_lon":-72.28082273832244,"class":"confounding_marine","nominal_sampled_area_m2":7700,"pixel_count":77,"poly_id":"Chile_confounding_marine_2","rad":50,"region":"Chile","sampling_crs":"EPSG:32718","sampling_radius_m":50,"sampling_scale_m":10,"site_id":"Chile_confounding_marine_2","source_geom_type":"Point","source_id":"2","year":2024}},{"type":"Feature","geometry":{"type":"Polygon","coordinates":[[[-72.70928953519744,-43.17335154603739],[-72.70946186135725,-43.17336945365131],[-72.70962047063816,-43.17342175107709],[-72.70975273793633,-43.17350427552045],[-72.70984813482052,-43.17361045814199],[-72.70989906758092,-43.17373184690373],[-72.70990148172518,-43.17385877932043],[-72.70985518479239,-43.17398115157476],[-72.709763861765,-43.17408922278003],[-72.7096347818233,-43.1741743903722],[-72.70947821976013,-43.17422987490384],[-72.70930663809807,-43.17425125972159],[-72.70913369501584,-43.17423684255825],[-72.70897315707033,-43.17418777104429],[-72.70883780328894,-43.17410795134895],[-72.70873840789444,-43.17400373722524],[-72.70868288265757,-43.1738834242183],[-72.70867564715206,-43.17375658930855],[-72.70871727703003,-43.17363332856376],[-72.70880445829184,-43.17352345348924],[-72.70893025116195,-43.17343571004757],[-72.70908464254103,-43.17337708250923],[-72.70925534304453,-43.17335223753809],[-72.70928953519744,-43.17335154603739]]]},"id":"2_3","properties":{"aef_utm_zone":"18S","centroid_lat":-43.17380148933496,"centroid_lon":-72.70928953519744,"class":"confounding_marine","nominal_sampled_area_m2":7800,"pixel_count":78,"poly_id":"Chile_confounding_marine_3","rad":50,"region":"Chile","sampling_crs":"EPSG:32718","sampling_radius_m":50,"sampling_scale_m":10,"site_id":"Chile_confounding_marine_3","source_geom_type":"Point","source_id":"3","year":2024}},{"type":"Feature","geometry":{"type":"Polygon","coordinates":[[[-72.99610226831027,-43.65181863574975],[-72.99627596133406,-43.6518365433615],[-72.99643582868364,-43.651888840781425],[-72.99656914511776,-43.65197136521705],[-72.99666529869513,-43.65207754783144],[-72.9967166354702,-43.652198936588796],[-72.99671906878491,-43.6523258690053],[-72.9966724046451,-43.65244824126362],[-72.99658035725655,-43.65255631247587],[-72.9964502534554,-43.65264148007581],[-72.99629244953441,-43.65269696461359],[-72.9961195068726,-43.65271834943395],[-72.99594519199124,-43.652703932268835],[-72.99578338064957,-43.652654860749294],[-72.99564695324248,-43.652575041046326],[-72.99554676945492,-43.6524708269153],[-72.99549080381112,-43.65235051390363],[-72.99548351093536,-43.652223678993245],[-72.9955254710391,-43.652100418252076],[-72.9956133438302,-43.65199054318431],[-72.99574013448371,-43.65190279975045],[-72.9958957504771,-43.65184417221851],[-72.99606780495077,-43.651819327250365],[-72.99610226831027,-43.65181863574975]]]},"id":"2_4","properties":{"aef_utm_zone":"18S","centroid_lat":-43.65226857904732,"centroid_lon":-72.99610226831027,"class":"confounding_marine","nominal_sampled_area_m2":7800,"pixel_count":78,"poly_id":"Chile_confounding_marine_4","rad":50,"region":"Chile","sampling_crs":"EPSG:32718","sampling_radius_m":50,"sampling_scale_m":10,"site_id":"Chile_confounding_marine_4","source_geom_type":"Point","source_id":"4","year":2024}},{"type":"Feature","geometry":{"type":"Polygon","coordinates":[[[-73.63333149431003,-43.12838491789184],[-73.63350369373163,-43.12840282550598],[-73.633662186362,-43.12845512293231],[-73.63379435638231,-43.128537647376376],[-73.63388968310448,-43.12864382999859],[-73.63394057840388,-43.12876521876073],[-73.63394299077062,-43.12889215117746],[-73.63389672788597,-43.1290145234314],[-73.63380547202271,-43.12912259463604],[-73.63367648701522,-43.12920776222748],[-73.63352004009944,-43.12926324675854],[-73.63334858463186,-43.129284631576056],[-73.63317576874545,-43.12927021441288],[-73.63301534887164,-43.129221142899425],[-73.63288009463885,-43.129141323204806],[-73.63278077234567,-43.129037109081786],[-73.63272528794415,-43.12891679607528],[-73.63271805775813,-43.1287899611656],[-73.63275965701695,-43.128666700420474],[-73.63284677415885,-43.128556825345306],[-73.63297247451257,-43.128469081902914],[-73.63312675234309,-43.12841045436398],[-73.63329732730395,-43.12838560939255],[-73.63333149431003,-43.12838491789184]]]},"id":"2_5","properties":{"aef_utm_zone":"18S","centroid_lat":-43.128834861189425,"centroid_lon":-73.63333149431003,"class":"confounding_marine","nominal_sampled_area_m2":7800,"pixel_count":78,"poly_id":"Chile_confounding_marine_5","rad":50,"region":"Chile","sampling_crs":"EPSG:32718","sampling_radius_m":50,"sampling_scale_m":10,"site_id":"Chile_confounding_marine_5","source_geom_type":"Point","source_id":"5","year":2024}},{"type":"Feature","geometry":{"type":"Polygon","coordinates":[[[-73.63839550493014,-43.12519015322161],[-73.63856769535843,-43.12520806083576],[-73.63872617971133,-43.125260358262125],[-73.63885834282883,-43.12534288270625],[-73.63895366457233,-43.1254490653285],[-73.6390045572135,-43.12557045409067],[-73.63900696945412,-43.12569738650741],[-73.6389607089855,-43.125819758761324],[-73.63886945788819,-43.1259278299659],[-73.6387404796172,-43.126012997557304],[-73.63858404087223,-43.12606848208832],[-73.63841259435937,-43.126089866905836],[-73.63823978749873,-43.12607544974266],[-73.63807937600325,-43.12602637822924],[-73.6379441288344,-43.12594655853467],[-73.63784481172847,-43.125842344411694],[-73.6377893302246,-43.125722031405225],[-73.63778210041606,-43.125595196495546],[-73.63782369750216,-43.1254719357504],[-73.63791081009413,-43.12536206067518],[-73.63803650388292,-43.125274317232744],[-73.63819077365608,-43.12521568969376],[-73.63836133970845,-43.12519084472232],[-73.63839550493014,-43.12519015322161]]]},"id":"2_6","properties":{"aef_utm_zone":"18S","centroid_lat":-43.125640096519184,"centroid_lon":-73.63839550493014,"class":"confounding_marine","nominal_sampled_area_m2":7600,"pixel_count":76,"poly_id":"Chile_confounding_marine_6","rad":50,"region":"Chile","sampling_crs":"EPSG:32718","sampling_radius_m":50,"sampling_scale_m":10,"site_id":"Chile_confounding_marine_6","source_geom_type":"Point","source_id":"6","year":2024}},{"type":"Feature","geometry":{"type":"Polygon","coordinates":[[[-73.63590641496432,-43.127476619422374],[-73.6360786118289,-43.12749452703651],[-73.63623710210578,-43.127546824462854],[-73.63636927016344,-43.127629348906936],[-73.63646459547004,-43.12773553152916],[-73.63651549001365,-43.127856920291315],[-73.63651790234454,-43.12798385270804],[-73.63647164014682,-43.128106224961975],[-73.63638038563866,-43.12821429616659],[-73.6362514025465,-43.128299463758026],[-73.6360949579539,-43.12835494828908],[-73.63592350503237,-43.128376333106594],[-73.63575069171222,-43.12836191594341],[-73.63559027422058,-43.12831284442998],[-73.63545502199624,-43.12823302473537],[-73.63535570117791,-43.12812881061235],[-73.63530021760029,-43.12800849760586],[-73.63529298752158,-43.127881662696176],[-73.63533458616266,-43.12775840195104],[-73.63542170201089,-43.12764852687586],[-73.63554740049804,-43.12756078343346],[-73.63570167603763,-43.12750215589451],[-73.63587224846557,-43.127477310923084],[-73.63590641496432,-43.127476619422374]]]},"id":"2_7","properties":{"aef_utm_zone":"18S","centroid_lat":-43.127926562719956,"centroid_lon":-73.63590641496432,"class":"confounding_marine","nominal_sampled_area_m2":7400,"pixel_count":74,"poly_id":"Chile_confounding_marine_7","rad":50,"region":"Chile","sampling_crs":"EPSG:32718","sampling_radius_m":50,"sampling_scale_m":10,"site_id":"Chile_confounding_marine_7","source_geom_type":"Point","source_id":"7","year":2024}},{"type":"Feature","geometry":{"type":"Polygon","coordinates":[[[-73.64423199174655,-43.1408178545461],[-73.64440422618105,-43.14083576216018],[-73.6445627510375,-43.140888059586366],[-73.64469494793194,-43.140970584030235],[-73.6447902940372,-43.14107676665226],[-73.64484119968563,-43.14119815541429],[-73.64484361254344,-43.141325087831014],[-73.64479734025258,-43.141447460085054],[-73.64470606583446,-43.141555531289875],[-73.64457705460028,-43.141640698881524],[-73.6444205758737,-43.14169618341274],[-73.64424908554342,-43.14171756823033],[-73.64407623451767,-43.1417031510671],[-73.64391578202518,-43.141654079553504],[-73.64378050029094,-43.141574259858686],[-73.64368115780266,-43.141470045735474],[-73.6436256621199,-43.14134973272885],[-73.6436184304643,-43.14122289781915],[-73.64366003818203,-43.14109963707412],[-73.6437471730378,-43.140989761999116],[-73.64387289895025,-43.14090201855693],[-73.64402720814988,-43.14084339101816],[-73.64419781779335,-43.140818546046816],[-73.64423199174655,-43.1408178545461]]]},"id":"2_8","properties":{"aef_utm_zone":"18S","centroid_lat":-43.14126779784369,"centroid_lon":-73.64423199174655,"class":"confounding_marine","nominal_sampled_area_m2":7600,"pixel_count":76,"poly_id":"Chile_confounding_marine_8","rad":50,"region":"Chile","sampling_crs":"EPSG:32718","sampling_radius_m":50,"sampling_scale_m":10,"site_id":"Chile_confounding_marine_8","source_geom_type":"Point","source_id":"8","year":2024}},{"type":"Feature","geometry":{"type":"Polygon","coordinates":[[[-73.62398770852263,-43.122706339015615],[-73.62415989195998,-43.12272424662977],[-73.62431836987837,-43.12277654405617],[-73.62445052762996,-43.12285906850033],[-73.62454584550329,-43.12296525112262],[-73.6245967360781,-43.12308663988482],[-73.62459914822065,-43.12321357230156],[-73.62455288963017,-43.12333594455546],[-73.62446164223766,-43.12344401576],[-73.62433266920328,-43.12352918335136],[-73.62417623680993,-43.12358466788234],[-73.62400479725802,-43.123606052699834],[-73.62383199741356,-43.12359163553667],[-73.62367159243098,-43.12354256402329],[-73.6235363507533,-43.123462744328755],[-73.62343703767965,-43.12335853020581],[-73.6233815584283,-43.123238217199365],[-73.62337432891317,-43.1231113822897],[-73.62341592431031,-43.12298812154452],[-73.6235030333654,-43.12287824646927],[-73.62362872205092,-43.12279050302679],[-73.62378298556068,-43.12273187548777],[-73.62395354468806,-43.122707030516324],[-73.62398770852263,-43.122706339015615]]]},"id":"2_9","properties":{"aef_utm_zone":"18S","centroid_lat":-43.1231562823132,"centroid_lon":-73.62398770852263,"class":"confounding_marine","nominal_sampled_area_m2":7800,"pixel_count":78,"poly_id":"Chile_confounding_marine_9","rad":50,"region":"Chile","sampling_crs":"EPSG:32718","sampling_radius_m":50,"sampling_scale_m":10,"site_id":"Chile_confounding_marine_9","source_geom_type":"Point","source_id":"9","year":2024}},{"type":"Feature","geometry":{"type":"Polygon","coordinates":[[[-73.62656262917693,-43.12092088418243],[-73.62673480758949,-43.120938791796604],[-73.62689328088302,-43.120991089223025],[-73.62702543477782,-43.121073613667214],[-73.62712074986943,-43.12117979628954],[-73.62717163895903,-43.12130118505174],[-73.62717405103112,-43.121428117468476],[-73.62712779379052,-43.12155048972236],[-73.62703654906089,-43.12165856092688],[-73.62690757979037,-43.12174372851821],[-73.62675115196227,-43.12179921304917],[-73.62657971741359,-43.12182059786665],[-73.62640692261208,-43.121806180703494],[-73.62624652231068,-43.121757109190135],[-73.62611128457982,-43.121677289495636],[-73.62601197440442,-43.121573075372716],[-73.62595649677208,-43.12145276236629],[-73.62594926746785,-43.12132592745662],[-73.625990861651,-43.12120266671143],[-73.62607796816393,-43.12109279163616],[-73.62620365318146,-43.121005048193645],[-73.62635791218936,-43.12094642065461],[-73.62652846633935,-43.12092157568314],[-73.62656262917693,-43.12092088418243]]]},"id":"2_10","properties":{"aef_utm_zone":"18S","centroid_lat":-43.12137082748002,"centroid_lon":-73.62656262917693,"class":"confounding_marine","nominal_sampled_area_m2":7800,"pixel_count":78,"poly_id":"Chile_confounding_marine_10","rad":50,"region":"Chile","sampling_crs":"EPSG:32718","sampling_radius_m":50,"sampling_scale_m":10,"site_id":"Chile_confounding_marine_10","source_geom_type":"Point","source_id":"10","year":2024}},{"type":"Feature","geometry":{"type":"Polygon","coordinates":[[[-73.57141641183074,-43.119104052095025],[-73.57158858513067,-43.119121959709204],[-73.57174705371851,-43.119174257135654],[-73.57187920368914,-43.11925678157987],[-73.5719745159504,-43.11936296420222],[-73.57202540352883,-43.11948435296444],[-73.57202781552921,-43.11961128538118],[-73.57198155966212,-43.11973365763505],[-73.57189031764189,-43.11984172883954],[-73.57176135220101,-43.11992689643083],[-73.57160492901797,-43.11998238096179],[-73.57143349955997,-43.12000376577925],[-73.57126070988954,-43.1199893486161],[-73.57110031435118,-43.119940277102764],[-73.5709650806361,-43.119860457408286],[-73.57086577340962,-43.11975624328539],[-73.57081029742457,-43.11963593027898],[-73.57080306833493,-43.119509095369324],[-73.57084466128292,-43.11938583462412],[-73.57093176520924,-43.11927595954882],[-73.57105744649468,-43.11918821610628],[-73.57121170092199,-43.11912958856722],[-73.57138225000759,-43.11910474359575],[-73.57141641183074,-43.119104052095025]]]},"id":"2_11","properties":{"aef_utm_zone":"18S","centroid_lat":-43.119553995392614,"centroid_lon":-73.57141641183074,"class":"confounding_marine","nominal_sampled_area_m2":7800,"pixel_count":78,"poly_id":"Chile_confounding_marine_11","rad":50,"region":"Chile","sampling_crs":"EPSG:32718","sampling_radius_m":50,"sampling_scale_m":10,"site_id":"Chile_confounding_marine_11","source_geom_type":"Point","source_id":"11","year":2024}},{"type":"Feature","geometry":{"type":"Polygon","coordinates":[[[-73.47838749912846,-42.890231922402826],[-73.4785590321697,-42.89024983001803],[-73.47871691146015,-42.89030212744724],[-73.47884857000047,-42.890384651895104],[-73.47894352781587,-42.890490834520826],[-73.47899422614809,-42.89061222328511],[-73.4789966291688,-42.89073915570196],[-73.47895054530679,-42.89086152795393],[-73.47885964258771,-42.890969599155135],[-73.47873115673724,-42.89105476674276],[-73.4785753152581,-42.89111025127081],[-73.47840452331181,-42.89113163608705],[-73.47823237621166,-42.891117218924734],[-73.47807257715023,-42.891068147414025],[-73.47793784633674,-42.89098832772316],[-73.47783890840488,-42.890884113603725],[-73.47778363871278,-42.89076380059955],[-73.47777643649624,-42.89063696569017],[-73.47781787476183,-42.89051370494327],[-73.47790465476595,-42.890403829864766],[-73.47802986867536,-42.89031608641855],[-73.4781835494758,-42.89025745887648],[-73.47835346434236,-42.89023261390358],[-73.47838749912846,-42.890231922402826]]]},"id":"2_12","properties":{"aef_utm_zone":"18S","centroid_lat":-42.8906818657004,"centroid_lon":-73.47838749912846,"class":"confounding_marine","nominal_sampled_area_m2":7600,"pixel_count":76,"poly_id":"Chile_confounding_marine_12","rad":50,"region":"Chile","sampling_crs":"EPSG:32718","sampling_radius_m":50,"sampling_scale_m":10,"site_id":"Chile_confounding_marine_12","source_geom_type":"Point","source_id":"12","year":2024}},{"type":"Feature","geometry":{"type":"Polygon","coordinates":[[[-73.0740854420507,-42.71491059241584],[-73.07425648969118,-42.714928500031846],[-73.07441392221628,-42.714980797463156],[-73.07454520818747,-42.71506332191378],[-73.07463989728603,-42.715169504542075],[-73.07469045214464,-42.71529089330794],[-73.0746928483576,-42.71541782572486],[-73.07464689489818,-42.71554019797539],[-73.07455624941424,-42.715648269174096],[-73.07442812715672,-42.71573343675893],[-73.07427272668606,-42.71578892128477],[-73.07410241805788,-42.71581030610009],[-73.07393075811093,-42.7157958889384],[-73.07377141125787,-42.71574681742969],[-73.0736370617103,-42.715666997741565],[-73.07353840375258,-42.715562783624755],[-73.07348329045783,-42.71544247062227],[-73.07347610861468,-42.71531563571315],[-73.07351742961055,-42.71519237496493],[-73.07360396403885,-42.71508249988401],[-73.07372882361544,-42.71499475643498],[-73.07388206953085,-42.7149361288906],[-73.07405150357552,-42.71491128391663],[-73.0740854420507,-42.71491059241584]]]},"id":"2_13","properties":{"aef_utm_zone":"18S","centroid_lat":-42.71536053571344,"centroid_lon":-73.0740854420507,"class":"confounding_marine","nominal_sampled_area_m2":7600,"pixel_count":76,"poly_id":"Chile_confounding_marine_13","rad":50,"region":"Chile","sampling_crs":"EPSG:32718","sampling_radius_m":50,"sampling_scale_m":10,"site_id":"Chile_confounding_marine_13","source_geom_type":"Point","source_id":"13","year":2024}},{"type":"Feature","geometry":{"type":"Polygon","coordinates":[[[-73.07910653732658,-42.717890229608834],[-73.07927759318027,-42.7179081372248],[-73.07943503326486,-42.717960434656085],[-73.07956632554009,-42.718042959106675],[-73.07966101918547,-42.71814914173492],[-73.07971157647171,-42.71827053050075],[-73.07971397279985,-42.71839746291767],[-73.07966801713397,-42.71851983516823],[-73.07957736729749,-42.718627906366976],[-73.07944923888779,-42.71871307395186],[-73.07929383095507,-42.718768558477734],[-73.07912351414892,-42.71878994329307],[-73.07895184595911,-42.718775526131374],[-73.07879249145445,-42.71872645462263],[-73.0786581354557,-42.71864663493445],[-73.07855947276067,-42.718542420817606],[-73.07850435681961,-42.718422107815094],[-73.07849717463174,-42.718295272905955],[-73.07853849761186,-42.718172012157765],[-73.07862503619543,-42.71806213707688],[-73.0787499017675,-42.71797439362791],[-73.07890315504135,-42.717915766083564],[-73.07907259722177,-42.71789092110962],[-73.07910653732658,-42.717890229608834]]]},"id":"2_14","properties":{"aef_utm_zone":"18S","centroid_lat":-42.71834017290641,"centroid_lon":-73.07910653732658,"class":"confounding_marine","nominal_sampled_area_m2":7700,"pixel_count":77,"poly_id":"Chile_confounding_marine_14","rad":50,"region":"Chile","sampling_crs":"EPSG:32718","sampling_radius_m":50,"sampling_scale_m":10,"site_id":"Chile_confounding_marine_14","source_geom_type":"Point","source_id":"14","year":2024}},{"type":"Feature","geometry":{"type":"Polygon","coordinates":[[[-73.01267018333623,-42.649427527854805],[-73.01284105079161,-42.64944543547108],[-73.01299831747343,-42.64949773290318],[-73.01312946514362,-42.649580257354835],[-73.01322405449211,-42.649686439984094],[-73.01327455609203,-42.64980782875054],[-73.01327694977789,-42.649934761167486],[-73.01323104472509,-42.650057133417484],[-73.01314049472913,-42.650165204615256],[-73.01301250744054,-42.65025037219906],[-73.01285727067615,-42.650305856724074],[-73.01268714145998,-42.65032724153904],[-73.01251566234863,-42.65031282437759],[-73.01235648335934,-42.65026375286962],[-73.01222227534107,-42.65018393318251],[-73.01212372131225,-42.65007971906669],[-73.01206866607359,-42.64995940606484],[-73.01206149179323,-42.64983257115579],[-73.01210276925757,-42.64970931040709],[-73.01218921252593,-42.649599435325264],[-73.012313940571,-42.6495116918752],[-73.0124670250532,-42.64945306432997],[-73.0126362806125,-42.64942821935559],[-73.01267018333623,-42.649427527854805]]]},"id":"2_15","properties":{"aef_utm_zone":"18S","centroid_lat":-42.64987747115238,"centroid_lon":-73.01267018333623,"class":"confounding_marine","nominal_sampled_area_m2":7800,"pixel_count":78,"poly_id":"Chile_confounding_marine_15","rad":50,"region":"Chile","sampling_crs":"EPSG:32718","sampling_radius_m":50,"sampling_scale_m":10,"site_id":"Chile_confounding_marine_15","source_geom_type":"Point","source_id":"15","year":2024}},{"type":"Feature","geometry":{"type":"Polygon","coordinates":[[[-73.63813466988458,-42.540002744964106],[-73.63830523758573,-42.54002065258087],[-73.63846222837223,-42.54007295001428],[-73.63859314596621,-42.54015547446765],[-73.63868756937141,-42.540261657098505],[-73.63873798237069,-42.54038304586592],[-73.63874037185252,-42.54050997828292],[-73.6386945473285,-42.54063235053203],[-73.63860415618544,-42.54074042172824],[-73.6384763934299,-42.54082558931031],[-73.63832142900571,-42.540881073833965],[-73.63815159825762,-42.54090245864835],[-73.63798041998268,-42.54088804148729],[-73.63782152024996,-42.54083896998057],[-73.6376875476785,-42.540759150295166],[-73.63758916654481,-42.540654936180964],[-73.63753420788773,-42.54053462318016],[-73.63752704618875,-42.54040778827126],[-73.6375682512344,-42.540284527521756],[-73.63765454284996,-42.540174652438424],[-73.63777905208049,-42.54008690898662],[-73.63793186800393,-42.54002828143996],[-73.63810082663663,-42.540003436464914],[-73.63813466988458,-42.540002744964106]]]},"id":"2_16","properties":{"aef_utm_zone":"18S","centroid_lat":-42.54045268826168,"centroid_lon":-73.63813466988458,"class":"confounding_marine","nominal_sampled_area_m2":7800,"pixel_count":78,"poly_id":"Chile_confounding_marine_16","rad":50,"region":"Chile","sampling_crs":"EPSG:32718","sampling_radius_m":50,"sampling_scale_m":10,"site_id":"Chile_confounding_marine_16","source_geom_type":"Point","source_id":"16","year":2024}},{"type":"Feature","geometry":{"type":"Polygon","coordinates":[[[-73.26364793279036,-42.27432921815194],[-73.26381777964241,-42.274347125769886],[-73.2639741069557,-42.274399423206454],[-73.2641044712623,-42.274481947663965],[-73.26419849560702,-42.27458813029867],[-73.26424869553948,-42.274709519068416],[-73.26425107491143,-42.274836451485534],[-73.2642054440431,-42.2749588237325],[-73.26411543490958,-42.27506689492496],[-73.2639882121112,-42.27515206250285],[-73.26383390261086,-42.2752075470232],[-73.26366478961891,-42.275228931836196],[-73.26349433479547,-42.275214514676094],[-73.26333610661906,-42.275165443172355],[-73.26320270025019,-42.27508562349105],[-73.26310473489482,-42.27498140938079],[-73.26305000849716,-42.27486109638252],[-73.26304287705393,-42.274734261473974],[-73.26308390794712,-42.27461100072252],[-73.26316983486798,-42.274501125635545],[-73.26329381789316,-42.274413382179546],[-73.26344598798637,-42.27435475462945],[-73.26361423256985,-42.274329909652806],[-73.26364793279036,-42.27432921815194]]]},"id":"2_17","properties":{"aef_utm_zone":"18S","centroid_lat":-42.27477916144952,"centroid_lon":-73.26364793279036,"class":"confounding_marine","nominal_sampled_area_m2":7600,"pixel_count":76,"poly_id":"Chile_confounding_marine_17","rad":50,"region":"Chile","sampling_crs":"EPSG:32718","sampling_radius_m":50,"sampling_scale_m":10,"site_id":"Chile_confounding_marine_17","source_geom_type":"Point","source_id":"17","year":2024}},{"type":"Feature","geometry":{"type":"Polygon","coordinates":[[[-73.14908627889719,-41.78689362260402],[-73.14925482828004,-41.78691153022409],[-73.14940996139606,-41.78696382766636],[-73.14953932983084,-41.7870463521314],[-73.14963263589956,-41.78715253477307],[-73.14968245232934,-41.78727392354708],[-73.14968481350448,-41.78740085596442],[-73.14963953120053,-41.787523228207476],[-73.14955020965283,-41.78763129939314],[-73.14942395873292,-41.78771646696347],[-73.14927082804152,-41.78777195147783],[-73.14910300695156,-41.7877933362883],[-73.14893385428117,-41.787778919129906],[-73.14877683485085,-41.787729847631596],[-73.14864444760005,-41.78765002795773],[-73.14854723061147,-41.78754581385461],[-73.14849292226175,-41.78742550086095],[-73.14848584527648,-41.787298665953024],[-73.14852656270966,-41.787175405198035],[-73.1486118332101,-41.787065530104464],[-73.1487348691089,-41.78697778664087],[-73.14888587676077,-41.78691915908453],[-73.14905283611431,-41.78689431410497],[-73.14908627889719,-41.78689362260402]]]},"id":"2_18","properties":{"aef_utm_zone":"18S","centroid_lat":-41.78734356590161,"centroid_lon":-73.14908627889719,"class":"confounding_marine","nominal_sampled_area_m2":7800,"pixel_count":78,"poly_id":"Chile_confounding_marine_18","rad":50,"region":"Chile","sampling_crs":"EPSG:32718","sampling_radius_m":50,"sampling_scale_m":10,"site_id":"Chile_confounding_marine_18","source_geom_type":"Point","source_id":"18","year":2024}},{"type":"Feature","geometry":{"type":"Polygon","coordinates":[[[-73.80830678581533,-41.84358544101913],[-73.80847548445618,-41.84360334863895],[-73.80863075495002,-41.84365564608057],[-73.8087602379477,-41.84373817054473],[-73.8088536266453,-41.8438443531856],[-73.80890348719237,-41.84396574195913],[-73.80890585046082,-41.84409267437642],[-73.8088605280588,-41.84421504661994],[-73.80877112741273,-41.84432311780639],[-73.8086447646901,-41.84440828537758],[-73.80849149839112,-41.84446376989265],[-73.8083235286836,-41.84448515470341],[-73.80815422621642,-41.84447073754482],[-73.80799706773463,-41.84442166604588],[-73.80786456324674,-41.84434184637116],[-73.8077672601677,-41.84423763226721],[-73.80771290372665,-41.84411731927301],[-73.80770582047666,-41.843990484365015],[-73.8077465739696,-41.84386722361044],[-73.80783191998316,-41.843757348517634],[-73.80795506483729,-41.843669605054906],[-73.80810620621385,-41.843610977499296],[-73.80827331341742,-41.843586132520066],[-73.80830678581533,-41.84358544101913]]]},"id":"2_19","properties":{"aef_utm_zone":"18S","centroid_lat":-41.84403538431671,"centroid_lon":-73.80830678581533,"class":"confounding_marine","nominal_sampled_area_m2":7500,"pixel_count":75,"poly_id":"Chile_confounding_marine_19","rad":50,"region":"Chile","sampling_crs":"EPSG:32718","sampling_radius_m":50,"sampling_scale_m":10,"site_id":"Chile_confounding_marine_19","source_geom_type":"Point","source_id":"19","year":2024}}]}