{"type":"FeatureCollection","features":[{"type":"Feature","geometry":{"type":"Polygon","coordinates":[[[5.897099931024436,59.34592146419512],[5.8968534384747855,59.345903556219326],[5.896626567461112,59.34585125782087],[5.896437377417617,59.34576873209757],[5.89630092798926,59.34566254828823],[5.896228080247352,59.34554115880153],[5.896224632242906,59.345414226348915],[5.896290857678151,59.34529185475896],[5.896421484356666,59.345183784710976],[5.8966061140536,59.345098618407896],[5.896830050320851,59.34504313489487],[5.897075468300687,59.34502175050735],[5.897322833438017,59.34503616737833],[5.897552456207514,59.345085237968554],[5.897746059169041,59.34516505639702],[5.89788823168577,59.345269269306094],[5.897967656561282,59.345389581529666],[5.8979780109707995,59.345516416331776],[5.8979184699467355,59.34563967767825],[5.897793772282218,59.345749553876026],[5.897613843532982,59.345837298611976],[5.897393006061232,59.34589592721173],[5.89714883896506,59.34592077268019],[5.897099931024436,59.34592146419512]]]},"id":"0_0","properties":{"aef_dataset_versions":"1.0","aef_model_versions":"2.1","aef_processing_versions":"1.01","centroid_lat":59.34547152089756,"centroid_lon":5.897099931024438,"class":"target","nominal_sampled_area_m2":7900,"pixel_count":79,"poly_id":"Norway_target_0","rad":50,"region":"Norway","sampling_crs":"EPSG:32632","sampling_radius_m":50,"sampling_scale_m":10,"sampling_utm_zone":31,"site_id":"Norway_target_0","source_aef_utm_zones":"31N|32N","source_geom_type":"Point","source_id":"0","year":2024}},{"type":"Feature","geometry":{"type":"Polygon","coordinates":[[[5.44525070739886,59.05972261000751],[5.445006271918362,59.05970470203433],[5.444781294216885,59.05965240364292],[5.444593683011185,59.05956987792892],[5.4444583722684285,59.059463694128205],[5.444386132426485,59.05934230464677],[5.444382713159827,59.0592153721944],[5.444448385897987,59.05909300059963],[5.444577922451968,59.05898493054323],[5.444761011377505,59.0588997642308],[5.444983078870417,59.05884428071039],[5.445226448818242,59.05882289631975],[5.445471749675239,59.05883731319285],[5.445699456218342,59.058886383789776],[5.445891443528628,59.05896620222744],[5.446032429572008,59.05907041514533],[5.446111191600496,59.05919072737459],[5.44612145956376,59.05931756217747],[5.446062415390123,59.05944082351958],[5.445938758336556,59.0595506997092],[5.445760331133561,59.05963844443576],[5.445541336619598,59.0596970730278],[5.445299207184818,59.05972191849266],[5.44525070739886,59.05972261000751]]]},"id":"0_1","properties":{"aef_dataset_versions":"1.0","aef_model_versions":"2.1","aef_processing_versions":"1.01","centroid_lat":59.05927266670992,"centroid_lon":5.445250707398861,"class":"target","nominal_sampled_area_m2":7800,"pixel_count":78,"poly_id":"Norway_target_1","rad":50,"region":"Norway","sampling_crs":"EPSG:32632","sampling_radius_m":50,"sampling_scale_m":10,"sampling_utm_zone":31,"site_id":"Norway_target_1","source_aef_utm_zones":"31N|32N","source_geom_type":"Point","source_id":"1","year":2024}},{"type":"Feature","geometry":{"type":"Polygon","coordinates":[[[5.6394979898127175,59.87739085084608],[5.639247567199086,59.877372942865286],[5.639017078982062,59.8773206444534],[5.638824872544175,59.877238118712434],[5.638686247639817,59.87713193488669],[5.638612238496736,59.87701054538998],[5.638608735589711,59.87688361293686],[5.6386760169625525,59.87676124135608],[5.638808726341584,59.87665317132408],[5.638996299706105,59.87656800503879],[5.639223806294942,59.87651252153983],[5.63947313707048,59.87649113715826],[5.639724446046138,59.87650555402521],[5.639957729794995,59.87655462460266],[5.640154419483062,59.876634443013636],[5.640298858776083,59.87673865590594],[5.640379550032267,59.876858968118704],[5.640390069600101,59.876985802919314],[5.640329579336815,59.877109064274094],[5.640202893569584,59.877218940487396],[5.640020096092827,59.87730668524121],[5.639795737620729,59.87736531385561],[5.639547677539462,59.87739015933094],[5.6394979898127175,59.87739085084608]]]},"id":"0_2","properties":{"aef_dataset_versions":"1.0","aef_model_versions":"2.1","aef_processing_versions":"1.01","centroid_lat":59.87694090754851,"centroid_lon":5.639497989812718,"class":"target","nominal_sampled_area_m2":7900,"pixel_count":79,"poly_id":"Norway_target_2","rad":50,"region":"Norway","sampling_crs":"EPSG:32632","sampling_radius_m":50,"sampling_scale_m":10,"sampling_utm_zone":31,"site_id":"Norway_target_2","source_aef_utm_zones":"31N|32N","source_geom_type":"Point","source_id":"2","year":2024}},{"type":"Feature","geometry":{"type":"Polygon","coordinates":[[[5.640388503200308,60.084101663572646],[5.640136512045538,60.084083755589866],[5.639904580154356,60.08403145717263],[5.639711169833396,60.08394893142463],[5.639571676667929,60.08384274759237],[5.639497203994672,60.08372135809168],[5.639493679175817,60.08359442563837],[5.639561381987796,60.083472054061225],[5.63969492260045,60.083363984035586],[5.639883670821683,60.083278817757375],[5.64011260237288,60.083223334264005],[5.640363494796572,60.083201949884796],[5.6406163778098914,60.083216366750136],[5.640851122703787,60.08326543732253],[5.641049044345233,60.083345255726556],[5.641194388338905,60.083449468612194],[5.641275585024818,60.083569780820646],[5.641286170510041,60.08369661562067],[5.6412253013932565,60.083819876978744],[5.64109782214813,60.08392975319821],[5.640913879724161,60.084017497959124],[5.640688115973849,60.08407612657936],[5.640438502150134,60.08410097205743],[5.640388503200308,60.084101663572646]]]},"id":"0_3","properties":{"aef_dataset_versions":"1.0","aef_model_versions":"2.1","aef_processing_versions":"1.01","centroid_lat":60.083651720275064,"centroid_lon":5.640388503200309,"class":"target","nominal_sampled_area_m2":7800,"pixel_count":78,"poly_id":"Norway_target_3","rad":50,"region":"Norway","sampling_crs":"EPSG:32632","sampling_radius_m":50,"sampling_scale_m":10,"sampling_utm_zone":31,"site_id":"Norway_target_3","source_aef_utm_zones":"31N|32N","source_geom_type":"Point","source_id":"3","year":2024}},{"type":"Feature","geometry":{"type":"Polygon","coordinates":[[[5.3061699975821215,60.069571199251115],[5.305918117434989,60.06955329126846],[5.305686287714451,60.0695009928516],[5.305492962593811,60.0694184671041],[5.305353530876271,60.0693122832723],[5.305279091007619,60.0691908937719],[5.305275567739483,60.0690639613186],[5.3053432407256755,60.0689415897412],[5.305476722510876,60.06883351971511],[5.305665387586021,60.068748353436405],[5.305894218290846,60.06869286994263],[5.306145000194743,60.068671485563264],[5.306397771811446,60.06868590242871],[5.306632413298276,60.068734973001455],[5.306830247752833,60.06881479140598],[5.306975527719699,60.068919004292084],[5.307056688635707,60.069039316500835],[5.307067269455864,60.069166151300905],[5.307006427151009,60.069289412658755],[5.306879004061306,60.069399288877776],[5.306695142666693,60.0694870336382],[5.306469478369692,60.06954566225802],[5.306219974506295,60.06957050773588],[5.3061699975821215,60.069571199251115]]]},"id":"0_4","properties":{"aef_dataset_versions":"1.0","aef_model_versions":"2.1","aef_processing_versions":"1.01","centroid_lat":60.069121255953526,"centroid_lon":5.306169997582121,"class":"target","nominal_sampled_area_m2":7800,"pixel_count":78,"poly_id":"Norway_target_4","rad":50,"region":"Norway","sampling_crs":"EPSG:32632","sampling_radius_m":50,"sampling_scale_m":10,"sampling_utm_zone":31,"site_id":"Norway_target_4","source_aef_utm_zones":"31N|32N","source_geom_type":"Point","source_id":"4","year":2024}},{"type":"Feature","geometry":{"type":"Polygon","coordinates":[[[5.58723497137103,59.72309372835592],[5.586985704805655,59.723075820376586],[5.586756280607301,59.723023521968635],[5.586564961457014,59.72294099623285],[5.5864269764797765,59.72283481241193],[5.586353308968528,59.72271342291817],[5.586349822211181,59.72258649046519],[5.586416792974507,59.72246411888172],[5.586548889716628,59.722356048845015],[5.586735597186555,59.72227088255452],[5.586962053547472,59.722215399051414],[5.587210233354673,59.722194014668105],[5.587460382230654,59.72220843153624],[5.5876925890841695,59.72225750211744],[5.587888370796151,59.722337320533555],[5.588032143305467,59.72244153343078],[5.588112462049259,59.722561845646716],[5.588122933034751,59.72268868044776],[5.588062721994785,59.72281194180011],[5.58793662103786,59.72292181800886],[5.58775466741173,59.72300956275741],[5.58753134465969,59.72306819136752],[5.58728442971973,59.72309303684084],[5.58723497137103,59.72309372835592]]]},"id":"0_5","properties":{"aef_dataset_versions":"1.0","aef_model_versions":"2.1","aef_processing_versions":"1.01","centroid_lat":59.72264378505834,"centroid_lon":5.587234971371032,"class":"target","nominal_sampled_area_m2":7900,"pixel_count":79,"poly_id":"Norway_target_5","rad":50,"region":"Norway","sampling_crs":"EPSG:32632","sampling_radius_m":50,"sampling_scale_m":10,"sampling_utm_zone":31,"site_id":"Norway_target_5","source_aef_utm_zones":"31N|32N","source_geom_type":"Point","source_id":"5","year":2024}},{"type":"Feature","geometry":{"type":"Polygon","coordinates":[[[5.785374656001311,59.73257312699115],[5.785125318772826,59.73255521901172],[5.7848958295366435,59.73250292060353],[5.784704456151164,59.73242039486743],[5.784566432058564,59.732314211046216],[5.784492743665167,59.73219282155226],[5.78448925592067,59.732065889099275],[5.784556245669908,59.73194351751598],[5.784688379859278,59.73183544747957],[5.784875140256761,59.73175028118939],[5.785101660812558,59.73169479768654],[5.785349910972366,59.731673413303334],[5.785600130759106,59.73168783017139],[5.785832403437538,59.73173690075237],[5.786028240649296,59.731816719168165],[5.786172053915569,59.731920932065094],[5.786252395429068,59.73204124428083],[5.786262869384139,59.73216807908186],[5.786202641276724,59.732291340434344],[5.786076504573438,59.73240121664337],[5.785894499367185,59.73248896139225],[5.7856711133070595,59.73254759000262],[5.785424128370676,59.73257243547606],[5.785374656001311,59.73257312699115]]]},"id":"0_6","properties":{"aef_dataset_versions":"1.0","aef_model_versions":"2.1","aef_processing_versions":"1.01","centroid_lat":59.73212318369357,"centroid_lon":5.785374656001311,"class":"target","nominal_sampled_area_m2":7700,"pixel_count":77,"poly_id":"Norway_target_6","rad":50,"region":"Norway","sampling_crs":"EPSG:32632","sampling_radius_m":50,"sampling_scale_m":10,"sampling_utm_zone":31,"site_id":"Norway_target_6","source_aef_utm_zones":"31N|32N","source_geom_type":"Point","source_id":"6","year":2024}},{"type":"Feature","geometry":{"type":"Polygon","coordinates":[[[5.480326042595652,59.19890728037288],[5.480080611788947,59.19888937239844],[5.479854717996112,59.198837074003606],[5.479666342859503,59.198754548285116],[5.4795304811563,59.19864836448022],[5.479457947177957,59.198526974996234],[5.479454514006272,59.19840004254374],[5.479520454170451,59.198277670951306],[5.479650518188239,59.198169600898986],[5.4798343526260265,59.19808443459108],[5.480057324337577,59.19802895107424],[5.480301685239049,59.19800756668511],[5.480547984911548,59.19802198355719],[5.480776618633278,59.198071054150866],[5.4809693876869225,59.19815087258408],[5.481110947813113,59.1982550854977],[5.481190030564387,59.1983753977242],[5.481200340355169,59.198502232526714],[5.481141055777171,59.198625493870935],[5.481016895217207,59.19873537006451],[5.480837741481318,59.1988231147956],[5.4806178552402995,59.1988817433914],[5.480374739869881,59.198906588858],[5.480326042595652,59.19890728037288]]]},"id":"0_7","properties":{"aef_dataset_versions":"1.0","aef_model_versions":"2.1","aef_processing_versions":"1.01","centroid_lat":59.1984573370753,"centroid_lon":5.480326042595653,"class":"target","nominal_sampled_area_m2":7700,"pixel_count":77,"poly_id":"Norway_target_7","rad":50,"region":"Norway","sampling_crs":"EPSG:32632","sampling_radius_m":50,"sampling_scale_m":10,"sampling_utm_zone":31,"site_id":"Norway_target_7","source_aef_utm_zones":"31N|32N","source_geom_type":"Point","source_id":"7","year":2024}},{"type":"Feature","geometry":{"type":"Polygon","coordinates":[[[4.859677656983903,60.59398885110213],[4.859421697003069,60.59397094311434],[4.859186112232772,60.59391864468365],[4.858989655768362,60.593836118917935],[4.858847965672701,60.593729935069234],[4.85877232014634,60.59360854555851],[4.858768739886072,60.59348161310469],[4.858837509051901,60.59335924153675],[4.858973152906518,60.59325117152712],[4.859164873826476,60.59316600526677],[4.859397410909291,60.593110521787494],[4.859652254715451,60.59308913741423],[4.859909120459938,60.59310355427554],[4.860147562437105,60.593152624835135],[4.860348601246831,60.59323244322162],[4.860496234373386,60.59333665609045],[4.860578709931525,60.59345696828805],[4.860589462206532,60.5935838030866],[4.860527634491155,60.593707064453014],[4.8603981475373175,60.593816940688015],[4.860211308093396,60.593904685466846],[4.859981988615988,60.59396331410178],[4.859728443410875,60.593988159586715],[4.859677656983903,60.59398885110213]]]},"id":"0_8","properties":{"aef_dataset_versions":"1.0","aef_model_versions":"2.1","aef_processing_versions":"1.01","centroid_lat":60.59353890780456,"centroid_lon":4.859677656983904,"class":"target","nominal_sampled_area_m2":7500,"pixel_count":75,"poly_id":"Norway_target_8","rad":50,"region":"Norway","sampling_crs":"EPSG:32632","sampling_radius_m":50,"sampling_scale_m":10,"sampling_utm_zone":31,"site_id":"Norway_target_8","source_aef_utm_zones":"31N|32N","source_geom_type":"Point","source_id":"8","year":2024}},{"type":"Feature","geometry":{"type":"Polygon","coordinates":[[[4.908741227901836,60.68700464556669],[4.908484528180383,60.68698673757795],[4.9082482625581605,60.686934439144764],[4.908051238330003,60.68685191337575],[4.90790913875363,60.686745729524],[4.907833274622035,60.68662434001141],[4.9078296840283775,60.6864974075575],[4.907898651949645,60.68637503599127],[4.908034687822816,60.686266965984615],[4.908226962817272,60.68618179972758],[4.908460171926754,60.68612631625091],[4.908715752221862,60.68610493187877],[4.9089733602983,60.68611934873931],[4.909212491366218,60.68616841929655],[4.90941411117777,60.68624823767978],[4.909562170970643,60.68635245054546],[4.9096448848950205,60.68647276274107],[4.909655668257802,60.68659959753932],[4.909593661871612,60.68672285890728],[4.909463800705643,60.686832735145174],[4.909276421292785,60.686920479927345],[4.909046439071412,60.686979108565],[4.9087921611049135,60.68700395405123],[4.908741227901836,60.68700464556669]]]},"id":"0_9","properties":{"aef_dataset_versions":"1.0","aef_model_versions":"2.1","aef_processing_versions":"1.01","centroid_lat":60.6865547022691,"centroid_lon":4.908741227901836,"class":"target","nominal_sampled_area_m2":7800,"pixel_count":78,"poly_id":"Norway_target_9","rad":50,"region":"Norway","sampling_crs":"EPSG:32632","sampling_radius_m":50,"sampling_scale_m":10,"sampling_utm_zone":31,"site_id":"Norway_target_9","source_aef_utm_zones":"31N|32N","source_geom_type":"Point","source_id":"9","year":2024}},{"type":"Feature","geometry":{"type":"Polygon","coordinates":[[[5.846961462278642,59.495247368282236],[5.846713880169111,59.495229460305055],[5.846486006332116,59.49517716190285],[5.846295980031819,59.49509463617464],[5.8461589274804435,59.49498845236076],[5.846085757754736,59.49486706287128],[5.846082294529066,59.494740130418506],[5.846148812709369,59.4946177588311],[5.846280016789924,59.49450968878756],[5.84646546258113,59.49442452248944],[5.846690388674567,59.4943690389803],[5.8469368914272275,59.49434765459445],[5.847185349943558,59.4943620714643],[5.847415987672968,59.49441114205098],[5.847610446390054,59.494490960474586],[5.847753247341502,59.49459517337901],[5.847833023304737,59.49471548559958],[5.847843423502103,59.49484232040127],[5.8477836193134225,59.494965581750044],[5.847658370472719,59.49507545795213],[5.847477646405416,59.495163202693035],[5.847255832781384,59.49522183129687],[5.847010586404973,59.49524667676724],[5.846961462278642,59.495247368282236]]]},"id":"0_10","properties":{"aef_dataset_versions":"1.0","aef_model_versions":"2.1","aef_processing_versions":"1.01","centroid_lat":59.49479742498466,"centroid_lon":5.846961462278641,"class":"target","nominal_sampled_area_m2":7900,"pixel_count":79,"poly_id":"Norway_target_10","rad":50,"region":"Norway","sampling_crs":"EPSG:32632","sampling_radius_m":50,"sampling_scale_m":10,"sampling_utm_zone":31,"site_id":"Norway_target_10","source_aef_utm_zones":"31N|32N","source_geom_type":"Point","source_id":"10","year":2024}},{"type":"Feature","geometry":{"type":"Polygon","coordinates":[[[5.0907589408761975,60.054853834822126],[5.090507173048404,60.05483592683963],[5.090275446705787,60.05478362842315],[5.090082207792221,60.05470110267616],[5.089942838248697,60.05459491884482],[5.089868431572281,60.0544735293447],[5.089864909873189,60.05434659689141],[5.089932552681165,60.05422422531377],[5.090065974943789,60.054116155287204],[5.090254555890369,60.054030989008005],[5.090483284557187,60.05397550551383],[5.090733954635351,60.05395412113429],[5.0909866135391395,60.05396853799985],[5.091221150397013,60.05401760857297],[5.091418896634456,60.05409742697799],[5.091564111817953,60.054201639864566],[5.091645236541389,60.05432195207363],[5.091655812641357,60.05444878687374],[5.0915949974652515,60.05457204823135],[5.091467631194526,60.05468192444994],[5.091283851786733,60.05476966920983],[5.091058288118215,60.05482829782925],[5.090808895514458,60.05485314330692],[5.0907589408761975,60.054853834822126]]]},"id":"0_11","properties":{"aef_dataset_versions":"1.0","aef_model_versions":"2.1","aef_processing_versions":"1.01","centroid_lat":60.05440389152455,"centroid_lon":5.0907589408761975,"class":"target","nominal_sampled_area_m2":7600,"pixel_count":76,"poly_id":"Norway_target_11","rad":50,"region":"Norway","sampling_crs":"EPSG:32632","sampling_radius_m":50,"sampling_scale_m":10,"sampling_utm_zone":31,"site_id":"Norway_target_11","source_aef_utm_zones":"31N|32N","source_geom_type":"Point","source_id":"11","year":2024}},{"type":"Feature","geometry":{"type":"Polygon","coordinates":[[[5.118396422565651,60.04049772426422],[5.118144764187731,60.04047981628187],[5.117913138582001,60.04042751786575],[5.1177199836731475,60.040344992119245],[5.117580674715256,60.04023880828837],[5.117506300383104,60.04011741878853],[5.117502780212971,60.03999048633525],[5.117570393613706,60.03986811475735],[5.117703757874399,60.03976004473035],[5.117892256841677,60.03967487845064],[5.11812088607729,60.03961939495609],[5.118371447186573,60.039598010576384],[5.1186239962569635,60.03961242744206],[5.118858431158873,60.039661498015526],[5.119056091432913,60.03974131642102],[5.119201243488089,60.03984552930807],[5.119282332943579,60.039965841517436],[5.119292904443948,60.040092676317585],[5.119232115703526,60.040215937674965],[5.119104804800197,60.04032581389312],[5.118921105284682,60.04041355865253],[5.118695639673855,60.04047218727153],[5.118446355487347,60.040497032749016],[5.118396422565651,60.04049772426422]]]},"id":"0_12","properties":{"aef_dataset_versions":"1.0","aef_model_versions":"2.1","aef_processing_versions":"1.01","centroid_lat":60.04004778096664,"centroid_lon":5.11839642256565,"class":"target","nominal_sampled_area_m2":8000,"pixel_count":80,"poly_id":"Norway_target_12","rad":50,"region":"Norway","sampling_crs":"EPSG:32632","sampling_radius_m":50,"sampling_scale_m":10,"sampling_utm_zone":31,"site_id":"Norway_target_12","source_aef_utm_zones":"31N|32N","source_geom_type":"Point","source_id":"12","year":2024}},{"type":"Feature","geometry":{"type":"Polygon","coordinates":[[[6.029027695905618,58.91482434942897],[6.028784286549383,58.9148064414571],[6.028560253285618,58.91475414306923],[6.028373429648967,58.91467161735986],[6.028238686914969,58.91456543356347],[6.028166750310927,58.914444044084654],[6.028163345379681,58.91431711163243],[6.028228742417019,58.914194740035235],[6.028357735186044,58.914086669974644],[6.028540055531081,58.91400150365753],[6.028761190826223,58.91394602013341],[6.029003539157402,58.913924635741225],[6.029247810292624,58.91393905261538],[6.0294745609675084,58.91398812321566],[6.029665742345085,58.91406794165792],[6.029806136541963,58.91417215458022],[6.0298845679237045,58.91429246681233],[6.029894792765314,58.914419301615595],[6.029835996434932,58.914542562955525],[6.029712858467722,58.91465243914108],[6.029535180278578,58.91474018386292],[6.029317105084135,58.91479881245112],[6.0290759920924835,58.91482365791417],[6.029027695905618,58.91482434942897]]]},"id":"0_13","properties":{"aef_dataset_versions":"1.0","aef_model_versions":"2.1","aef_processing_versions":"1.01","centroid_lat":58.91437440613138,"centroid_lon":6.029027695905618,"class":"target","nominal_sampled_area_m2":7900,"pixel_count":79,"poly_id":"Norway_target_13","rad":50,"region":"Norway","sampling_crs":"EPSG:32632","sampling_radius_m":50,"sampling_scale_m":10,"sampling_utm_zone":31,"site_id":"Norway_target_13","source_aef_utm_zones":"31N|32N","source_geom_type":"Point","source_id":"13","year":2024}},{"type":"Feature","geometry":{"type":"Polygon","coordinates":[[[5.8637054481907445,58.978620637101244],[5.863461588304755,58.9786027291288],[5.8632371403765005,58.978550430739375],[5.863049970950053,58.97846790502798],[5.862914978826316,58.97836172122968],[5.862842909082731,58.97824033174971],[5.862839497857368,58.97811339929742],[5.862905015943802,58.9779910277013],[5.863034247466859,58.977882957642564],[5.863216905264589,58.9777977913275],[5.863438449850177,58.97774230780501],[5.8636812467320265,58.97772092341349],[5.863925969976555,58.9777353402872],[5.864153140334624,58.977784410885995],[5.864344675564746,58.97786422932624],[5.864485329617541,58.9779684422466],[5.8645639061729185,58.97808875447745],[5.864574149947494,58.97821558928055],[5.8645152447991205,58.97833885062144],[5.8643918789220235,58.97844872680878],[5.864213871871116,58.978536471532685],[5.8639953930405655,58.97859510012259],[5.8637538337697555,58.97861994558643],[5.8637054481907445,58.978620637101244]]]},"id":"0_14","properties":{"aef_dataset_versions":"1.0","aef_model_versions":"2.1","aef_processing_versions":"1.01","centroid_lat":58.97817069380366,"centroid_lon":5.863705448190745,"class":"target","nominal_sampled_area_m2":7900,"pixel_count":79,"poly_id":"Norway_target_14","rad":50,"region":"Norway","sampling_crs":"EPSG:32632","sampling_radius_m":50,"sampling_scale_m":10,"sampling_utm_zone":31,"site_id":"Norway_target_14","source_aef_utm_zones":"31N|32N","source_geom_type":"Point","source_id":"14","year":2024}},{"type":"Feature","geometry":{"type":"Polygon","coordinates":[[[5.825260994035176,59.71506794283189],[5.825011787260477,59.71505003485263],[5.8247824180930445,59.71499773644488],[5.824591144833169,59.714915210709364],[5.824453192952893,59.714809026888695],[5.8243795431108065,59.71468763739509],[5.824376057188723,59.714560704942116],[5.824443011887364,59.714438333358494],[5.824575076943977,59.714330263321564],[5.824761739629933,59.71424509703079],[5.82498814167318,59.71418961352748],[5.825236261952426,59.71416822914407],[5.825486350828182,59.71418264601227],[5.825718501984789,59.714231716593666],[5.825914236736352,59.71431153501005],[5.826057974759692,59.71441574790754],[5.82613827423719,59.71453606012363],[5.826148742710014,59.71466289492471],[5.826088546111448,59.714786156276915],[5.82596247540085,59.71489603248542],[5.825780565418575,59.71498377723371],[5.825557296233856,59.7150424058436],[5.825310440520469,59.7150672513168],[5.825260994035176,59.71506794283189]]]},"id":"0_15","properties":{"aef_dataset_versions":"1.0","aef_model_versions":"2.1","aef_processing_versions":"1.01","centroid_lat":59.71461799953432,"centroid_lon":5.825260994035175,"class":"target","nominal_sampled_area_m2":7800,"pixel_count":78,"poly_id":"Norway_target_15","rad":50,"region":"Norway","sampling_crs":"EPSG:32632","sampling_radius_m":50,"sampling_scale_m":10,"sampling_utm_zone":31,"site_id":"Norway_target_15","source_aef_utm_zones":"31N|32N","source_geom_type":"Point","source_id":"15","year":2024}},{"type":"Feature","geometry":{"type":"Polygon","coordinates":[[[5.72100924231902,59.70019079626003],[5.720760146287671,59.70017288828092],[5.720530879047642,59.70012058987354],[5.720339690785264,59.70003806413853],[5.720201800206653,59.69993188031831],[5.720128183091112,59.69981049082498],[5.720124698716093,59.69968355837203],[5.720191623659978,59.699561186788145],[5.720323630029192,59.699453116750774],[5.720510209766988,59.69936795045948],[5.720736511203903,59.69931246695579],[5.720984521226408,59.69929108257221],[5.72123449897069,59.69930549944052],[5.721466546966367,59.69935457002229],[5.721662194738581,59.69943438843915],[5.721805868887542,59.69953860133711],[5.721886132680313,59.699658913553506],[5.721896596499213,59.69978574835461],[5.7218364266487844,59.699909009706595],[5.7217104119599504,59.70001888591466],[5.72152858281414,59.700106630662454],[5.7213054128459655,59.70016525927193],[5.721058666831101,59.70019010474494],[5.72100924231902,59.70019079626003]]]},"id":"0_16","properties":{"aef_dataset_versions":"1.0","aef_model_versions":"2.1","aef_processing_versions":"1.01","centroid_lat":59.69974085296244,"centroid_lon":5.7210092423190195,"class":"target","nominal_sampled_area_m2":7800,"pixel_count":78,"poly_id":"Norway_target_16","rad":50,"region":"Norway","sampling_crs":"EPSG:32632","sampling_radius_m":50,"sampling_scale_m":10,"sampling_utm_zone":31,"site_id":"Norway_target_16","source_aef_utm_zones":"31N|32N","source_geom_type":"Point","source_id":"16","year":2024}},{"type":"Feature","geometry":{"type":"Polygon","coordinates":[[[5.684533853718257,59.7621271553026],[5.684284295881328,59.7621092473229],[5.684054603598688,59.762056948913944],[5.683863060892295,59.761974423176866],[5.683724914682532,59.76186823935472],[5.683651161095591,59.761746849860224],[5.683647670269244,59.76161991740721],[5.683714719292023,59.761497545824405],[5.683846970390767,59.76138947578889],[5.684033896026741,59.761304309499714],[5.684260616997323,59.761248825997654],[5.6845090867961945,59.76122744161478],[5.684759527964531,59.76124185848262],[5.68499200614669,59.761290929062866],[5.685188016627341,59.7613707474777],[5.685331957135809,59.761474960373675],[5.685412369735764,59.761595272588806],[5.685422852961782,59.76172210738975],[5.685362571570228,59.76184536874271],[5.685236323267705,59.76195524495259],[5.685054157029609,59.76204298970248],[5.684830573323243,59.76210161831367],[5.6845833698597845,59.762126463787496],[5.684533853718257,59.7621271553026]]]},"id":"0_17","properties":{"aef_dataset_versions":"1.0","aef_model_versions":"2.1","aef_processing_versions":"1.01","centroid_lat":59.76167721200501,"centroid_lon":5.684533853718259,"class":"target","nominal_sampled_area_m2":7800,"pixel_count":78,"poly_id":"Norway_target_17","rad":50,"region":"Norway","sampling_crs":"EPSG:32632","sampling_radius_m":50,"sampling_scale_m":10,"sampling_utm_zone":31,"site_id":"Norway_target_17","source_aef_utm_zones":"31N|32N","source_geom_type":"Point","source_id":"17","year":2024}},{"type":"Feature","geometry":{"type":"Polygon","coordinates":[[[5.905311949075367,59.778175927710656],[5.905062271249594,59.7781580197308],[5.904832468530064,59.77810572132145],[5.9046408337301,59.77802319558383],[5.90450262110086,59.77791701176119],[5.90442883205518,59.77779562226637],[5.90442533955262,59.77766868981334],[5.904492420814256,59.77754631823083],[5.90462473549996,59.7774382481958],[5.9048117510090785,59.77735308190716],[5.90503858098518,59.77729759840553],[5.905287170245647,59.77727621402285],[5.9055377318233395,59.77729063089055],[5.905770321778888,59.77733970147042],[5.905966426500419,59.77741951988471],[5.906110436215866,59.77752373278018],[5.9061908874797195,59.777644044994986],[5.906201375748203,59.77777087979588],[5.906141065375431,59.77789414114909],[5.906014756374129,59.77800401735945],[5.90583250255088,59.77809176210989],[5.905608811344802,59.77815039072152],[5.905361489024558,59.77817523619555],[5.905311949075367,59.778175927710656]]]},"id":"0_18","properties":{"aef_dataset_versions":"1.0","aef_model_versions":"2.1","aef_processing_versions":"1.01","centroid_lat":59.77772598441308,"centroid_lon":5.905311949075367,"class":"target","nominal_sampled_area_m2":7900,"pixel_count":79,"poly_id":"Norway_target_18","rad":50,"region":"Norway","sampling_crs":"EPSG:32632","sampling_radius_m":50,"sampling_scale_m":10,"sampling_utm_zone":31,"site_id":"Norway_target_18","source_aef_utm_zones":"31N|32N","source_geom_type":"Point","source_id":"18","year":2024}},{"type":"Feature","geometry":{"type":"Polygon","coordinates":[[[5.902071840585378,59.77411456259444],[5.901822193137207,59.774096654614624],[5.901592418377007,59.774044356205366],[5.901400806892391,59.773961830467876],[5.901262611078583,59.773855646645366],[5.901188831010001,59.77373425715062],[5.901185338931807,59.77360732469761],[5.901252412031525,59.77348495311502],[5.901384710618906,59.77337688307988],[5.901571703374821,59.773291716791086],[5.9017985057539715,59.77323623328935],[5.902047064770321,59.77321484890662],[5.902297595863952,59.773229265774354],[5.9025301575218085,59.77327833635432],[5.902726238384356,59.77335815476875],[5.902870230578658,59.77346236766436],[5.902950672053962,59.77358267987924],[5.9029611590458435,59.77370951468015],[5.902900856010253,59.77383277603329],[5.902774562376075,59.773942652243534],[5.902592330726775,59.77403039699382],[5.902368666736424,59.774089025605356],[5.9021213745071766,59.77411387107932],[5.902071840585378,59.77411456259444]]]},"id":"0_19","properties":{"aef_dataset_versions":"1.0","aef_model_versions":"2.1","aef_processing_versions":"1.01","centroid_lat":59.77366461929685,"centroid_lon":5.902071840585378,"class":"target","nominal_sampled_area_m2":8000,"pixel_count":80,"poly_id":"Norway_target_19","rad":50,"region":"Norway","sampling_crs":"EPSG:32632","sampling_radius_m":50,"sampling_scale_m":10,"sampling_utm_zone":31,"site_id":"Norway_target_19","source_aef_utm_zones":"31N|32N","source_geom_type":"Point","source_id":"19","year":2024}},{"type":"Feature","geometry":{"type":"Polygon","coordinates":[[[5.347986047336239,59.094854714747804],[5.3477413615204705,59.09483680677431],[5.347516153412145,59.09478450838205],[5.3473283500695805,59.0947019826669],[5.347192900754324,59.094595798865136],[5.347120586933893,59.09447440938307],[5.347117164169958,59.094347476930665],[5.347182904168639,59.09422510533648],[5.3473125733854525,59.09411703528112],[5.347495849815364,59.09403186896983],[5.347718144729025,59.0939763854503],[5.347961763912393,59.093955001060046],[5.348207315982274,59.0939694179329],[5.348435255720811,59.094018488529],[5.348627439647988,59.09409830696554],[5.3487685700793834,59.09420251988235],[5.348847412773103,59.09432283211092],[5.348857691256429,59.09444966691372],[5.348798586618491,59.09457292825635],[5.348674802927628,59.094682804446975],[5.348496192993774,59.09477054917467],[5.348276974200843,59.09482917776765],[5.348034596792623,59.09485402323294],[5.347986047336239,59.094854714747804]]]},"id":"1_0","properties":{"aef_dataset_versions":"1.0","aef_model_versions":"2.1","aef_processing_versions":"1.01","centroid_lat":59.09440477145023,"centroid_lon":5.3479860473362395,"class":"ocean","nominal_sampled_area_m2":7700,"pixel_count":77,"poly_id":"Norway_ocean_0","rad":50,"region":"Norway","sampling_crs":"EPSG:32632","sampling_radius_m":50,"sampling_scale_m":10,"sampling_utm_zone":31,"site_id":"Norway_ocean_0","source_aef_utm_zones":"31N|32N","source_geom_type":"Point","source_id":"0","year":2024}},{"type":"Feature","geometry":{"type":"Polygon","coordinates":[[[5.355316908129969,59.22213653145956],[5.355071310276895,59.222118623484896],[5.354845262735741,59.2220663250895],[5.354656759388021,59.22198379937023],[5.354520805216709,59.22187761556465],[5.354448221873241,59.22175622608023],[5.354444786367875,59.22162929362772],[5.354510771414378,59.22150692203567],[5.354640923956824,59.22139885198405],[5.354824883514501,59.2213136856769],[5.355048006981748,59.221258202160655],[5.355292534195716,59.22123681777178],[5.3555390015001745,59.22125123464368],[5.355767790830995,59.221300305236824],[5.35596069108522,59.221380123669285],[5.356102347560173,59.22148433658218],[5.356181484138607,59.22160464880823],[5.356191800949343,59.221731483610675],[5.356132476024108,59.22185474495525],[5.3560082309602866,59.22196462114949],[5.355828955289826,59.222052365881346],[5.355608919389567,59.22211099447776],[5.3553656385488075,59.222135839944656],[5.355316908129969,59.22213653145956]]]},"id":"1_1","properties":{"aef_dataset_versions":"1.0","aef_model_versions":"2.1","aef_processing_versions":"1.01","centroid_lat":59.22168658816198,"centroid_lon":5.355316908129968,"class":"ocean","nominal_sampled_area_m2":7800,"pixel_count":78,"poly_id":"Norway_ocean_1","rad":50,"region":"Norway","sampling_crs":"EPSG:32632","sampling_radius_m":50,"sampling_scale_m":10,"sampling_utm_zone":31,"site_id":"Norway_ocean_1","source_aef_utm_zones":"31N|32N","source_geom_type":"Point","source_id":"1","year":2024}},{"type":"Feature","geometry":{"type":"Polygon","coordinates":[[[5.147138873127025,59.276639897740395],[5.146892882275866,59.27662198976522],[5.146666473022001,59.27656969136848],[5.14647766804115,59.27648716564744],[5.146341496326725,59.276380981840205],[5.146268796845457,59.27625959235479],[5.146265355849822,59.27613265990224],[5.146331446487775,59.2760102883111],[5.146461807295873,59.275902218261066],[5.146646061214185,59.27581705195571],[5.1468695417062245,59.27576156844089],[5.147114460191725,59.27574018405261],[5.147361321871914,59.27575460092411],[5.147590477293126,59.27580367151595],[5.147783686213597,59.27588348994667],[5.147925569361409,59.27598770285789],[5.148004832575169,59.27610801508285],[5.14801516590127,59.27623484988515],[5.14795574605398,59.27635811123055],[5.1478313021839694,59.276467987426344],[5.147651739646743,59.27655573215999],[5.147431351653863,59.27661436075788],[5.1471876815228255,59.27663920622547],[5.147138873127025,59.276639897740395]]]},"id":"1_2","properties":{"aef_dataset_versions":"1.0","aef_model_versions":"2.1","aef_processing_versions":"1.01","centroid_lat":59.276189954442806,"centroid_lon":5.147138873127025,"class":"ocean","nominal_sampled_area_m2":7700,"pixel_count":77,"poly_id":"Norway_ocean_2","rad":50,"region":"Norway","sampling_crs":"EPSG:32632","sampling_radius_m":50,"sampling_scale_m":10,"sampling_utm_zone":31,"site_id":"Norway_ocean_2","source_aef_utm_zones":"31N|32N","source_geom_type":"Point","source_id":"2","year":2024}},{"type":"Feature","geometry":{"type":"Polygon","coordinates":[[[5.308157244709055,59.32746897936201],[5.30791088601705,59.32745107138639],[5.3076841382050235,59.327398772988374],[5.3074950508996865,59.32731624726568],[5.307358675567887,59.327210063456896],[5.307285867383241,59.32708867397054],[5.307282421248806,59.326961741517934],[5.307348610718927,59.32683936992766],[5.307479166460835,59.32673129987914],[5.307663695896672,59.32664613357545],[5.3078875105590235,59.326590650061945],[5.308132795269307,59.32656926567422],[5.308380026079774,59.326583682545355],[5.30860952415657,59.326632753136],[5.3088030219844216,59.32671257156507],[5.308945117294937,59.32681678447472],[5.309024499037644,59.32693709669866],[5.3090348478219145,59.32706393150081],[5.308975339128895,59.327187192847],[5.30885070917902,59.327297069044256],[5.3086708781384235,59.32738481377958],[5.308450160591655,59.327443442378836],[5.308206126090227,59.32746828784707],[5.308157244709055,59.32746897936201]]]},"id":"1_3","properties":{"aef_dataset_versions":"1.0","aef_model_versions":"2.1","aef_processing_versions":"1.01","centroid_lat":59.32701903606443,"centroid_lon":5.308157244709054,"class":"ocean","nominal_sampled_area_m2":7900,"pixel_count":79,"poly_id":"Norway_ocean_3","rad":50,"region":"Norway","sampling_crs":"EPSG:32632","sampling_radius_m":50,"sampling_scale_m":10,"sampling_utm_zone":31,"site_id":"Norway_ocean_3","source_aef_utm_zones":"31N|32N","source_geom_type":"Point","source_id":"3","year":2024}},{"type":"Feature","geometry":{"type":"Polygon","coordinates":[[[6.160140917413045,59.47576650239667],[6.159893478087556,59.47574859441966],[6.159665735667995,59.47569629601796],[6.159475818957014,59.475613770290394],[6.159338845443363,59.47550758647709],[6.159265717912802,59.47538619698799],[6.159262256681826,59.47525926453524],[6.159328736498631,59.4751368929475],[6.159459864912123,59.475028822903376],[6.159645203756263,59.474943656604594],[6.159870000135518,59.47488817309495],[6.160116360731485,59.47486678870888],[6.160364675963302,59.47488120557888],[6.160595180684821,59.47493027616603],[6.160789527257332,59.475010094590274],[6.160932245854016,59.475114307495296],[6.161011975808098,59.47523461971626],[6.1610223700050755,59.475361454518],[6.160962600303437,59.475484715866486],[6.160837423692959,59.475594592068],[6.160656803850053,59.47568233680826],[6.160435118148282,59.47574096541156],[6.1601900132087914,59.475765810881676],[6.160140917413045,59.47576650239667]]]},"id":"1_4","properties":{"aef_dataset_versions":"1.0","aef_model_versions":"2.1","aef_processing_versions":"1.01","centroid_lat":59.47531655909909,"centroid_lon":6.160140917413046,"class":"ocean","nominal_sampled_area_m2":7900,"pixel_count":79,"poly_id":"Norway_ocean_4","rad":50,"region":"Norway","sampling_crs":"EPSG:32632","sampling_radius_m":50,"sampling_scale_m":10,"sampling_utm_zone":31,"site_id":"Norway_ocean_4","source_aef_utm_zones":"31N|32N","source_geom_type":"Point","source_id":"4","year":2024}},{"type":"Feature","geometry":{"type":"Polygon","coordinates":[[[6.400493657769743,59.311755313369865],[6.400247412932811,59.31173740539439],[6.400020769912203,59.31168510699677],[6.399831769992687,59.311602581274585],[6.399695457685074,59.311496397466286],[6.399622683146585,59.31137500798022],[6.399619238602723,59.31124807552762],[6.399685397482049,59.31112570393709],[6.3998158928875295,59.3110176338881],[6.400000337044451,59.31093246758389],[6.400224048273526,59.310876984069985],[6.400469219628948,59.31085559968209],[6.400716336185239,59.31087001655333],[6.400945728202373,59.31091908714434],[6.40113913660685,59.31099890557392],[6.401281166248202,59.311103118484056],[6.401360511303517,59.311223430708324],[6.401370855303131,59.31135026551051],[6.401311374109877,59.31147352685646],[6.40118680175593,59.31158340305326],[6.401007053823206,59.311671147788076],[6.400786438280829,59.3117297763869],[6.400542516560291,59.311754621854945],[6.400493657769743,59.311755313369865]]]},"id":"1_5","properties":{"aef_dataset_versions":"1.0","aef_model_versions":"2.1","aef_processing_versions":"1.01","centroid_lat":59.31130537007229,"centroid_lon":6.4004936577697435,"class":"ocean","nominal_sampled_area_m2":7700,"pixel_count":77,"poly_id":"Norway_ocean_5","rad":50,"region":"Norway","sampling_crs":"EPSG:32632","sampling_radius_m":50,"sampling_scale_m":10,"sampling_utm_zone":31,"site_id":"Norway_ocean_5","source_aef_utm_zones":"31N|32N","source_geom_type":"Point","source_id":"5","year":2024}},{"type":"Feature","geometry":{"type":"Polygon","coordinates":[[[6.365818059625212,59.30772495133652],[6.365571843970767,59.30770704336106],[6.365345227809517,59.30765474496355],[6.365156250288085,59.30757221924149],[6.3650199541343655,59.30746603543332],[6.364947188219808,59.30734464594733],[6.36494374408363,59.30721771349474],[6.36500989512215,59.30709534190414],[6.365140375062645,59.30698727185503],[6.365324797361511,59.30690210555069],[6.365548482079336,59.30684662203666],[6.365793624380481,59.30682523764873],[6.366040711651989,59.306839654520005],[6.366270076484699,59.30688872511112],[6.366463461968839,59.306968543540826],[6.36660547477836,59.30707275645109],[6.3666848104302325,59.30719306867541],[6.366695153203481,59.307319903477634],[6.366635679058761,59.307443164823525],[6.3665111214673775,59.307553041020206],[6.366331394836246,59.307640785754884],[6.366110805438877,59.30769941435361],[6.365866912625497,59.30772425982158],[6.365818059625212,59.30772495133652]]]},"id":"1_6","properties":{"aef_dataset_versions":"1.0","aef_model_versions":"2.1","aef_processing_versions":"1.01","centroid_lat":59.30727500803893,"centroid_lon":6.365818059625211,"class":"ocean","nominal_sampled_area_m2":7800,"pixel_count":78,"poly_id":"Norway_ocean_6","rad":50,"region":"Norway","sampling_crs":"EPSG:32632","sampling_radius_m":50,"sampling_scale_m":10,"sampling_utm_zone":31,"site_id":"Norway_ocean_6","source_aef_utm_zones":"31N|32N","source_geom_type":"Point","source_id":"6","year":2024}},{"type":"Feature","geometry":{"type":"Polygon","coordinates":[[[6.012570933684787,59.359567648678535],[6.012324342033196,59.3595497407026],[6.012097379806786,59.35949744230379],[6.011908113700768,59.35941491658006],[6.011771609414787,59.359308732770295],[6.011698732386532,59.35918734328334],[6.011695282997621,59.35906041083071],[6.011761535059765,59.35893803924098],[6.011892214256424,59.3588299691934],[6.012076918181979,59.35874480289077],[6.012300944479806,59.3586893193781],[6.012546461126182,59.35866793499074],[6.012793925712835,59.35868235186161],[6.013023640798969,59.35873142245152],[6.01321732159655,59.35881124087954],[6.01335955127315,59.35891545378819],[6.0134390080821705,59.359035766011495],[6.013449366656358,59.359162600813555],[6.013389801695904,59.35928586216024],[6.013265053898635,59.359395738358415],[6.013085052810497,59.359483483094806],[6.012864126551898,59.35954211169493],[6.0126198612887825,59.359566957163565],[6.012570933684787,59.359567648678535]]]},"id":"1_7","properties":{"aef_dataset_versions":"1.0","aef_model_versions":"2.1","aef_processing_versions":"1.01","centroid_lat":59.35911770538094,"centroid_lon":6.012570933684787,"class":"ocean","nominal_sampled_area_m2":7900,"pixel_count":79,"poly_id":"Norway_ocean_7","rad":50,"region":"Norway","sampling_crs":"EPSG:32632","sampling_radius_m":50,"sampling_scale_m":10,"sampling_utm_zone":31,"site_id":"Norway_ocean_7","source_aef_utm_zones":"31N|32N","source_geom_type":"Point","source_id":"7","year":2024}},{"type":"Feature","geometry":{"type":"Polygon","coordinates":[[[5.903050975188695,59.39437007720179],[5.902804130368747,59.394352169225535],[5.902576935127945,59.39429987082587],[5.902387474710655,59.39421734510098],[5.902250830283983,59.39411116129017],[5.902177878440089,59.393989771802566],[5.902174425514388,59.39386283934991],[5.90224074559829,59.393740467760765],[5.902371558959144,59.39363239771422],[5.9025564525110426,59.39354723141275],[5.902780708803282,59.39349174790098],[5.903026477505721,59.393470363514005],[5.903274196148152,59.39348478038462],[5.903504147068733,59.3935338509737],[5.903698026708288,59.39361366940059],[5.903840402406955,59.39371788230816],[5.903919940794142,59.39383819453076],[5.903930310007511,59.393965029332726],[5.903870683898544,59.39408829067994],[5.903745808030867,59.39419816687913],[5.903565622143913,59.39428591161667],[5.90334446906816,59.394344540217745],[5.903099953025248,59.39436938568683],[5.903050975188695,59.39437007720179]]]},"id":"1_8","properties":{"aef_dataset_versions":"1.0","aef_model_versions":"2.1","aef_processing_versions":"1.01","centroid_lat":59.3939201339042,"centroid_lon":5.903050975188693,"class":"ocean","nominal_sampled_area_m2":8000,"pixel_count":80,"poly_id":"Norway_ocean_8","rad":50,"region":"Norway","sampling_crs":"EPSG:32632","sampling_radius_m":50,"sampling_scale_m":10,"sampling_utm_zone":31,"site_id":"Norway_ocean_8","source_aef_utm_zones":"31N|32N","source_geom_type":"Point","source_id":"8","year":2024}},{"type":"Feature","geometry":{"type":"Polygon","coordinates":[[[5.079648400875532,59.75882507419543],[5.079398867709921,59.75880716621576],[5.079169198134587,59.7587548678069],[5.078977674363871,59.758672342069914],[5.078839541810844,59.75856615824789],[5.078765795514696,59.75844476875344],[5.078762305033002,59.75831783630044],[5.078829347427039,59.75819546471759],[5.078961585451449,59.758087394681965],[5.079148492608295,59.75800222839266],[5.07937519116588,59.75794674489053],[5.079623636401842,59.75792536050761],[5.079874052812397,59.757939777375476],[5.080106508012444,59.75798884795581],[5.0803024991159065,59.758068666370754],[5.080446425394491,59.75817287926683],[5.08052683004463,59.75829319148203],[5.080537312233848,59.75842002628299],[5.080477036801223,59.758543287635895],[5.0803508009791845,59.75865316384568],[5.080168652749771,59.758740908595456],[5.07994509114679,59.758799537206556],[5.079697912121885,59.75882438268034],[5.079648400875532,59.75882507419543]]]},"id":"1_9","properties":{"aef_dataset_versions":"1.0","aef_model_versions":"2.1","aef_processing_versions":"1.01","centroid_lat":59.758375130897846,"centroid_lon":5.079648400875532,"class":"ocean","nominal_sampled_area_m2":7600,"pixel_count":76,"poly_id":"Norway_ocean_9","rad":50,"region":"Norway","sampling_crs":"EPSG:32632","sampling_radius_m":50,"sampling_scale_m":10,"sampling_utm_zone":31,"site_id":"Norway_ocean_9","source_aef_utm_zones":"31N|32N","source_geom_type":"Point","source_id":"9","year":2024}},{"type":"Feature","geometry":{"type":"Polygon","coordinates":[[[5.7290217394617535,59.0214146466488],[5.728777576258594,59.02139673867597],[5.728552849159306,59.021344440285496],[5.728365446931411,59.02126191457271],[5.728230286907147,59.02115573077314],[5.7281581275279665,59.021034341292406],[5.728154712065131,59.02090740884008],[5.728220311647344,59.02078503724467],[5.728349703910498,59.02067696718717],[5.728532588896753,59.02059180087349],[5.728754409035307,59.02053631735208],[5.728997507901892,59.020514932961035],[5.729242535526987,59.020529349834426],[5.729469988434887,59.02057842043223],[5.729661761894661,59.02065823887112],[5.729802590894304,59.020762451790176],[5.7298812651871955,59.02088276402018],[5.729891521708317,59.021009598823184],[5.7298325432987305,59.021132860164705],[5.729709023982322,59.02124273635326],[5.729530795526689,59.021330481078564],[5.729312044949918,59.021389109669585],[5.72907018522363,59.02141395513395],[5.7290217394617535,59.0214146466488]]]},"id":"1_10","properties":{"aef_dataset_versions":"1.0","aef_model_versions":"2.1","aef_processing_versions":"1.01","centroid_lat":59.02096470335121,"centroid_lon":5.729021739461753,"class":"ocean","nominal_sampled_area_m2":7800,"pixel_count":78,"poly_id":"Norway_ocean_10","rad":50,"region":"Norway","sampling_crs":"EPSG:32632","sampling_radius_m":50,"sampling_scale_m":10,"sampling_utm_zone":31,"site_id":"Norway_ocean_10","source_aef_utm_zones":"31N|32N","source_geom_type":"Point","source_id":"10","year":2024}},{"type":"Feature","geometry":{"type":"Polygon","coordinates":[[[5.444338988741531,58.9814747026341],[5.444095108654066,58.98145679466165],[5.443870642132513,58.98140449627215],[5.443683457201064,58.98132197056065],[5.443548453894845,58.98121578676226],[5.443476378181366,58.981094397282256],[5.44347296667378,58.980967464829966],[5.44353849018798,58.98084509323388],[5.443667732416619,58.98073702317522],[5.443850405345521,58.98065185686026],[5.4440719682834375,58.98059637333783],[5.4443147852780225,58.98057498894636],[5.4445595287948505,58.980589405820034],[5.4447867179712555,58.98063847641877],[5.444978269067907,58.98071829485893],[5.4451189347724815,58.980822507779195],[5.4451975178373555,58.98094282000999],[5.44520776246087,58.981069654813076],[5.445148852433169,58.98119291615402],[5.445025476336734,58.98130279234144],[5.444847454539867,58.981390537065444],[5.444628957610524,58.98144916565541],[5.444387378328831,58.98147401111929],[5.444338988741531,58.9814747026341]]]},"id":"1_11","properties":{"aef_dataset_versions":"1.0","aef_model_versions":"2.1","aef_processing_versions":"1.01","centroid_lat":58.98102475933653,"centroid_lon":5.4443389887415305,"class":"ocean","nominal_sampled_area_m2":7700,"pixel_count":77,"poly_id":"Norway_ocean_11","rad":50,"region":"Norway","sampling_crs":"EPSG:32632","sampling_radius_m":50,"sampling_scale_m":10,"sampling_utm_zone":31,"site_id":"Norway_ocean_11","source_aef_utm_zones":"31N|32N","source_geom_type":"Point","source_id":"11","year":2024}},{"type":"Feature","geometry":{"type":"Polygon","coordinates":[[[5.511115264376298,59.014189680789926],[5.510871152445041,59.01417177281716],[5.510646472536059,59.01411947442688],[5.510459109660282,59.01403694871432],[5.510323978017462,59.01393076491497],[5.510251833790037,59.01380937543434],[5.510248419043491,59.01368244298203],[5.51031400484988,59.01356007138649],[5.510443369941967,59.01345200132879],[5.510626216524899,59.013366835014885],[5.510847990084735,59.01331135149329],[5.511091037904649,59.01328996710216],[5.511336014078092,59.0133043839756],[5.511563419224544,59.01335345457358],[5.511755152414629,59.0134332730127],[5.511895951841738,59.01353748593197],[5.5119746096133495,59.01365779816213],[5.511984863979826,59.013784632965134],[5.5119258979541135,59.013907894306556],[5.511802404574665,59.014017770494895],[5.511624213544681,59.01410551521997],[5.5114055089031435,59.014164143810795],[5.511163699965027,59.014188989275084],[5.511115264376298,59.014189680789926]]]},"id":"1_12","properties":{"aef_dataset_versions":"1.0","aef_model_versions":"2.1","aef_processing_versions":"1.01","centroid_lat":59.01373973749233,"centroid_lon":5.511115264376297,"class":"ocean","nominal_sampled_area_m2":7700,"pixel_count":77,"poly_id":"Norway_ocean_12","rad":50,"region":"Norway","sampling_crs":"EPSG:32632","sampling_radius_m":50,"sampling_scale_m":10,"sampling_utm_zone":31,"site_id":"Norway_ocean_12","source_aef_utm_zones":"31N|32N","source_geom_type":"Point","source_id":"12","year":2024}},{"type":"Feature","geometry":{"type":"Polygon","coordinates":[[[5.246827833383839,60.1836133928041],[5.246575078919035,60.183595484820344],[5.2463424444827265,60.18354318640051],[5.246148448307874,60.1834606606491],[5.246008532614593,60.18335447681367],[5.245933834370554,60.18323308731105],[5.2459302988887035,60.18310615485763],[5.245998206788593,60.182983783282275],[5.246132151910212,60.18287571325972],[5.246321471860012,60.18279054698495],[5.246551096850349,60.18273506349429],[5.24680274922949,60.18271367911623],[5.247056398227445,60.18272809598079],[5.247291854168296,60.18277716655072],[5.247490375323641,60.182856984951364],[5.247636159578032,60.182961197833755],[5.247717602224767,60.183081510040125],[5.247728219787928,60.183208344839855],[5.247667166307161,60.18333160619955],[5.2475393009264995,60.183441482422005],[5.247354801329012,60.18352922718637],[5.247128353718462,60.18358785580945],[5.246877983786309,60.18361270128883],[5.246827833383839,60.1836133928041]]]},"id":"1_13","properties":{"aef_dataset_versions":"1.0","aef_model_versions":"2.1","aef_processing_versions":"1.01","centroid_lat":60.18316344950651,"centroid_lon":5.246827833383838,"class":"ocean","nominal_sampled_area_m2":7900,"pixel_count":79,"poly_id":"Norway_ocean_13","rad":50,"region":"Norway","sampling_crs":"EPSG:32632","sampling_radius_m":50,"sampling_scale_m":10,"sampling_utm_zone":31,"site_id":"Norway_ocean_13","source_aef_utm_zones":"31N|32N","source_geom_type":"Point","source_id":"13","year":2024}},{"type":"Feature","geometry":{"type":"Polygon","coordinates":[[[6.274049513071337,60.33961182597985],[6.273795551112856,60.33959391799457],[6.273561805307985,60.339541619570646],[6.273366882360552,60.33945909381384],[6.273226298263161,60.33935290997341],[6.273151243184864,60.33923152046772],[6.2731476908351755,60.33910458801416],[6.273215923167352,60.3389822164416],[6.273350508188869,60.33887414642392],[6.273540732566113,60.33878898015458],[6.27377145451991,60.33873349666822],[6.274024309085781,60.33871211229197],[6.274279169808142,60.33872652915531],[6.27451575056655,60.33877559972134],[6.274715220103425,60.33885541811664],[6.274861700814027,60.33895963099391],[6.274943532550615,60.33907994319697],[6.274954200858572,60.33920677799626],[6.274892855729313,60.33933003935849],[6.27476437951414,60.33943991558567],[6.274578998514078,60.3395276603555],[6.274351469092932,60.33958628898305],[6.274099903059433,60.339611134464526],[6.274049513071337,60.33961182597985]]]},"id":"1_14","properties":{"aef_dataset_versions":"1.0","aef_model_versions":"2.1","aef_processing_versions":"1.01","centroid_lat":60.33916188268227,"centroid_lon":6.274049513071338,"class":"ocean","nominal_sampled_area_m2":7700,"pixel_count":77,"poly_id":"Norway_ocean_14","rad":50,"region":"Norway","sampling_crs":"EPSG:32632","sampling_radius_m":50,"sampling_scale_m":10,"sampling_utm_zone":31,"site_id":"Norway_ocean_14","source_aef_utm_zones":"31N|32N","source_geom_type":"Point","source_id":"14","year":2024}},{"type":"Feature","geometry":{"type":"Polygon","coordinates":[[[6.025483839243212,60.18702741545578],[6.025231058495368,60.18700950747199],[6.024998399868336,60.18695720905207],[6.024804383520787,60.18687468330055],[6.024664453278613,60.18676849946501],[6.024589747267502,60.186647109962315],[6.0245862114184945,60.18652017750891],[6.024654126380172,60.1863978059336],[6.024788085430242,60.186289735911146],[6.0249774250663615,60.1862045696365],[6.025207073933873,60.18614908614593],[6.025458752480544,60.186127701767916],[6.025712427853634,60.186142118632446],[6.02594790827795,60.18619118920229],[6.026146450076346,60.18627100760282],[6.026292249490226,60.18637522048511],[6.0263737006061255,60.1864955326914],[6.026384319273826,60.18662236749113],[6.02632325944486,60.18674562885088],[6.026195380768401,60.186855505073424],[6.026010861985769,60.186943249837924],[6.02578439082787,60.18700187846108],[6.025533994860648,60.18702672394052],[6.025483839243212,60.18702741545578]]]},"id":"1_15","properties":{"aef_dataset_versions":"1.0","aef_model_versions":"2.1","aef_processing_versions":"1.01","centroid_lat":60.1865774721582,"centroid_lon":6.025483839243213,"class":"ocean","nominal_sampled_area_m2":7900,"pixel_count":79,"poly_id":"Norway_ocean_15","rad":50,"region":"Norway","sampling_crs":"EPSG:32632","sampling_radius_m":50,"sampling_scale_m":10,"sampling_utm_zone":31,"site_id":"Norway_ocean_15","source_aef_utm_zones":"31N|32N","source_geom_type":"Point","source_id":"15","year":2024}},{"type":"Feature","geometry":{"type":"Polygon","coordinates":[[[5.485877238739452,60.447564835847444],[5.485622433292241,60.447546927861104],[5.485387911146388,60.44749462943431],[5.485192340806621,60.44741210367374],[5.485051289798946,60.44730591982982],[5.484975985455962,60.44718453032201],[5.484972421323432,60.44705759786835],[5.485040880286238,60.44693522629774],[5.485175912306656,60.446827156283454],[5.4853667684671255,60.446741990017905],[5.4855982566991575,60.44668650653455],[5.485851951046418,60.44666512215956],[5.486107658212658,60.44667953902203],[5.486345024706638,60.44672860958534],[5.4865451567306325,60.44680842797693],[5.486692123947248,60.446912640850634],[5.486774227480678,60.44703295305139],[5.48678493123626,60.44715978785036],[5.486723382377508,60.44728304921435],[5.486594479467015,60.44739292544484],[5.486408482767619,60.44748067021847],[5.4861801976530655,60.44753929884914],[5.485927796088898,60.447564144332084],[5.485877238739452,60.447564835847444]]]},"id":"1_16","properties":{"aef_dataset_versions":"1.0","aef_model_versions":"2.1","aef_processing_versions":"1.01","centroid_lat":60.44711489254987,"centroid_lon":5.485877238739452,"class":"ocean","nominal_sampled_area_m2":7600,"pixel_count":76,"poly_id":"Norway_ocean_16","rad":50,"region":"Norway","sampling_crs":"EPSG:32632","sampling_radius_m":50,"sampling_scale_m":10,"sampling_utm_zone":31,"site_id":"Norway_ocean_16","source_aef_utm_zones":"31N|32N","source_geom_type":"Point","source_id":"16","year":2024}},{"type":"Feature","geometry":{"type":"Polygon","coordinates":[[[5.278510295380077,60.41079814716987],[5.278255777938627,60.41078023918389],[5.278021520871212,60.410727940758086],[5.277826171580893,60.410645414998804],[5.277685279997807,60.410539231156065],[5.277610060765215,60.41041784164898],[5.277606500655879,60.41029090919535],[5.277674882236583,60.41016853762408],[5.277809761631062,60.41006046760864],[5.278000402071752,60.40997530134179],[5.278231628661243,60.40991981785741],[5.278485036268615,60.40989843348199],[5.278740454420087,60.40991285034476],[5.2789775526279,60.409961920909005],[5.279177458448398,60.410041739301846],[5.279324259549537,60.41014595217677],[5.279406270279046,60.41026626437832],[5.279416961931173,60.41039309917739],[5.279355482635009,60.41051636054078],[5.279226725417871,60.41062623677015],[5.279040938946476,60.410713981542486],[5.2788129118603315,60.41077261017208],[5.278560795584677,60.410797455654524],[5.278510295380077,60.41079814716987]]]},"id":"1_17","properties":{"aef_dataset_versions":"1.0","aef_model_versions":"2.1","aef_processing_versions":"1.01","centroid_lat":60.410348203872296,"centroid_lon":5.278510295380077,"class":"ocean","nominal_sampled_area_m2":7800,"pixel_count":78,"poly_id":"Norway_ocean_17","rad":50,"region":"Norway","sampling_crs":"EPSG:32632","sampling_radius_m":50,"sampling_scale_m":10,"sampling_utm_zone":31,"site_id":"Norway_ocean_17","source_aef_utm_zones":"31N|32N","source_geom_type":"Point","source_id":"17","year":2024}},{"type":"Feature","geometry":{"type":"Polygon","coordinates":[[[5.857820962587554,59.00312727758243],[5.857576929111307,59.00310936960976],[5.857352321411776,59.003057071219736],[5.857165018751648,59.002974545507556],[5.857029930537421,59.00286836170853],[5.8569578094948405,59.00274697222811],[5.856954395844346,59.00262003977581],[5.857019960571305,59.002497668180084],[5.857149284086895,59.00238959812206],[5.857332071905997,59.0023044318078],[5.85755377419222,59.00224894828592],[5.857796743901767,59.002227563894685],[5.858041641345144,59.0022419807682],[5.858268973408197,59.002291051366434],[5.858460644978593,59.002370869805894],[5.858601399154532,59.00247508272551],[5.85868003164568,59.002595394955875],[5.85869028271518,59.00272222975892],[5.858631335638968,59.00284549110017],[5.858507881947622,59.0029553672882],[5.858329748185447,59.00304311201292],[5.858111113832885,59.00310174060346],[5.857869382609582,59.00312658606761],[5.857820962587554,59.00312727758243]]]},"id":"1_18","properties":{"aef_dataset_versions":"1.0","aef_model_versions":"2.1","aef_processing_versions":"1.01","centroid_lat":59.00267733428484,"centroid_lon":5.857820962587553,"class":"ocean","nominal_sampled_area_m2":7900,"pixel_count":79,"poly_id":"Norway_ocean_18","rad":50,"region":"Norway","sampling_crs":"EPSG:32632","sampling_radius_m":50,"sampling_scale_m":10,"sampling_utm_zone":31,"site_id":"Norway_ocean_18","source_aef_utm_zones":"31N|32N","source_geom_type":"Point","source_id":"18","year":2024}},{"type":"Feature","geometry":{"type":"Polygon","coordinates":[[[5.774050210634427,58.95305351679167],[5.773806531539982,58.95303560881948],[5.773582250011023,58.952983310430675],[5.773395219345378,58.95290078472008],[5.773260327298394,58.95279460092254],[5.7731883109819195,58.95267321144304],[5.773184902282297,58.95254627899077],[5.773250371793352,58.95242390739422],[5.773379507507619,58.95231583733475],[5.773562029890114,58.95223067101886],[5.773783410232943,58.95217518749572],[5.774026027117434,58.95215380310393],[5.774270568936569,58.95216821997782],[5.774497570881412,58.9522172905772],[5.774688964115259,58.95229710901827],[5.774829513891363,58.9524013219394],[5.774908032190507,58.95252163417075],[5.774918268367532,58.95264846897392],[5.774859406886356,58.952771730314424],[5.774736132466437,58.952881606501045],[5.77455825738334,58.952969351224134],[5.774339940526543,58.95302797981335],[5.774098560341569,58.95305282527687],[5.774050210634427,58.95305351679167]]]},"id":"1_19","properties":{"aef_dataset_versions":"1.0","aef_model_versions":"2.1","aef_processing_versions":"1.01","centroid_lat":58.952603573494095,"centroid_lon":5.774050210634426,"class":"ocean","nominal_sampled_area_m2":7900,"pixel_count":79,"poly_id":"Norway_ocean_19","rad":50,"region":"Norway","sampling_crs":"EPSG:32632","sampling_radius_m":50,"sampling_scale_m":10,"sampling_utm_zone":31,"site_id":"Norway_ocean_19","source_aef_utm_zones":"31N|32N","source_geom_type":"Point","source_id":"19","year":2024}},{"type":"Feature","geometry":{"type":"Polygon","coordinates":[[[5.497978124359589,59.754804024754094],[5.497728621229322,59.75478611677446],[5.4974989792983076,59.7547338183657],[5.497307478580256,59.75465129262885],[5.4971693626532065,59.754545108806944],[5.497095625233012,59.75442371931258],[5.497092135170906,59.75429678685957],[5.497159169494983,59.754174415276644],[5.497291391602444,59.75406634524091],[5.497478276262441,59.753981178951484],[5.497704947534,59.75392569544923],[5.497953362866598,59.75390431106628],[5.498203749136546,59.753918727934156],[5.498436176357721,59.753967798514594],[5.498632143871011,59.75404761692967],[5.498776052825855,59.75415182982587],[5.498856447797733,59.75427214204116],[5.498866928724731,59.754398976842126],[5.498806660546622,59.754522238194966],[5.49868043991857,59.754632114404636],[5.49849831361328,59.75471985915427],[5.498274778919392,59.75477848776527],[5.498027629646459,59.754803333238996],[5.497978124359589,59.754804024754094]]]},"id":"2_0","properties":{"aef_dataset_versions":"1.0","aef_model_versions":"2.1","aef_processing_versions":"1.01","centroid_lat":59.75435408145651,"centroid_lon":5.497978124359588,"class":"confounding_marine","nominal_sampled_area_m2":7900,"pixel_count":79,"poly_id":"Norway_confounding_marine_0","rad":50,"region":"Norway","sampling_crs":"EPSG:32632","sampling_radius_m":50,"sampling_scale_m":10,"sampling_utm_zone":31,"site_id":"Norway_confounding_marine_0","source_aef_utm_zones":"31N|32N","source_geom_type":"Point","source_id":"0","year":2024}},{"type":"Feature","geometry":{"type":"Polygon","coordinates":[[[5.607550205553402,59.789304820586075],[5.607300444443043,59.789286912606116],[5.6070705650689705,59.789234614196474],[5.6068788663466025,59.78915208845848],[5.606740607615425,59.7890459046355],[5.606666793957738,59.78892451514048],[5.606663300291714,59.78879758268744],[5.606730403930429,59.788675211105115],[5.606862762752017,59.78856714107043],[5.607049840642332,59.78848197478216],[5.607276746279459,59.78842649128082],[5.607525418458542,59.78840510689825],[5.607776063612697,59.788419523765874],[5.608008731150459,59.788468594345474],[5.608204901284841,59.788548412759404],[5.608348959037041,59.78865262565453],[5.608429437137609,59.788772937869105],[5.608439928906085,59.788899772669964],[5.608379598417369,59.789023034023344],[5.608253247284882,59.78913291023404],[5.6080709326685385,59.789220654984845],[5.607847166846619,59.7892792835968],[5.6075997620275535,59.78930412907097],[5.607550205553402,59.789304820586075]]]},"id":"2_1","properties":{"aef_dataset_versions":"1.0","aef_model_versions":"2.1","aef_processing_versions":"1.01","centroid_lat":59.7888548772885,"centroid_lon":5.6075502055534,"class":"confounding_marine","nominal_sampled_area_m2":8000,"pixel_count":80,"poly_id":"Norway_confounding_marine_1","rad":50,"region":"Norway","sampling_crs":"EPSG:32632","sampling_radius_m":50,"sampling_scale_m":10,"sampling_utm_zone":31,"site_id":"Norway_confounding_marine_1","source_aef_utm_zones":"31N|32N","source_geom_type":"Point","source_id":"1","year":2024}},{"type":"Feature","geometry":{"type":"Polygon","coordinates":[[[5.116931119096049,59.62923785042895],[5.1166825496468595,59.62921994245051],[5.116453767069351,59.62916764404494],[5.116262982968182,59.62908511831228],[5.116125383877638,59.62897893449428],[5.116051922376111,59.62885754500228],[5.116048445357366,59.6287306125494],[5.116115228818071,59.62860824096429],[5.116246956130015,59.62850017092477],[5.116433141451138,59.6284150046311],[5.116658964507165,59.6283595211255],[5.116906450261306,59.62833813674116],[5.117155899577876,59.62835255361],[5.117387457045594,59.62840162419346],[5.117582691232931,59.628481442612674],[5.1177260616606475,59.62858565551288],[5.117806155773352,59.62870596773072],[5.117816597462966,59.62883280253204],[5.117756554799356,59.6289560638829],[5.117630806492782,59.6290659400889],[5.117449361722564,59.6291536848343],[5.117226663526841,59.62921231344181],[5.116980439126001,59.6292371589139],[5.116931119096049,59.62923785042895]]]},"id":"2_2","properties":{"aef_dataset_versions":"1.0","aef_model_versions":"2.1","aef_processing_versions":"1.01","centroid_lat":59.628787907131375,"centroid_lon":5.116931119096049,"class":"confounding_marine","nominal_sampled_area_m2":7700,"pixel_count":77,"poly_id":"Norway_confounding_marine_2","rad":50,"region":"Norway","sampling_crs":"EPSG:32632","sampling_radius_m":50,"sampling_scale_m":10,"sampling_utm_zone":31,"site_id":"Norway_confounding_marine_2","source_aef_utm_zones":"31N|32N","source_geom_type":"Point","source_id":"2","year":2024}},{"type":"Feature","geometry":{"type":"Polygon","coordinates":[[[5.728443906582846,58.97992456979871],[5.728200037467928,58.97990666182626],[5.727975581045431,58.97985436343679],[5.727788404535613,58.97977183772536],[5.727653407303225,58.97966565392702],[5.727581334832329,58.97954426444704],[5.727577923478033,58.97941733199475],[5.7276434440441095,58.97929496039864],[5.727772680457951,58.97918689033993],[5.7279553451682705,58.97910172402492],[5.728176898138013,58.97904624050246],[5.728419704208251,58.97902485611096],[5.728664436714063,58.97903927298466],[5.728891615669181,58.97908834358343],[5.7290831581478345,58.979168162023626],[5.729223817523679,58.979272374943946],[5.729302397052882,58.97939268717477],[5.72931264121529,58.97951952197788],[5.729253733837823,58.97964278331878],[5.729130363292081,58.97975265950615],[5.728952349504567,58.97984040423012],[5.728733862405687,58.97989903282003],[5.728492293993019,58.979923878283884],[5.728443906582846,58.97992456979871]]]},"id":"2_3","properties":{"aef_dataset_versions":"1.0","aef_model_versions":"2.1","aef_processing_versions":"1.01","centroid_lat":58.97947462650114,"centroid_lon":5.7284439065828465,"class":"confounding_marine","nominal_sampled_area_m2":8000,"pixel_count":80,"poly_id":"Norway_confounding_marine_3","rad":50,"region":"Norway","sampling_crs":"EPSG:32632","sampling_radius_m":50,"sampling_scale_m":10,"sampling_utm_zone":31,"site_id":"Norway_confounding_marine_3","source_aef_utm_zones":"31N|32N","source_geom_type":"Point","source_id":"3","year":2024}},{"type":"Feature","geometry":{"type":"Polygon","coordinates":[[[5.632309669652806,59.87660472474625],[5.632059252960892,59.87658681676547],[5.6318287701941765,59.87653451835359],[5.631636568301316,59.87645199261264],[5.631497946674907,59.87634580878693],[5.6314239392817935,59.87622441929023],[5.631420436457495,59.87609748683711],[5.631487716239274,59.875975115256324],[5.631620422480145,59.87586704522429],[5.631807991409227,59.87578187893898],[5.632035492618397,59.875726395440005],[5.632284817498237,59.87570501105842],[5.632536120531424,59.875719427925375],[5.6327693987640135,59.87576849850285],[5.632966083801082,59.87584831691386],[5.633110519678582,59.87595252980619],[5.633191209026617,59.87607284201896],[5.6332017283455915,59.87619967681958],[5.633141239512595,59.87632293817435],[5.633014556740983,59.876432814387606],[5.632831763586751,59.8765205591414],[5.632607410420006,59.87657918775579],[5.632359356204587,59.876604033231104],[5.632309669652806,59.87660472474625]]]},"id":"2_4","properties":{"aef_dataset_versions":"1.0","aef_model_versions":"2.1","aef_processing_versions":"1.01","centroid_lat":59.87615478144867,"centroid_lon":5.632309669652806,"class":"confounding_marine","nominal_sampled_area_m2":7900,"pixel_count":79,"poly_id":"Norway_confounding_marine_4","rad":50,"region":"Norway","sampling_crs":"EPSG:32632","sampling_radius_m":50,"sampling_scale_m":10,"sampling_utm_zone":31,"site_id":"Norway_confounding_marine_4","source_aef_utm_zones":"31N|32N","source_geom_type":"Point","source_id":"4","year":2024}},{"type":"Feature","geometry":{"type":"Polygon","coordinates":[[[5.393785281722845,59.01289806779923],[5.393541178954831,59.01288015982648],[5.393316507479634,59.012827861436215],[5.393129151636812,59.012745335723714],[5.392994025066284,59.0126391519244],[5.392921883546758,59.0125177624438],[5.392918468928227,59.01239082999148],[5.392984052272619,59.01226845839594],[5.393113412508734,59.01216038833818],[5.393296252228278,59.01207522202424],[5.3935180174636335,59.01201973850261],[5.393761056160558,59.011998354111476],[5.3940060231386315,59.012012770984924],[5.394233419749225,59.01206184158293],[5.394425145742372,59.01214166002209],[5.394565939884317,59.0122458729414],[5.394644594703269,59.01236618517157],[5.394654848684672,59.012493019974585],[5.394595884872188,59.012616281315985],[5.3944723961281555,59.0127261575043],[5.394294211786829,59.01281390222933],[5.394075515354773,59.012872530820125],[5.393833715493447,59.0128973762844],[5.393785281722845,59.01289806779923]]]},"id":"2_5","properties":{"aef_dataset_versions":"1.0","aef_model_versions":"2.1","aef_processing_versions":"1.01","centroid_lat":59.012448124501645,"centroid_lon":5.393785281722846,"class":"confounding_marine","nominal_sampled_area_m2":7800,"pixel_count":78,"poly_id":"Norway_confounding_marine_5","rad":50,"region":"Norway","sampling_crs":"EPSG:32632","sampling_radius_m":50,"sampling_scale_m":10,"sampling_utm_zone":31,"site_id":"Norway_confounding_marine_5","source_aef_utm_zones":"31N|32N","source_geom_type":"Point","source_id":"5","year":2024}},{"type":"Feature","geometry":{"type":"Polygon","coordinates":[[[5.366920276229683,59.00699818540902],[5.366676215307574,59.00698027743632],[5.366451582347058,59.006927979046196],[5.36626425862173,59.00684545333389],[5.366129155214908,59.00673926953475],[5.366057026061588,59.006617880054264],[5.366053612027663,59.00649094760196],[5.366119184128825,59.006368576006295],[5.366248522189093,59.00626050594839],[5.366431330565506,59.00617533963424],[5.36665305778533,59.00611985611248],[5.366896054820175,59.006098471721266],[5.3671409798056375,59.00611288859476],[5.3673683374354075,59.00616195919291],[5.367560030562179,59.00624177763224],[5.3677008005683025,59.00634599055174],[5.367779441903299,59.00646630278204],[5.367789694126177,59.006593137585064],[5.367730740420874,59.00671639892637],[5.367607272845467,59.00682627511452],[5.367429119049332,59.00691401983935],[5.367210460107624,59.00697264842999],[5.366968701697402,59.00699749389419],[5.366920276229683,59.00699818540902]]]},"id":"2_6","properties":{"aef_dataset_versions":"1.0","aef_model_versions":"2.1","aef_processing_versions":"1.01","centroid_lat":59.006548242111435,"centroid_lon":5.366920276229683,"class":"confounding_marine","nominal_sampled_area_m2":7600,"pixel_count":76,"poly_id":"Norway_confounding_marine_6","rad":50,"region":"Norway","sampling_crs":"EPSG:32632","sampling_radius_m":50,"sampling_scale_m":10,"sampling_utm_zone":31,"site_id":"Norway_confounding_marine_6","source_aef_utm_zones":"31N|32N","source_geom_type":"Point","source_id":"6","year":2024}},{"type":"Feature","geometry":{"type":"Polygon","coordinates":[[[4.889600984371563,60.67745382039696],[4.889344360834486,60.67743591240834],[4.889108165331813,60.677383613975394],[4.888911199576484,60.677301088206725],[4.888769142171691,60.6771949043553],[4.8886933005538,60.677073514842895],[4.888689711024354,60.676946582389],[4.888758658476203,60.67682421082259],[4.888894653976184,60.676716140815635],[4.889086871907639,60.67663097455825],[4.889320011806469,60.676575491081316],[4.88957551625209,60.67655410670906],[4.889833047877281,60.67656852356968],[4.8900721079771525,60.67661759412716],[4.890273667952515,60.67669741251073],[4.890421683803895,60.67680162537673],[4.890504373179418,60.67692193757254],[4.890515153340531,60.67704877237083],[4.89045316535528,60.67717203373863],[4.890323342728652,60.67728190997622],[4.89013601892609,60.67736965475804],[4.889906104959366,60.67742828339542],[4.889651902458467,60.67745312888152],[4.889600984371563,60.67745382039696]]]},"id":"2_7","properties":{"aef_dataset_versions":"1.0","aef_model_versions":"2.1","aef_processing_versions":"1.01","centroid_lat":60.67700387709939,"centroid_lon":4.889600984371563,"class":"confounding_marine","nominal_sampled_area_m2":7800,"pixel_count":78,"poly_id":"Norway_confounding_marine_7","rad":50,"region":"Norway","sampling_crs":"EPSG:32632","sampling_radius_m":50,"sampling_scale_m":10,"sampling_utm_zone":31,"site_id":"Norway_confounding_marine_7","source_aef_utm_zones":"31N|32N","source_geom_type":"Point","source_id":"7","year":2024}},{"type":"Feature","geometry":{"type":"Polygon","coordinates":[[[5.050273851687436,59.824256104509494],[5.0500238285913674,59.82423819652921],[5.049793708087491,59.82418589811866],[5.0496018082864325,59.82410337237949],[5.0494634045338325,59.82399718855542],[5.049389513454935,59.82387579905972],[5.049386016129044,59.82374886660666],[5.049453190158641,59.823626495024946],[5.0495856878170935,59.82351842499133],[5.049772961937981,59.823433258704235],[5.050000105579624,59.823377775203845],[5.050249038593197,59.823356390821665],[5.0504999466511995,59.823370807689024],[5.0507328582368975,59.82341987826777],[5.050929234138431,59.82349969668053],[5.05107344299834,59.82360390957454],[5.051154005518329,59.82372422178838],[5.051164508296623,59.823851056589156],[5.051104114529826,59.82397431794309],[5.050977630866588,59.82408419415481],[5.050795125015316,59.824171938906815],[5.050571124476675,59.824230567519734],[5.05032346014365,59.824255412994376],[5.050273851687436,59.824256104509494]]]},"id":"2_8","properties":{"aef_dataset_versions":"1.0","aef_model_versions":"2.1","aef_processing_versions":"1.01","centroid_lat":59.82380616121191,"centroid_lon":5.050273851687436,"class":"confounding_marine","nominal_sampled_area_m2":7900,"pixel_count":79,"poly_id":"Norway_confounding_marine_8","rad":50,"region":"Norway","sampling_crs":"EPSG:32632","sampling_radius_m":50,"sampling_scale_m":10,"sampling_utm_zone":31,"site_id":"Norway_confounding_marine_8","source_aef_utm_zones":"31N|32N","source_geom_type":"Point","source_id":"8","year":2024}},{"type":"Feature","geometry":{"type":"Polygon","coordinates":[[[5.301024468849462,59.98888177172241],[5.300773203072485,59.98886386374054],[5.300541938813879,59.988811565325776],[5.300349085233188,59.98872903958102],[5.300209993598326,59.98862285575178],[5.3001357352863145,59.98850146625293],[5.300132220600632,59.98837453379971],[5.300199728516462,59.988252162220874],[5.300332884721979,59.98814409219229],[5.300521089626304,59.98805892591083],[5.300749362198313,59.988003442414865],[5.300999532431968,59.98798205803457],[5.301251687525677,59.98799647490064],[5.301485756707571,59.98804554547538],[5.301683108627544,59.98812536388263],[5.301828034238978,59.988229576771346],[5.301908997186981,59.98834988898178],[5.301919552188423,59.988476723782085],[5.3018588582738335,59.988599985138634],[5.3017317459755295,59.98870986135524],[5.301548333036714,59.98879760611287],[5.301323219162627,59.98885623473042],[5.301074323872994,59.98888108020723],[5.301024468849462,59.98888177172241]]]},"id":"2_9","properties":{"aef_dataset_versions":"1.0","aef_model_versions":"2.1","aef_processing_versions":"1.01","centroid_lat":59.98843182842483,"centroid_lon":5.301024468849462,"class":"confounding_marine","nominal_sampled_area_m2":7900,"pixel_count":79,"poly_id":"Norway_confounding_marine_9","rad":50,"region":"Norway","sampling_crs":"EPSG:32632","sampling_radius_m":50,"sampling_scale_m":10,"sampling_utm_zone":31,"site_id":"Norway_confounding_marine_9","source_aef_utm_zones":"31N|32N","source_geom_type":"Point","source_id":"9","year":2024}},{"type":"Feature","geometry":{"type":"Polygon","coordinates":[[[5.25018375358665,59.580841682854405],[5.249935541819591,59.58082377487642],[5.249707088450208,59.580771476472066],[5.249516578876474,59.58068895074103],[5.249379177779884,59.580582766924515],[5.249305821979552,59.58046137743341],[5.24930234995759,59.580334444980586],[5.249369037315534,59.580212073394655],[5.249500575077189,59.580104003353654],[5.249686492489873,59.580018837058375],[5.249911990604564,59.579963353551506],[5.250159120248183,59.579941969166605],[5.250408210628988,59.57995638603582],[5.250639434904443,59.580005456620455],[5.25083438816329,59.580085275041256],[5.250977552287652,59.58018948794298],[5.251057531144796,59.58030980016181],[5.251067957803061,59.58043663496327],[5.251008001531408,59.58055989631338],[5.250882434165609,59.58066977251795],[5.2507012504834005,59.58075751726172],[5.2504788727401985,59.5808161458679],[5.250233002646874,59.58084099133938],[5.25018375358665,59.580841682854405]]]},"id":"2_10","properties":{"aef_dataset_versions":"1.0","aef_model_versions":"2.1","aef_processing_versions":"1.01","centroid_lat":59.58039173955682,"centroid_lon":5.250183753586649,"class":"confounding_marine","nominal_sampled_area_m2":7900,"pixel_count":79,"poly_id":"Norway_confounding_marine_10","rad":50,"region":"Norway","sampling_crs":"EPSG:32632","sampling_radius_m":50,"sampling_scale_m":10,"sampling_utm_zone":31,"site_id":"Norway_confounding_marine_10","source_aef_utm_zones":"31N|32N","source_geom_type":"Point","source_id":"10","year":2024}},{"type":"Feature","geometry":{"type":"Polygon","coordinates":[[[5.228386122648851,59.866081965486806],[5.228135785191134,59.86606405750612],[5.227905375351014,59.866011759094505],[5.227713234271805,59.865929233353924],[5.227574656505249,59.86582304952854],[5.227500672527176,59.865701660032045],[5.227497170809752,59.86557472757894],[5.227564429302714,59.86545235599796],[5.22769709355417,59.865344285965605],[5.227884603135852,59.86525911967995],[5.228112032363634,59.865203636180674],[5.228361278357459,59.86518225179898],[5.2286125018787795,59.865196668666],[5.228845706302229,59.86524573924375],[5.229042329107682,59.865325557655105],[5.229186719284608,59.86542977054778],[5.229267383101076,59.865550082760755],[5.2292778990902695,59.86567691756141],[5.2292174293949065,59.86580017891601],[5.229090786705506,59.865910055128964],[5.228908051387805,59.86599779988239],[5.228683769208102,59.866056428496485],[5.22843579347933,59.86608127397167],[5.228386122648851,59.866081965486806]]]},"id":"2_11","properties":{"aef_dataset_versions":"1.0","aef_model_versions":"2.1","aef_processing_versions":"1.01","centroid_lat":59.865632022189224,"centroid_lon":5.228386122648851,"class":"confounding_marine","nominal_sampled_area_m2":7900,"pixel_count":79,"poly_id":"Norway_confounding_marine_11","rad":50,"region":"Norway","sampling_crs":"EPSG:32632","sampling_radius_m":50,"sampling_scale_m":10,"sampling_utm_zone":31,"site_id":"Norway_confounding_marine_11","source_aef_utm_zones":"31N|32N","source_geom_type":"Point","source_id":"11","year":2024}},{"type":"Feature","geometry":{"type":"Polygon","coordinates":[[[5.656980337909094,59.3418424740214],[5.656733874963895,59.341824566045645],[5.656507031197952,59.341772267647286],[5.656317863876409,59.34168974192412],[5.656181430835521,59.341583558114905],[5.6561085918422425,59.34146216862828],[5.656105144251375,59.34133523617566],[5.656171361732441,59.34121286458563],[5.656301972722353,59.34110479453754],[5.656486580245172,59.341019628234314],[5.656710489617835,59.340964144721184],[5.656955878123284,59.340942760333625],[5.657203213552389,59.34095717720464],[5.657432808744387,59.34100624779496],[5.657626388454163,59.34108606622355],[5.65776854389568,59.34119027913275],[5.6578479592317805,59.34131059135641],[5.657858312397197,59.34143742615852],[5.6577987785235875,59.34156068750493],[5.65767409583509,59.34167056370259],[5.657494188695458,59.3417583084384],[5.657273377746758,59.341816937038054],[5.6570292399757305,59.341841782506464],[5.656980337909094,59.3418424740214]]]},"id":"2_12","properties":{"aef_dataset_versions":"1.0","aef_model_versions":"2.1","aef_processing_versions":"1.01","centroid_lat":59.34139253072382,"centroid_lon":5.656980337909094,"class":"confounding_marine","nominal_sampled_area_m2":8000,"pixel_count":80,"poly_id":"Norway_confounding_marine_12","rad":50,"region":"Norway","sampling_crs":"EPSG:32632","sampling_radius_m":50,"sampling_scale_m":10,"sampling_utm_zone":31,"site_id":"Norway_confounding_marine_12","source_aef_utm_zones":"31N|32N","source_geom_type":"Point","source_id":"12","year":2024}},{"type":"Feature","geometry":{"type":"Polygon","coordinates":[[[5.669168295672765,59.013149970758825],[5.66892419111771,59.01313206278607],[5.668699517997731,59.013079764395805],[5.668512160783322,59.01299723868329],[5.668377033223582,59.01289105488397],[5.668304891175955,59.012769665403376],[5.668301476532458,59.01264273295106],[5.668367060356996,59.0125203613555],[5.668496421540135,59.01241229129777],[5.6686792625981965,59.01232712498383],[5.668901029457014,59.01227164146221],[5.669144069933131,59.01225025707108],[5.669389038704512,59.01226467394453],[5.669616436979792,59.012313744542524],[5.669808164376505,59.01239356298168],[5.669948959549179,59.012497775900975],[5.670027614943965,59.01261808813115],[5.670037869000468,59.01274492293416],[5.669978904756354,59.01286818427556],[5.66985541510831,59.01297806046389],[5.669677229462541,59.01306580518891],[5.66945853142945,59.01312443377973],[5.669216729797942,59.013149279244004],[5.669168295672765,59.013149970758825]]]},"id":"2_13","properties":{"aef_dataset_versions":"1.0","aef_model_versions":"2.1","aef_processing_versions":"1.01","centroid_lat":59.01270002746125,"centroid_lon":5.669168295672765,"class":"confounding_marine","nominal_sampled_area_m2":7800,"pixel_count":78,"poly_id":"Norway_confounding_marine_13","rad":50,"region":"Norway","sampling_crs":"EPSG:32632","sampling_radius_m":50,"sampling_scale_m":10,"sampling_utm_zone":31,"site_id":"Norway_confounding_marine_13","source_aef_utm_zones":"31N|32N","source_geom_type":"Point","source_id":"13","year":2024}},{"type":"Feature","geometry":{"type":"Polygon","coordinates":[[[5.969020163733819,59.016187638720474],[5.968776037626616,59.0161697307477],[5.968551344670189,59.01611743235736],[5.9683639709141145,59.01603490664474],[5.9682288314242316,59.01592872284534],[5.968156683007563,59.01580733336469],[5.968153268062974,59.015680400912366],[5.96821885767818,59.015558029316864],[5.96834823028268,59.01544995925921],[5.96853108748358,59.01536479294537],[5.9687528739217655,59.01530930942383],[5.968995935855354,59.01528792503272],[5.969240926254442,59.01530234190615],[5.969468344606251,59.01535141250408],[5.96966008893033,59.015431230943136],[5.96980089653382,59.01553544386234],[5.969879558873328,59.015655756092464],[5.969889813835535,59.01578259089546],[5.969830844385859,59.01590585223691],[5.969707343835211,59.016015728425316],[5.969529142457571,59.01610347315045],[5.969310425115599,59.016162101741344],[5.969068602135279,59.01618694720565],[5.969020163733819,59.016187638720474]]]},"id":"2_14","properties":{"aef_dataset_versions":"1.0","aef_model_versions":"2.1","aef_processing_versions":"1.01","centroid_lat":59.01573769542289,"centroid_lon":5.969020163733819,"class":"confounding_marine","nominal_sampled_area_m2":7900,"pixel_count":79,"poly_id":"Norway_confounding_marine_14","rad":50,"region":"Norway","sampling_crs":"EPSG:32632","sampling_radius_m":50,"sampling_scale_m":10,"sampling_utm_zone":31,"site_id":"Norway_confounding_marine_14","source_aef_utm_zones":"31N|32N","source_geom_type":"Point","source_id":"14","year":2024}},{"type":"Feature","geometry":{"type":"Polygon","coordinates":[[[6.381671298185954,59.01524725709228],[6.381427178751206,59.01522934911951],[6.381202491936061,59.01517705072919],[6.381015123301216,59.015094525016615],[6.380879987504855,59.01498834121723],[6.380807841060015,59.0148669517366],[6.380804426208644,59.01474001928427],[6.380870014031082,59.014617647688745],[6.380999383099576,59.01450957763108],[6.381182235302723,59.0144244113172],[6.381404015679218,59.01436892779565],[6.38164707096966,59.01434754340452],[6.381892054672903,59.01436196027795],[6.382119466809103,59.01441103087591],[6.382311205892538,59.01449084931499],[6.382452009647502,59.01459506223424],[6.382530669836953,59.01471537446436],[6.382540924518757,59.01484220926737],[6.3824819566807,59.01496547060881],[6.382358459505454,59.01507534679718],[6.382180262998335,59.01516309152228],[6.381961551634312,59.01522172011315],[6.381719735263495,59.015246565577456],[6.381671298185954,59.01524725709228]]]},"id":"2_15","properties":{"aef_dataset_versions":"1.0","aef_model_versions":"2.1","aef_processing_versions":"1.01","centroid_lat":59.0147973137947,"centroid_lon":6.381671298185955,"class":"confounding_marine","nominal_sampled_area_m2":7900,"pixel_count":79,"poly_id":"Norway_confounding_marine_15","rad":50,"region":"Norway","sampling_crs":"EPSG:32632","sampling_radius_m":50,"sampling_scale_m":10,"sampling_utm_zone":31,"site_id":"Norway_confounding_marine_15","source_aef_utm_zones":"31N|32N","source_geom_type":"Point","source_id":"15","year":2024}},{"type":"Feature","geometry":{"type":"Polygon","coordinates":[[[6.246300418207343,58.99940910589093],[6.2460564110871575,58.9993911979183],[6.245831827645564,58.99933889952837],[6.24564454521419,58.999256373816294],[6.2455094715893,58.99915019001738],[6.245437358335403,58.99902880053705],[6.245433945053112,58.99890186808473],[6.2454995026986815,58.99877949648895],[6.245628812247122,58.99867142643082],[6.245811580325191,58.998586260116426],[6.246033258667862,58.99853077659446],[6.246276202137129,58.99850939220318],[6.246521073132043,58.99852380907672],[6.246748380643568,58.99857287967504],[6.246940031513536,58.998652698114626],[6.247080770487864,58.998756911034356],[6.247159394486333,58.99887722326479],[6.247169644448249,58.99900405806785],[6.247110703737905,58.99912731940904],[6.246987263379321,58.99923719559697],[6.2468091488556095,58.99932494032156],[6.2465905381158215,58.999383568911995],[6.246348832999919,58.99940841437609],[6.246300418207343,58.99940910589093]]]},"id":"2_16","properties":{"aef_dataset_versions":"1.0","aef_model_versions":"2.1","aef_processing_versions":"1.01","centroid_lat":58.99895916259334,"centroid_lon":6.246300418207343,"class":"confounding_marine","nominal_sampled_area_m2":7700,"pixel_count":77,"poly_id":"Norway_confounding_marine_16","rad":50,"region":"Norway","sampling_crs":"EPSG:32632","sampling_radius_m":50,"sampling_scale_m":10,"sampling_utm_zone":31,"site_id":"Norway_confounding_marine_16","source_aef_utm_zones":"31N|32N","source_geom_type":"Point","source_id":"16","year":2024}},{"type":"Feature","geometry":{"type":"Polygon","coordinates":[[[6.179609973261051,58.974068940348346],[6.179366145584434,58.97405103237595],[6.179141727301465,58.97399873398663],[6.1789545825962975,58.97391620827538],[6.178819608301986,58.9738100244772],[6.178747548076842,58.97368863499732],[6.178744137301459,58.97356170254505],[6.178809646733823,58.973439330948835],[6.178938861187824,58.97333126088997],[6.179121494860313,58.97324609457477],[6.179343010184819,58.973190611052146],[6.179585774998787,58.973169226660595],[6.179830465921019,58.97318364353433],[6.180057606275007,58.973232714133225],[6.180249116207425,58.973312532573615],[6.180389751682545,58.97341674549412],[6.180468317859136,58.97353705772505],[6.180478560280148,58.97366389252817],[6.180419662911416,58.973787153869],[6.180296313328102,58.9738970300562],[6.180118329788251,58.97398477477998],[6.179899879814542,58.97404340336974],[6.179658352449218,58.97406824883353],[6.179609973261051,58.974068940348346]]]},"id":"2_17","properties":{"aef_dataset_versions":"1.0","aef_model_versions":"2.1","aef_processing_versions":"1.01","centroid_lat":58.973618997050764,"centroid_lon":6.179609973261052,"class":"confounding_marine","nominal_sampled_area_m2":7600,"pixel_count":76,"poly_id":"Norway_confounding_marine_17","rad":50,"region":"Norway","sampling_crs":"EPSG:32632","sampling_radius_m":50,"sampling_scale_m":10,"sampling_utm_zone":31,"site_id":"Norway_confounding_marine_17","source_aef_utm_zones":"31N|32N","source_geom_type":"Point","source_id":"17","year":2024}},{"type":"Feature","geometry":{"type":"Polygon","coordinates":[[[6.294168280049721,59.00655674659955],[6.2939242222579095,59.00653883862686],[6.293699592178499,59.00648654023676],[6.293512270855733,59.006404014524456],[6.293377169181679,59.00629783072533],[6.293305040953418,59.006176441244854],[6.293301626963223,59.006049508792536],[6.293367198223333,59.00592713719687],[6.293496534624727,59.00581906713895],[6.293679340656507,59.005733900824794],[6.293901065032565,59.00567841730302],[6.294144058950862,59.005657032911806],[6.294388980795053,59.005671449785304],[6.294616335508848,59.005720520383456],[6.294808026177037,59.005800338822816],[6.2949487943776745,59.005904551742326],[6.295027434703999,59.00602486397263],[6.295037686795331,59.00615169877565],[6.2949787338461,59.00627496011696],[6.294855267854216,59.00638483630508],[6.294677116343026,59.0064725810299],[6.2944584602057985,59.00653120962054],[6.29421670489634,59.00655605508473],[6.294168280049721,59.00655674659955]]]},"id":"2_18","properties":{"aef_dataset_versions":"1.0","aef_model_versions":"2.1","aef_processing_versions":"1.01","centroid_lat":59.006106803301975,"centroid_lon":6.294168280049721,"class":"confounding_marine","nominal_sampled_area_m2":8100,"pixel_count":81,"poly_id":"Norway_confounding_marine_18","rad":50,"region":"Norway","sampling_crs":"EPSG:32632","sampling_radius_m":50,"sampling_scale_m":10,"sampling_utm_zone":31,"site_id":"Norway_confounding_marine_18","source_aef_utm_zones":"31N|32N","source_geom_type":"Point","source_id":"18","year":2024}},{"type":"Feature","geometry":{"type":"Polygon","coordinates":[[[5.885441155077933,59.465870376450624],[5.885193788211596,59.465852468473706],[5.884966112482937,59.46580017007225],[5.884776251385657,59.46571764434501],[5.884639317981578,59.46561146053202],[5.884566211863944,59.46549007104309],[5.884562751645224,59.465363138590355],[5.884629211993564,59.46524076700245],[5.884760302008007,59.46513269695803],[5.884945586579318,59.46504753065891],[5.885170317132028,59.464992047149025],[5.885416605587199,59.46497066276282],[5.885664848105888,59.46498507963292],[5.885895285329389,59.465034150220276],[5.886089574991473,59.46511396864486],[5.886232251795276,59.4652181815502],[5.88631195840092,59.46533849377135],[5.886322349552858,59.465465328573124],[5.886262597352489,59.465588589921445],[5.886137457396955,59.465698466122696],[5.885956890445196,59.46578621086262],[5.885735269660615,59.46584483946564],[5.885490236496651,59.46586968493563],[5.885441155077933,59.465870376450624]]]},"id":"2_19","properties":{"aef_dataset_versions":"1.0","aef_model_versions":"2.1","aef_processing_versions":"1.01","centroid_lat":59.46542043315305,"centroid_lon":5.885441155077934,"class":"confounding_marine","nominal_sampled_area_m2":7800,"pixel_count":78,"poly_id":"Norway_confounding_marine_19","rad":50,"region":"Norway","sampling_crs":"EPSG:32632","sampling_radius_m":50,"sampling_scale_m":10,"sampling_utm_zone":31,"site_id":"Norway_confounding_marine_19","source_aef_utm_zones":"31N|32N","source_geom_type":"Point","source_id":"19","year":2024}}]}